place_name	frequency	State	City	Barrio	Facility	Ignore	Foreign	linked place entity
Capital	1587		1					Buenos Aires
Buenos	1195	2	1					Buenos Aires
Avellaneda	1136		1					Avellaneda, Buenos Aires
La	1097					1
Nueva	904					1
San	792					1
Villa	720					1
Barcelona	710						1
Río	639					1
Moscú	610						1
Santa	596					1
Santiago	560	1					2	Santiago del Estero
Ciudad	557					1
Bariloche	490		1					San Carlos de Bariloche
Bruselas	467						1
Once	453		1	1				Buenos Aires
Capital Federal	448		1					Buenos Aires
Río de Janeiro	437						1
San Martín	433		1					General San Martín, Buenos Aires
porteño	427		1				2	Buenos Aires
Cisjordania	421						1
Gran Buenos Aires	407					1
Callao	379		1		1			Buenos Aires
El	363					1
PLATA.-	362		1					La Plata
Paquistán	360						1
Obelisco	346		1		1			Buenos Aires
Teherán	336						1
Rivadavia	318		1		1			Buenos Aires
Comodoro	306		1		1			Buenos Aires
Constitución	304			1				Buenos Aires
Junín	285		1					Junín, Buenos Aires
San Isidro	268		1					San Isidro, Buenos Aires
La Boca	257			1				Buenos Aires
Pilar	255		1					Pilar, Buenos Aires
Bombay	252						1
Lomas	249		1					Lomas de Zamora
Brasilia	237						1
San Pedro	229		1					San Pedro, Buenos Aires
Estados	227						1
Núñez	222			1				Buenos Aires
Fray Bentos	221						1
Ciudad de Buenos Aires	210		1					Buenos Aires
Milán	205						1
Niza	203						1
Puerto	189					1
Merlo	189		1					Merlo, Buenos Aires
Ituzaingó	184		1					Ituzaingó, Buenos Aires
Plata	181		1					La Plata
Tierra del Fuego	176	1						Tierra del Fuego, Antártida e Islas del Atlántico Sur
San Miguel	175		1					San Miguel, Buenos Aires
bonaerense	172	1						Buenos Aires
Tartagal	169		1					Tartagal, Salta
Hebrón	168						1
Florencio	168		1					Florencio Varela
Bilbao	168						1
Sarmiento	166					1
Homs	165						1
Fray	160					1
General	158					1
Basora	153						1
San Fernando	152		1					San Fernando, Buenos Aires
Los	151					1
Estrasburgo	150						1
San Lorenzo	150					1
Cachemira	146						1
Las	141					1
Jartum	139						1
Barrio Norte	138		1	1				Buenos Aires
Olivos	136		1	1				Vicente López
Yakarta	136					1
Martínez	135		1	1				San Isidro, Buenos Aires
Chiapas	135					1
Bahía	133		1					Bahía Blanca
Entre	133	1						Entre Ríos
Tigray	132						1
San Vicente	132		1					San Vicente, Buenos Aires
Puerto Príncipe	130						1
Orlando	127						1
San Francisco	125						1
Guayaquil	123						1
El Bolsón	121		1					El Bolson
Fallujah	120						1
País Vasco	118						1
Valencia	113						1
Cúcuta	112						1
Maipú	111					1
Gran Bretaña	109						1
Ciudadela	109		1					Caseros
Ferguson	107						1
Marsella	107						1
Santa Rosa	107		1					Santa Rosa, La Pampa
Almaty	104						1
Gran Rosario	104					1
Bajo Flores	102		1	1				Buenos Aires
Chechenia	100						1
San José	99					1
Guerrero	98					1
San Sebastián	97
Parque	96					1
Newtown	96						1
Pensilvania	95						1
Toulouse	95						1
Kunduz	94						1
Ciudad de México	93						1
Al	93					1
Saladillo	93		1					Saladillo, Buenos Aires
Porto Alegre	93						1
Táchira	93						1
San Carlos	91					1
Mekelle	90						1
Valparaíso	90						1
Mar	90					1
Cabildo	90
Cataluña	89						1
Caleta	89
Barajas	89						1
Potosí	88						1
General Mosconi	88		1					General Mosconi, Salta
Vélez	87						1
Lavalle	86
Haití	85						1
Iguala	85
Pacheco	85		1					General Pacheco
Christchurch	85						1
Lockerbie	85						1
Belo Horizonte	83						1
Dallas	83						1
Atocha	83
Hama	82						1
Donetsk	82						1
Pompeya	80		1	1				Buenos Aires
Aires	80					1
Zamora	79		1					Lomas de Zamora
Deraa	79						1
Barrios de Pie	78					1
Estado	77					1
Pueyrredón	77					1
Gran	77					1
Alberdi	76
Michoacán	76
General Pacheco	76		1					General Pacheco
Sao Paulo	76						1
Vicente	76
Perón	75					1
Monterrey	75						1
Génova	75						1
Tamaulipas	74						1
San Bernardino	74						1
Pampa	74
Congreso	74
Grozny	74						1
Lyon	74						1
En	73					1
River	72					1
Birmingham	72						1
Sierra Chica	72
Arroyo Verde	72
Santander	71
Lugano	71						1
Barranquilla	70
Vitoria	70
Mérida	70
República	69					1
Daguestán	68						1
Cauca	67						1
Tijuana	67						1
Pamplona	67
Monte Grande	67		1					Monte Grande
Barrio	65					1
Alsina	65
Johannesburgo	64						1
San Petersburgo	64						1
Tíbet	63						1
Jalalabad	63						1
Dock Sud	63
Cromagnon	63
Beslan	63
Nápoles	62
Colonia	62					1
Iquique	61
Rangún	61
Patagonia	61					1
Alem	61
Oruro	61
el	61					1
Arroyo	61
Riad	61						1
Curitiba	61
Denver	60						1
Utoya	60						1
Omagh	60						1
Turín	59						1
City	59					1
Saná	58
Naplusa	58
Rotterdam	58						1
Villa Mascardi	57
Recife	57
Maracaibo	57
Veracruz	56
Melbourne	56						1
Orán	56
Tolosa	56
Quequén	56		1					Quequén
Paysandú	56						1
Fe	55					1
Minas Gerais	55						1
Carabobo	55
Netanya	55						1
Roca	54
Punta	54					1
Arequipa	51
Sur	51					1
Málaga	51						1
Benavídez	51
Costa	50					1
San Antonio	50
Platense	50					1
Tulkarem	50						1
Mosconi	50					1
Burkina	49						1
Cabo Delgado	49						1
Bahrein	49						1
Norte	49					1
Juan	49					1
La Tablada	49
Talcahuano	49
Charleston	49						1
Mitre	49
Don Torcuato	48
Quebec	48						1
Kufa	48						1
Dacca	48						1
Caquetá	47
Lod	47					1
Zaragoza	47						1
Escocia	47						1
Alvear	47
Alto	46					1
Hadera	46
porteños	46					1
Leganés	46
Sevilla	46					1
Adrogué	46
Nariño	45
Dock	45					1
Franja	45
Tortuguitas	45
del Plata	45		1					Mar del Plata
José	44					1
Los Hornos	44
Loyola	44
Liverpool	43						1
Karrada	43
Ramos	43
Ciudad Juárez	43
Cancún	43
Sierra	43					1
Sáenz Peña	43
Dorrego	43
Ranchos	43
Borno	42						1
Guadalajara	42						1
Bosques	42					1
Rioja	41
Nueva Jersey	41						1
Burdeos	41
EE.UU.	41						1
Vizcaya	41
Ciudad del Este	41						1
Hilla	41						1
Baaquba	41						1
Azopardo	40
Detroit	40						1
Beccar	40		1					San Isidro, Buenos Aires
Alto Valle	40
Riobamba	39
Garín	39		1					Garín
Nantes	39						1
Nayaf	39						1
Acassuso	39
Rio de Janeiro	39						1
Puerto Iguazú	39
País	39					1
Guipúzcoa	39
Katmandú	39						1
Littleton	39						1
Pittsburgh	38						1
Urquiza	38
Nueva Zelanda	38						1
Gran Buenos	38					1
Figueroa Alcorta	38
PLATA.–	38
Chacao	38
Balad	38
Jenín	38
Juiz de Fora	38
Toronto	37						1
Zulia	37
la	37					1
Latakia	37
Martín	37					1
Yacuiba	37
Pasteur	37
Oklahoma City	37						1
Tierra	36					1
Durango	36
Venecia	36						1
Cartagena	36
Villa Ballester	36
Cuzco	36
PLATA	36
El Paso	36						1
Lugansk	36						1
Navarra	36
Tiananmen	35						1
La Cámpora	35
Cuenca	35						1
Sri	35					1
Amazonas	35					1
Arabia	35						1
Acoyte	35
Estudiantes	35
Osetia	35						1
Punta del Este	35						1
Chibok	35
Múnich	34						1
Mitrovica	34
Westminster	34						1
Zurich	34						1
Rodríguez Peña	34
Dar	34					1
Columbine	34
Claypole	34
Houston	33						1
Reino	33
Conurbano	33					1
Ríos	33
Gerli	33
Paz	33
Valle	33
Sirte	33
Raqqa	33						1
Erbil	33						1
Parque Norte	33
El Palomar	33
Manaos	33
Ingeniero	33
Bolonia	33						1
Portadown	33
Acteal	33
Glew	33						1
Acapulco	32						1
La Paternal	32
Lille	32						1
Santiago de Chile	32						1
Barinas	32
Bartolomé Mitre	32
Ulster	32
Billinghurst	32
Luxor	32
Güemes	32
Tres	32					1
Fortaleza	32
Tottenham	32						1
Soweto	31						1
Palermo Chico	31			1				Buenos Aires
Palmira	31
Dresde	31						1
Suteba	31
Cariló	31
Hipólito Yrigoyen	31		1					Hipólito Yrigoyen, Buenos Aires
Pedro	31
Cerro	31
Olmos	31
Solhan	30
Virrey del Pino	30
Herat	30
Lagos	30
Porto	30
Edimburgo	30						1
Sadr City	30						1
Santos	30
Las Cañitas	30
Tucson	30						1
Rio	30					1
Carapachay	30
Novi Sad	30
porteñas	30
Carolina	30
Petare	30
Bartolomé	30
Laferrère	30
Esteban	30
Rennes	30
Cotopaxi	29
Bronx	29						1
Abasto	29
La Araucanía	29
Cruz	29					1
Cuyo	29
Laferrere	29
San Pedro Sula	29
Santa Teresa	29
Bengasi	29						1
Cáucaso	29						1
Libertador	29					1
Huracán	29
Pará	29
Villa Tesei	29
Cuesta del Ternero	28
Janeiro	28						1
Huila	28
Idlib	28						1
Nangarhar	28
Mercedes	28
Llavallol	28
Provincia	28					1
Roraima	28
Getxo	28
Stuttgart	28						1
Nis	28					1
Nasiriyah	28
Saravena	27
Camiri	27
Montreal	27						1
Kaduna	27
Burgos	27
Barquisimeto	27
Villa Ortúzar	27
Chapare	27
Granada	27
Juramento	27
Derqui	27
Loma	27
Boulogne	27						1
San Ignacio	27
Altamira	27
Slaviansk	27						1
Leipzig	26						1
Hasaka	26
Windsor	26						1
Santiago del	26	1	2		1			Santiago del Estero
Ayotzinapa	26
Puebla	26					1
Meta	26					1
Campos Elíseos	26
Alepo	26						1
Misurata	26
Guernica	26						1
Valentín Alsina	26
Aeroparque	26		1		1			Buenos Aires
Drumcree	26
Punta Arenas	26						1
Soldati	26						1
San Bernardo	26
Volgogrado	26
Leleque	26
Birmania	25
Reynosa	25
Baluchistán	25
Marib	25
Guadalupe	25
Omdurman	25
Boyacá	25
Beit	25
Mindanao	25
Ipanema	25
Santa Catarina	25
Adén	25
Phoenix	25
Oeste	25
Carmen de Patagones	25
Gonnet	25
San Diego	25
Noroeste	25
Campo	25
Villa Centenario	25
Cádiz	24
San Andrés	24
Tacuarí	24
Apure	24
Ammán	24
Oakland	24
Alcanar	24
Putumayo	24
Chihuahua	24
Calais	24
Jammu	24
Abu	24
Pernambuco	24
Fráncfort	24
Valdivia	24
Tal Afar	24
Villa Pueyrredón	24
San Miguel del Monte	24
Cromañón	24
Coto	24
Bakuba	24
Fort	24
Castells	24
Costanera	24
Siderar	24
Ilave	24
Araucanía	23
Sheij	23
Santo Tomé	23
Tapachula	23
Houla	23
Calamuchita	23
St	23
Río de la Plata	23
Tesalónica	23
Düsseldorf	23
Temuco	23
Santa María	23
Andes	23
Arenales	23
de	23
bonaerenses	23
Londonderry	23
Ciudad Evita	23
Sharm	23
Mombasa	23
Kfar	23
José León Suárez	23
Catia	23
Baiji	23
Kobane	23
Guanajuato	22
Magallanes	22
Palma	22
Beersheva	22
Puerto Morelos	22
Chocó	22
Chumbivilcas	22
Srebrenica	22
Valle del Cauca	22
SAN	22
Aurora	22
RDC	22
Norte de Santander	22
Isidro	22
Gonaïves	22
Rentería	22
Morelia	22
Amara	22
Gran Mendoza	22
tucumana	22
Coronel	22
José León	22
Afula	22
Miranda	21
Tulum	21
González	21
Hodeida	21
Sinaloa	21
Agüero	21
Gregorio	21
Puno	21
Malvinas	21
Nasiriya	21
Guayas	21
Jalisco	21
Amhara	21
Yugoslavia	21
Carolina del Sur	21
Santa Cruz de la Sierra	21
Montserrat	21
Centro	21
Valladolid	21
Cantabria	21
Azcuénaga	21
Carbap	21
Carolina del	21
Nordeste	21
Grenoble	21
Huanuni	21
Guantánamo	20
Villa Martelli	20
Tacna	20
Villa Fiorito	20
Luis	20
Khobar	20
Chabás	20
Karbala	20
Empalme	20
Municipalidad	20
Salguero	20
Swat	20
Odessa	20
Qom	20
Diagonal	20
Fort Hood	20
Port Said	20
Tecnópolis	20
Kano	20
Córcega	20
Hillah	20
Taba	20
Azuay	19
Séléka	19
Inata	19
Ramala	19
Ceuta	19
Shanksville	19
Malí	19
Quintana	19
Osaka	19
Río de	19
Pico	19
Cracovia	19
Alto Comedero	19
Costa Salguero	19
Melilla	19
microcentro	19
Aragua	19
Antofagasta	19
Costa de Marfil	19
Luisiana	19
Shanghai	19
Fernando	19
Kuta	19
Gotemburgo	19
Gaona	19
Puerto Argentino	19
Barrios de	19
Suez	19
Zawiya	19
Duma	19
Maiduguri	19
Port	19
Burgas	19
Ferrugem	19
Garrahan	19
Cuesta	18
Kivu Norte	18
Durban	18
Tolima	18
Tuluá	18
Villa Diamante	18
Los Ríos	18
Trieste	18
Fátima	18
Oviedo	18
Sderot	18
Barrancabermeja	18
Montgomery	18
Marcelo	18
Bernardo de Irigoyen	18
Chemnitz	18
Uagadugú	18
Mato Grosso	18
Dayton	18
Hudson	18
Alicante	18
Bojayá	18
Jonesboro	18
platense	18
Rio Grande do Sul	18
Panamericana	18
el Chaco	18
Foz	18
El Jagüel	18
Asturias	18
River Plate	18
Erez	18
Hackney	18
Wukan	18
Maracay	18
Zarauz	18
Popayán	17
León	17
Tarragona	17
Pereira	17
Kongsberg	17
Nuevo León	17
Cacak	17
Pablo	17
Salónica	17
Tiflis	17
Matanza	17
Barrios Altos	17
Lugo	17
Zona	17
Belo	17
Waco	17
Maldonado	17
Echeverría	17
Carlos	17
Garissa	17
Andalucía	17
Buenaventura	17
Vigo	17
Botnia	17
Castañares	17
Villa Maipú	17
Dahab	17
Hyderabad	17
Nínive	17
Malvinas Argentinas	17
Maracaná	17
Kirguizistán	17
São Bernardo do Campo	17
Blumberg	17
Ingeniero Maschwitz	17
Campo de Mayo	17
Tahrir	17
Ras	17
Andahuaylas	17
Florianópolis	17
Solís	17
Saint-Denis	17
Charlotte	17
Masaya	17
Tetovo	17
Juan B	16
Siberia	16
Shenzhen	16
Abuya	16
Santiago de Compostela	16
Villavicencio	16
Sao	16
Cuernavaca	16
Auckland	16
Punta Mogotes	16
Galicia	16
Susa	16
Punta del	16
Rostock	16
Palermo Viejo	16
Misuri	16
Ermua	16
Venado	16
Recreo	16
cordobesa	16
Bouchard	16
Pec	16
Buquebús	16
Pontevedra	16
Davos	16
Rouen	16
Ceará	16
Rocinha	16
Campinas	16
La Loma	16
Aguilares	16
Borda	16
Rafael	16
Diwaniya	16
Rafah	16
Suruç	16
Gaziantep	16
Medea	16
Almirante	15
Sonora	15
Queens	15
Tlatelolco	15
Nordelta	15
Nazca	15
Del Río	15
Austin	15
Ciudad Vieja	15
Sidón	15
Harlem	15
Melchor	15
Yrigoyen	15
Remedios	15
São Paulo	15
Nanterre	15
Casa	15
Murcia	15
Gales	15
Nueva Córdoba	15
Bretaña	15
Tartus	15
Talleres	15
Gutiérrez	15
Crimea	15
Valentín	15
Montpellier	15
Pigüé	15
Jesús	15
en	15
Girona	15
Punilla	15
Brighton	15
Edesur	15
Sana	15
Illia	15
Ingusetia	15
Ingeniero Budge	15
Anzoátegui	15
Faluya	15
Termap	15
Goiania	15
Aysén	15
Zaire	15
Batán	15
Villa Ramallo	15
Suzano	15
El Valle	15
Cerdeña	14
Memphis	14
Baghlan	14
Padua	14
Culiacán	14
Zamfara	14
Aden	14
Chapadmalal	14
Ludueña	14
Deir	14
Tulsa	14
Ciudad Sadr	14
Ciudad de	14
Bristol	14
La Horqueta	14
Monteros	14
Nueva Chicago	14
Chilpancingo	14
Kayah	14
Pichincha	14
La Perla	14
Sáenz	14
Maceió	14
Derry	14
Carolina del Norte	14
Corea	14
Alexandria	14
Mallorca	14
Torres Gemelas	14
Don	14
Vélez Sarsfield	14
Kabilia	14
Waziristán	14
Barrionuevo	14
Bosnia	14
Ingushetia	14
Buenos Aires-	14
Bari	14
Francfort	14
Cramer	14
Telmo	14
Villegas	14
Baviera	14
El Pato	14
Cabinda	14
Banias	14
Brixton	14
Lanús Oeste	14
Montañita	14
York	14
Cerro Dragón	14
Buinaksk	14
Salamanca	14
Zaventem	14
Rondonia	14
Puente Pueyrredón	14
Ahvaz	14
Riyad	14
Mahmudiya	14
Gdansk	13
Sokoto	13
Eibar	13
Piedras	13
Cundinamarca	13
Isla	13
Cocula	13
Buyumbura	13
Omaha	13
Biobío	13
Cajamarca	13
Hannover	13
Quilmes Oeste	13
Boga	13
Punta Lara	13
Fisherton	13
Belarús	13
Barrio Parque	13
Ámsterdam	13
del	13
Arica	13
iraquí	13
San Javier	13
Vedia	13
Puerto Nuevo	13
Tabasco	13
Ureña	13
Rivera	13
Normandía	13
Santa Isabel	13
Fiumicino	13
Del Viso	13
Ringuelet	13
Ledesma	13
Juárez	13
Sicilia	13
Larrea	13
Nuevo Laredo	13
Viña del Mar	13
El Cartón	13
Mina	13
Olleros	13
Multan	13
Beslán	13
Prizren	13
Kut	13
Lacroze	13
Laferrére	13
Villa Madero	13
Pola	13
Annapolis	13
Comodoro Py	13
Peralta	13
Carlos Paz	13
Migueletes	13
Yobe	13
Simferopol	13
Alagoas	13
Suruc	13
Clichy-sous-Bois	13
Kivu	12
Playa del Carmen	12
Wurzburgo	12
San Vicente del Caguán	12
Sacaba	12
Miguel	12
Casanare	12
Foz de Iguazú	12
Tillabéri	12
Beita	12
Milwaukee	12
Amán	12
Mandalay	12
Trujillo	12
Schwerin	12
Justo	12
Djugu	12
Bucaramanga	12
Quilichao	12
Shiraz	12
Tumaco	12
Newcastle	12
Morelos	12
Marrakech	12
Sidney	12
Esmirna	12
Neiva	12
Jos	12
Iriarte	12
Agronomía	12
tunecina	12
Nuevo	12
Leeds	12
Minas	12
Diagonal Norte	12
Garay	12
Osetia del Norte	12
Bella	12
Ortiz de Ocampo	12
Santo	12
Nueva Orleáns	12
Puerto Belgrano	12
Almería	12
Kauhajoki	12
Beruti	12
Peña	12
Orly	12
Roque Sáenz Peña	12
Bab	12
Gorriti	12
Moyano	12
Kansas City	12
Virreyes	12
Béccar	12
Medrano	12
Kraljevo	12
Brega	12
Daraa	12
Soria	12
Cotiza	12
Sudoeste	12
Surabaya	12
Villa Moreno	12
Ansbach	12
Ryad	12
Mozdok	12
Khan Younis	11
Jabaliya	11
Ciudad de Buenos	11
Costanera Sur	11
Essex	11
Del	11
Colleyville	11
Negro	11
San Pedrito	11
Estero	11
Springfield	11
Cusco	11
Vancouver	11
Cobija	11
Candelaria	11
Nonogasta	11
Nuremberg	11
Mong Kok	11
Sofía	11
Mondragón	11
Peñalolén	11
Rodríguez	11
Sajonia	11
Dortmund	11
Caldas	11
Barrancas	11
Ashkelon	11
Bajaur	11
Baigorria	11
Madryn	11
Hidalgo	11
Metán	11
Oregón	11
Saida	11
Francisco	11
Gonaives	11
Pringles	11
Bermejo	11
Punta Loyola	11
Fuentealba	11
Samara	11
Los Cardales	11
Copiapó	11
Benidorm	11
Udaondo	11
Peñarol	11
Irlanda del	11
santacruceña	11
Melchor Romero	11
Paso	11
Hipólito	11
Ranelagh	11
Virrey del	11
Urumqi	11
Dora	11
Santa Teresita	11
Gregorio de Laferrere	11
Famaillá	11
Santa Ana	11
Chelsea	11
Taji	11
Iskandariya	11
Eilat	11
Torres	11
Alta Córdoba	11
Timisoara	11
Idleb	11
Niteroi	11
Makati	11
Botafogo	11
Tal	11
Scalabrini Ortiz	11
Selma	11
San Félix	11
Cumaná	11
Molenbeek	11
Sultanahmet	11
Andresito	11
Finsbury	11
Puente La Noria	11
Moquegua	11
Cuña Muerta	11
Sichuan	10
Kivu Sur	10
Quintana Roo	10
Baja California	10
Países Bajos	10
Castillo	10
Cabezas	10
Tibú	10
Pulwama	10
Caracollo	10
Ituango	10
Afar	10
Adís Abeba	10
Santa Marta	10
Tajar	10
Guaviare	10
Lausana	10
Tagle	10
Irún	10
Sacramento	10
Mansilla	10
uruguaya	10
Candela	10
Lago	10
Zócalo	10
Loma Hermosa	10
Roque	10
Distrito Federal	10
Jericó	10
Alta	10
Jaipur	10
Uruzgan	10
Salvador Mazza	10
Zarautz	10
Marcos	10
Bajo	10
Cabrera	10
Osetia del	10
Rosedal	10
Versailles	10
Dubai	10
Máximo Paz	10
Erfurt	10
City Bell	10
Jorge	10
Villa Mitre	10
Villa del	10
Aimogasta	10
Vladikavkaz	10
Hinche	10
Oca	10
Marcelo T.	10
Directorio	10
Henderson	10
Villa Bosch	10
Traslasierra	10
Lieja	10
Montauban	10
Cristóbal	10
Alto Verde	10
Al-Anbar	10
de Pie	10
Luro	10
Osasco	10
Sinjar	10
Montrouge	10
Matheu	10
Rais	10
Lara	10
Hedera	10
Beasain	10
Blida	10
Grozni	10
Campo Durán	10
Warisata	10
Dura	10
Haditha	10
Villiers-le-Bel	10
Kisumu	10
Ciudad de Gaza	9
Nayarit	9
Nursultán	9
Alto Paraná	9
Del Rio	9
Badghis	9
Saint Louis	9
Fnideq	9
Ibagué	9
Manizales	9
Tame	9
Coahuila	9
Taiwán	9
Oxford	9
Acre	9
Nuevo México	9
Perm	9
Cañada	9
Gómez	9
Afrín	9
Bayona	9
Paso del Rey	9
Salisbury	9
Camagüey	9
Ontario	9
Abiyán	9
Río Bueno	9
Vizcatán	9
Tenerife	9
Ahmedabad	9
Cuiabá	9
Soacha	9
Coronel Brandsen	9
Omdurmán	9
Ashdod	9
Beersheba	9
Zahedan	9
Newark	9
Galilea	9
Lens	9
Sheffield	9
Laguna	9
Davao	9
Qinghai	9
Borges	9
Ostende	9
Los Andes	9
Las Lajitas	9
Areco	9
Chueca	9
Sochi	9
Matamoros	9
Misrata	9
Pocitos	9
Eva Perón	9
Apatzingán	9
Castellón	9
Congonhas	9
Leblon	9
Trenque	9
Caen	9
Villalba	9
Hillsborough	9
Kemerovo	9
Santa Pola	9
Iskandariyah	9
Bosque	9
Tuusula	9
Rio Grande do Norte	9
César	9
Mar del	9
Hila	9
Ferreyra	9
Av	9
Portoviejo	9
Al Anbar	9
Virrey	9
Malabia	9
Blacksburg	9
Monroe	9
Puerto de Buenos Aires	9
31	9
Tribunales	9
San Roque	9
Charsadda	9
Rosarno	9
Santa Rita	9
Unión	9
Adosac	9
Maranhao	9
Crawford	9
Costanera Norte	9
Cargill	9
Torreón	9
Ocampo	9
Almafuerte	9
Aráoz	9
Villa Tessei	9
Mariano	9
Empalme Graneros	9
Abbottabad	9
Leskovac	9
Damaturu	9
Carrasco	9
Gran La Plata	9
Chiquinquirá	9
DF	9
La Paz-	9
Brindisi	9
Curuguaty	9
Puente Saavedra	9
Parque Centenario	9
San Ignacio de Loyola	9
Tacloban	9
DyN	9
Lacarra	9
Admiralty	9
Leandro N. Alem	9
Indra	9
Mashad	9
Maelbeek	9
Baton Rouge	9
Tultepec	9
Ibarra	9
Diagonal Sur	9
Turku	9
Netzarim	9
Puerto Asís	9
Falluja	9
Latifiya	9
San Benito	9
Morag	9
Karradah	9
Leigh-on-Sea	8
Luton	8
Risaralda	8
Dellepiane	8
Yagha	8
Arlington	8
Mashhad	8
Sagaing	8
Bahréin	8
General Belgrano	8
Cabo	8
Kapisa	8
Rhode	8
Jan Abad	8
Parwan	8
Al Bab	8
Puerto Sudán	8
Maguindanao	8
Maharashtra	8
Región	8
Arauquita	8
Senkata	8
Deir Ezzor	8
Santiago de Cuba	8
Gelsenkirchen	8
Bonn	8
Brandeburgo	8
Zavaleta	8
Ciudad de Guatemala	8
Beit Hanun	8
Playa Grande	8
LOMAS	8
Sídney	8
Halle	8
Las Condes	8
CABA	8
Tambura	8
Urabá	8
Puente	8
EE.UU	8
Zárate-Campana	8
Arrigorriaga	8
Olazábal	8
Isfahan	8
Villa Corina	8
Brumadinho	8
Segovia	8
LA	8
Distrito	8
Gallo	8
De	8
Ctera	8
Bangalore	8
Vilcún	8
Río Grande do Sul	8
Brescia	8
Villa 31	8
Charcas	8
Capbreton	8
Nueva Orán	8
San Antonio de Padua	8
Unter	8
Bihar	8
Frepaso	8
Tabriz	8
Cullen	8
Villa Pineral	8
Iquitos	8
Mitú	8
San Martín de	8
Gurruchaga	8
Santa Bárbara	8
Baruta	8
Utya	8
Esso	8
Shaab	8
General Alvear	8
Mansur	8
Guangdong	8
América	8
Suárez	8
Hunan	8
Patricios	8
Anillaco	8
Tiro	8
Bastia	8
Sinaí	8
Caacupé	8
Madariaga	8
Santojanni	8
New	8
de Buenos Aires	8
Ricchieri	8
Carmel	8
Moldes	8
Talar de Pacheco	8
Pequeña Habana	8
Jobar	8
Bagram	8
Independiente	8
Terrada	8
Yare	8
Amuay	8
Staten	8
Sandy Hook	8
Valledupar	8
chechena	8
Transradio	8
Izmir	8
Natal	8
Mato Grosso do Sul	8
Villa Lynch	8
Dresden	8
Cocorná	8
Gestamp	8
Huelva	8
Sarcelles	8
Zamboanga	8
Potrero	8
Paranaguá	8
Páez	8
Dimona	8
Rishon	8
Saint Denis	8
La Vega	8
Andoain	8
Pisu Pisué	8
Cutral	8
Cartasegna	8
Oldham	8
Fuengirola	8
Qalqilya	8
salteña	8
El Ejido	8
La Dársena	8
Bassora	8
Nassiriyah	8
Mahmudiyah	8
Andishan	8
Stockwell	8
Hangu	8
Nueva Palmira	8
Orellana	7
Soum	7
Quinta	7
Ghueran	7
Cabo Haitiano	7
Róterdam	7
Albany	7
Jaffa	7
Gwangju	7
Castex	7
Jan	7
Faryab	7
Martinica	7
Goiás	7
Auschwitz	7
Plateau	7
Mánchester	7
Cincinnati	7
Waukesha	7
Gao	7
Colorado Springs	7
Chapelco	7
Poway	7
Villa Industriales	7
Boloña	7
Covid-19	7
Wembley	7
Alberta	7
Cárdenas	7
Capilla	7
Dakota	7
Vallecas	7
Tchabi	7
Bernardo	7
Playa	7
Estado de México	7
Yamena	7
Gush	7
Spin Boldak	7
Uttar Pradesh	7
Renania	7
Nablús	7
Sutherland Springs	7
Caldono	7
Bosaso	7
Puntlandia	7
Richmond	7
Cotabato	7
Homesh	7
Magdeburgo	7
Buckingham	7
Valle de Catamarca	7
NYC	7
Presidencia	7
Imbabura	7
Sinsacate-Jesús María	7
escocesa	7
Rosario Central	7
Tablada	7
Greenwich	7
Madero	7
Perdriel	7
Oroño	7
La Cantuta	7
Blanco Encalada	7
Pueblo Nuevo	7
Legutiano	7
guipuzcoana	7
Sudeste	7
Oporto	7
San Jerónimo	7
Las Palmas	7
Paktika	7
Villa Elvira	7
Villa Rosa	7
Villamontes	7
Ascochinga	7
Maschwitz	7
Bunge	7
Fuego	7
Orio	7
Tours	7
Duisburgo	7
Lampedusa	7
D´Elía	7
Superí	7
Nueva Esparta	7
Bet	7
santafesina	7
Perugia	7
Amazonia	7
Palmanova	7
Nazran	7
El Peligro	7
Bologna	7
Escalada	7
Banda	7
Segurola	7
Bonpland	7
Pune	7
Artigas	7
Gibraltar	7
puntana	7
Kizliar	7
Pau	7
Fonavi	7
Habana	7
Menem	7
Cerro Porteño	7
Luis Guillón	7
Lubumbashi	7
Sombor	7
Aleksinac	7
Domodedovo	7
Guecho	7
Pedraza	7
Ajdabiya	7
Portela	7
Irigoyen	7
Cancillería	7
Gnjilane	7
Stroeder	7
Bérgamo	7
Krusevac	7
Croydon	7
La Serena	7
Turdera	7
Figueroa	7
Mazar-e-Sharif	7
Jamu	7
Ardoyne	7
Tora	7
La Cava	7
Alto Palermo	7
Apartadó	7
Arcos	7
Yacyretá	7
Báez	7
Pablo Podestá	7
Volgodonsk	7
Arijón	7
Warnes	7
In Amenas	7
Nuevo Alberdi	7
Gregorio de Laferrére	7
Woolwich	7
Mónaco	7
Thousand Oaks	7
General López	7
Carandirú	7
Ghouta	7
Ciudad Bolívar	7
Muñiz	7
Reims	7
Grandoli	7
Lanús Este	7
Guarulhos	7
Guárico	7
Plaza	7
Horqueta	7
Beiji	7
Sidor	7
Joló	7
Yatasto	7
Roseburg	7
Zabul	7
La Calera	7
Panduro	7
Burlington	7
Porto Velho	7
Finsbury Park	7
Ciudad del	7
Encarnación	7
Münster	7
Diriamba	7
Minatitlán	7
Abqaiq	7
Karni	7
Dabeiba	7
Ain Defla	7
Mansour	7
Bel Air	7
Andizán	7
Montfermeil	7
Eldoret	7
Capaci	6
Leandro Alem	6
Giles	6
Irala	6
Al-Aqsa	6
Puerto Viejo	6
Nelspruit	6
Kazan	6
Staten Island	6
Ain	6
Ofra	6
Mascardi	6
San Miguel del Ene	6
Zintan	6
Gitega	6
Papúa	6
Taiz	6
Holon	6
Kogi	6
Mugica	6
Departamento	6
Pablo Nogués	6
Mecklemburgo-Pomerania	6
Tulumba	6
Cámpora	6
Vilna	6
Greenwood	6
Padre Mugica	6
Lázaro Cárdenas	6
Chaman	6
Sheij Jarrá	6
Thantlang	6
Chin	6
Bakú	6
Fortul	6
Winnipeg	6
Matanzas	6
Países	6
Martissant	6
Albuquerque	6
Yangón	6
Juliaca	6
Cañete	6
Calahorra	6
Pueblo	6
Balj	6
Acuña	6
sudanesa	6
Daca	6
Gujranwala	6
Kowloon	6
Izraa	6
Puente Alto	6
Parque de	6
Diffa	6
Zacatecas	6
Washington DC	6
Zúrich	6
Mingora	6
Kanungu	6
Nagaland	6
Talavera	6
Kassel	6
Kaya	6
República Democrática	6
Turbo	6
Yerbal	6
Lomas del	6
Karada	6
Coronel Vidal	6
Valeria del Mar	6
Oromía	6
Camp	6
Cap-Haitien	6
Barra	6
Peckham	6
Apurímac	6
El Dique	6
Islas	6
Campillo	6
Barrancas de Belgrano	6
Zinder	6
Cap-Haïtien	6
Mandera	6
somalí	6
Berutti	6
Central	6
Yerba	6
Alava	6
Chengdu	6
Curapaligüe	6
Este	6
Esquina	6
partido	6
Tijuca	6
Orange	6
Antrim	6
Capilla del Señor	6
Sinyar	6
Negombo	6
Batticaloa	6
Armagh	6
Ballymoney	6
Kashgar	6
Loreto	6
Orahovac	6
Orleáns	6
Santa Catalina	6
Mazatlán	6
Ayuntamiento	6
santafecino	6
Cagliari	6
Parma	6
Zumaia	6
Pearl	6
Antonio	6
Fuerte Apache	6
Azpeitia	6
Valle de Uco	6
Nazaret	6
Louisville	6
Le Havre	6
BuenosAires	6
Bonorino	6
Gualeguay-	6
Puerto Cabello	6
La Matera	6
Cobo	6
Patascoy	6
Cascavel	6
City porteña	6
Cambaceres	6
Pérsico	6
Dusseldorf	6
Adhamiya	6
Ovejas	6
Jeddah	6
Pie	6
Nancy	6
Jacarezinho	6
Uriarte	6
Jimbaran	6
Piedrabuena	6
Pedro de Mendoza	6
General Las Heras	6
Aranguren	6
Lapa	6
Rancagua	6
Racak	6
Karabulak	6
Lorenzo	6
Salaheddin	6
Okinawa	6
chaqueña	6
Mariano Acosta	6
San Alberto	6
Kosovska Mitrovica	6
Monte 29	6
Piauí	6
Marbella	6
Vranje	6
Valle Medio	6
Besiktas	6
Kragujevac	6
Heliópolis	6
Gante	6
Beer	6
Sanamein	6
Simoca	6
Tafas	6
Martín Coronado	6
Ugarteche	6
Toribío	6
Puerto Montt	6
Argerich	6
Giza	6
Kadhimiya	6
Bremen	6
Catania	6
Canning	6
Soriano	6
Villa Concepción	6
Tremseh	6
Midan	6
Tayi	6
Oak Creek	6
Sulawesi	6
Las Armas	6
Gran San Pablo	6
Lviv	6
Alderetes	6
Basilan	6
Java	6
Díaz Vélez	6
La Cárcova	6
Zug	6
Provincia de Buenos Aires	6
Sabaneta	6
López	6
Cambridge	6
Watertown	6
Aguas Blancas	6
Nuevo Bagdad	6
Mar del Tuyú	6
Darragueira	6
Comahue	6
Maranhão	6
Sebastopol	6
Odesa	6
Pavão-Pavãozinho	6
Capitán	6
Gombe	6
Jerusalén Oeste	6
Berkeley	6
Dammartin-en-Goële	6
Raanana	6
Cojedes	6
Nahariya	6
Gran Caracas	6
Gijón	6
Charleroi	6
Macerata	6
Daegu	6
General Enrique Mosconi	6
Paraíso	6
Tanta	6
Foz do Iguazú	6
Vauxhall	6
Coatzacoalcos	6
santiagueña	6
Levallois-Perret	6
Yondu	6
Chiclayo	6
Espíritu	6
Monimbó	6
Urena	6
Virginia Beach	6
Kioto	6
Urrao	6
Ordizia	6
Khurais	6
Zumárraga	6
Yarmuk	6
Megiddo	6
Sindh	6
Sangüesa	6
Amarah	6
Vicenza	6
Nassiriya	6
Arbil	6
Narathiwat	6
Santa Eugenia	6
Ribadesella	6
Tuz	6
Gran Chaco	6
Nalchik	6
Seine-Saint-Denis	6
Puerto Suárez	6
Pakokku	6
Carahue	5
Macomia	5
Usme	5
Mindat	5
Séno	5
Zona Sur	5
Les Cayes	5
Rishon Letzion	5
Huancayo	5
Cuchipampa	5
Panjgur	5
Kuznica	5
Yumbo	5
Mapastepec	5
Kazán	5
Yuba	5
Izabal	5
Matsapha	5
Sourou	5
Guaymas	5
Salfit	5
Babilonia	5
Ghueiran	5
Savannah	5
Chuschi	5
Silicon Valley	5
Litoral	5
Alhucemas	5
Liubliana	5
Coninagro	5
Ciudad Acuña	5
La Unión	5
Gossi	5
Sambisa	5
Grand Bassam	5
Miami-Dade	5
Nuakchot	5
Sajonia-Anhalt	5
Mineápolis	5
Ecuatoria	5
Surfside	5
Amstrong	5
Lekki	5
Rabaa	5
Irumu	5
Demoso	5
Hpruso	5
Faizabad	5
Sebha	5
Malleco	5
Uruguayana	5
Vaca Muerta	5
Manantiales	5
La Victoria	5
Foubé	5
Karaj	5
Tampa	5
Qamishli	5
Kent	5
Limoges	5
Delgado	5
Villa Dorrego	5
Pisu	5
El Oro	5
Ercilla	5
Calgary	5
Pelliza	5
La Primavera	5
Miqdadiya	5
Indianápolis	5
Latacunga	5
Ereván	5
Padre	5
Kidal	5
Anta	5
Fort Lauderdale	5
La Bombonera	5
Perpiñán	5
Córdoba-	5
Rakhine	5
Bell	5
Sialkot	5
Coquimbo	5
Curupaytí	5
Dharamsala	5
CRUZ	5
Ariel	5
Pointe-a-Pitre	5
Jost	5
Kaohsiung	5
Jabalya	5
Huanguelén	5
Gobernador	5
Gallardo	5
Puente Dique	5
Zamudio	5
conurbano	5
Gonzales Chaves	5
Kreuzberg	5
Irlanda del Norte	5
Pozo	5
Las Colonias	5
Gualeguay-chú	5
Estelí	5
Cobos	5
correntina	5
Angel	5
Sierras	5
Matta	5
Cerro Navia	5
comuna	5
General Madariaga	5
Kargil	5
Tuyutí	5
Vladivostok	5
Uribe	5
La Uribe	5
Barrenechea	5
Dar es	5
Dar es Salaam	5
Maze	5
Aramburu	5
Patras	5
Chimbote	5
Catalinas	5
Amariya	5
Salzburgo	5
Beit Lahya	5
Medio	5
Beit Lahiya	5
Nettuno	5
Dera	5
Carlos Calvo	5
Khartum	5
Lisandro Olmos	5
Lisandro	5
Arana	5
Guayana	5
Lafuente	5
Mareb	5
Riccheri	5
Palma de Mallorca	5
Avila	5
Bayaa	5
Valle de Calamuchita	5
Chacaíto	5
Parral	5
Ceamse	5
Valentina Sur	5
Poitiers	5
Racing	5
Cardiff	5
Alto Valle de Río Negro	5
Talar	5
Prado	5
Villa Santa	5
Villa Galicia	5
Villa Trujuy	5
Anses	5
Podujevo	5
Castelar Norte	5
Talca	5
Al Mansur	5
Tierra del	5
Kizlyar	5
Jaldiya	5
Piedra Buena	5
de la Plata	5
Sobisch	5
Dársena	5
Punta Carrasco	5
Vegalarga	5
Gascón	5
Lurgan	5
Flores Sur	5
Curia	5
Mirebalais	5
Vila Cruzeiro	5
Abidján	5
Crovara	5
Riestra	5
Gávea	5
Slatina	5
Asiut	5
Guangzhou	5
Kuala	5
Zwara	5
Tajoura	5
Itamar	5
Lope de Vega	5
Mazar-i-Sharif	5
Ancona	5
Cordobazo	5
Surdulica	5
Obrenovac	5
Satipo	5
Cantilo	5
Puerta del Sol	5
Cliba	5
Huergo	5
Gelly	5
Gran Córdoba	5
Chuquicamata	5
Urosevac	5
Ealing	5
Salahedin	5
Huechuraba	5
Camden	5
Campo Grande	5
Qalandia	5
Quebrada	5
Budge	5
Baba Amr	5
Baalbek	5
Krasnodar	5
Alto Carrizal	5
Hakkari	5
Heras	5
Aldea	5
Thames	5
Calama	5
Deir al-Zor	5
Guido	5
Amil	5
Shijiazhuang	5
Guerrico	5
Maidan	5
Paso de los Libres	5
Sidi	5
Santee	5
Perito	5
Al-Qusayr	5
Saigón	5
Amiens	5
Marikana	5
Los Perales	5
Arce	5
Al-Hasaka	5
Lules	5
Blanco	5
Rincón de los Sauces	5
Ismailiya	5
Newton	5
Manuel	5
Martín Rodríguez	5
Pedernera	5
General Santos	5
In	5
Newell	5
Campichuelo	5
Saint	5
Ramón	5
Bauchi	5
Harrisburg	5
Fernández de la Cruz	5
Kolina	5
Casiano Casas	5
Los Piletones	5
West Point	5
La Plata-	5
Montalbán	5
Los Teques	5
Reyhanli	5
Bekaa	5
Salvador de Bahía	5
Andoaín	5
Leandro	5
Foggia	5
Halabja	5
Benfica	5
Leyte	5
Varadero	5
Cerveceros	5
Tula	5
Dean	5
Andhra Pradesh	5
São	5
Ajaccio	5
Yunnan	5
Palomar	5
Jarkov	5
Minya	5
Lear	5
Nuestra Señora	5
Mongkok	5
Alcorcón	5
TUCUMAN.-	5
Potiskum	5
Dijon	5
El Bosque	5
Atucha	5
Morumbí	5
Vergara	5
Noria	5
Trujui	5
Chattanooga	5
Hawija	5
Heidenau	5
Padilla	5
Tafí Viejo	5
Maalbeek	5
Schaerbeek	5
Baraki	5
Sergipe	5
Reutlingen	5
Gerona	5
Hua Hin	5
Belisario	5
Amatrice	5
Sacachispas	5
Vargas	5
Paraíba	5
Espírito Santo	5
Aulnay-sous-Bois	5
Pilar do Sul	5
Belchite	5
Solano	5
Pu Lof	5
Ripoll	5
Salou	5
San José de la Mariquina	5
Rakain	5
Pu	5
Trèbes	5
Ciudadela Norte	5
Tlahuelilpan	5
Linwood	5
Aguas	5
Notre	5
Conesa	5
Carandiru	5
Aracinovo	5
Leiza	5
Defensa	5
Taloqan	5
Amorebieta	5
Jammu-Cachemira	5
Stavropol	5
Parachinar	5
Don Orione	5
El Chapare	5
Santo André	5
Godhra	5
Balata	5
Jerusalén-	5
Toquepala	5
Djerba	5
Yarumal	5
Chittagong	5
Primera Junta	5
Batna	5
Abu Ghraib	5
Nueva Bagdad	5
Palomitas	5
El Pozo	5
Jalis	5
Al-Dura	5
Mahawil	5
Sanxenxo	5
Baiona	5
Nueiba	5
José Hernández	5
República Cromagnon	5
Cruz del	5
Musayeb	5
Achrafieh	5
Sucumbíos	5
Caná	5
Naivasha	5
Abyei	4
Bolsón	4
tigray	4
Jonglei	4
Villa Fátima	4
Sheikh	4
San Luis Potosí	4
Drodro	4
Piura	4
Bahri	4
Taipéi	4
Montoneros	4
Pabellón 2	4
Warrap	4
Uttar	4
Quibdó	4
Hlaing Tharyar	4
Umm	4
Naushki	4
JxC	4
Elgoibar	4
La Capilla	4
Anka	4
aires	4
Graz	4
Matadi	4
Torit	4
Di	4
Delmas	4
Jerusalén Este	4
Ghor	4
Florida Oeste	4
Afrin	4
Sopore	4
Lautaro	4
Partido de la Costa	4
Boise	4
Lesbos	4
Coutts	4
Decani	4
Suba	4
Sabo	4
Malaita	4
Yaundé	4
Mocimboa da Praia	4
aldeas	4
Baidoa	4
Baleares	4
Mopti	4
brasileña	4
Quinta de Olivos	4
Yabalia	4
Tepalcatepec	4
Claromecó	4
Utrecht	4
Islas Salomón	4
Nuristán	4
Al Shayara	4
Kalalaka	4
Nilo Oriental	4
Ughelli	4
Muridke	4
Tera	4
Fujian	4
Pasto	4
nigerina	4
Nur-Sultán	4
Novi	4
Spence	4
Carrizal	4
Nahualá	4
Colón-Paysandú	4
Mohmand	4
El Estor	4
Delta	4
Albacete	4
Ovidio Lagos	4
Cristo	4
Betania	4
Zhanaozen	4
Punyab	4
Tank	4
Baba	4
Playa del	4
Los Monos	4
Virasoro	4
Torre Pacheco	4
El Prat	4
Brownsville	4
La Guajira	4
Guerguerat	4
Camuzzi	4
General San Martín	4
Mangistau	4
Kunming	4
Monagas	4
Triángulo	4
Cap Haitien	4
Laghman	4
Carepa	4
Myitkyina	4
Trabzon	4
Ramalá	4
Corinto	4
Codelco	4
Celaya	4
Las Amintas	4
Dover	4
Antigua	4
Saada	4
Sobremonte	4
José Ingenieros	4
Parque Lezama	4
Randazzo	4
Tungurahua	4
Zacapa	4
Pedro Goyena	4
Pastaza	4
Wiesbaden	4
Santa Mónica	4
Villazón	4
Caribe	4
Cerrejón	4
Vicente Casares	4
Tacuarembó	4
Altos	4
Socorro	4
Río Tala	4
Pizzurno	4
Akihabara	4
Arrufó	4
Newry	4
Rico	4
Sapporo	4
San Agustín	4
Corea del	4
Municipio	4
Laredo	4
Balad Ruz	4
Barrio Latino	4
Caihuasi	4
Pisco	4
Frino	4
Riberalta	4
mexicana	4
Castilla y León	4
Gualeguaychú-	4
La Pincoya	4
Smata	4
Banbridge	4
Arnhem	4
Canelones	4
Exolgan	4
Torino	4
Hanover	4
ROSA.-	4
Markethill	4
Charrúa	4
Iriondo	4
Castro	4
Fuerte	4
Tadjikistán	4
Creta	4
Jezzine	4
Um	4
Villa Caraza	4
Nuseirat	4
Palacio	4
Rosario-	4
Pensacola	4
Tuzla	4
Winnenden	4
Roque Sáenz	4
Achacachi	4
Ocaña	4
Santa Fé	4
Nazarre	4
Legazpia	4
Maguncia	4
Charlone	4
Camp Nou	4
Olascoaga	4
Pluspetrol	4
Tianjin	4
Taza	4
Bauness	4
Buga	4
Sandton	4
El Churrasco	4
El Paraíso	4
Palma de	4
Cacheuta	4
Vaupés	4
Piedra	4
Pirán	4
Concepción del	4
Sumatra	4
Luis María Campos	4
Cáceres	4
Mississipi	4
Bannu	4
Nuestra	4
La Ceja	4
Malmo	4
Vantaa	4
Bagdad-	4
Sadriya	4
Crámer	4
Galle	4
Hernández	4
Mapuche	4
Villafañe	4
Zapiola	4
Toulon	4
San Martín de los	4
Jáuregui	4
Chenalhó	4
Hatshepsut	4
Rosario de	4
Ciudad Oculta	4
Zhuhai	4
Osh	4
Solá	4
Rocha	4
Boulogne-sur-Mer	4
Nicolás	4
RIOJA	4
Lourdes	4
María	4
Sao Bernardo do Campo	4
Ciudad Victoria	4
Lerma	4
Bergamo	4
Machala	4
Lorient	4
Broward	4
Malba	4
Kosovo Polje	4
Cap Haïtien	4
Brcko	4
Rio Grande do	4
Albariño	4
Europa	4
Sánchez	4
Villa Zapiola	4
Pancevo	4
Lucani	4
Patquía	4
Ismailia	4
Nidera	4
Valjevo	4
Bar	4
Al Baida	4
Derna	4
Al-Baida	4
Bengazhi	4
Tobruk	4
Asamblea	4
Ras Lanuf	4
Ajdabiyah	4
Los Pinos	4
Heredia	4
santacruceño	4
Douma	4
Bulawayo	4
Paducah	4
Extremadura	4
Uzice	4
Villa Raffo	4
Villa Ponzatti	4
Chillán	4
Osorno	4
Río Chico	4
Espinosa	4
Enfield	4
Qusair	4
Macul	4
Las Talitas	4
Buñol	4
Bani Walid	4
Rurrenabaque	4
Villa de Mayo	4
Camboriú	4
Rucci	4
Abidjan	4
Llanos	4
Esquiú	4
Scioli	4
Al Midan	4
Triunvirato	4
Beiró	4
Villarreal	4
Circunvalación	4
Espíndola	4
La Recoleta	4
Puerto Aysén	4
Hofburg	4
Puerto Lleras	4
La Ribera	4
Williner	4
La Coruña	4
Bosque Alegre	4
Monteverde	4
Apulia	4
Villa Sapito	4
Badajoz	4
Dardo Rocha	4
Estado de Chiapas	4
Edenor	4
Argaña	4
Toluca	4
Calafate	4
de Janeiro	4
Primera	4
Francisco Alvarez	4
Zabala	4
Telam	4
Izmit	4
Belém	4
Pdvsa	4
Banda del Río Salí	4
caraqueño	4
Henan	4
Barinitas	4
Sincelejo	4
Ashrafiyeh	4
Tiberíades	4
Guatapé	4
Caaguazú	4
La Trochita	4
Makeni	4
Alcaidía	4
Palermo Soho	4
Ciudad Autónoma	4
Barrio Mitre	4
Piñeiro	4
Antímano	4
West	4
Carranza	4
Kazimiya	4
Adana	4
Maranello	4
Taksim	4
Barra de Tijuca	4
Tallahassee	4
Minia	4
Herrera	4
Gudermes	4
Menia	4
Helwan	4
Angostura	4
Castilla	4
Cidade	4
Sanabria	4
paulista	4
SEP	4
Juradó	4
Gregorio de Laferrère	4
Piatigorsk	4
La Esperanza	4
Malakal	4
Antúnez	4
Aluar	4
Guatire	4
Recondo	4
Los Ruices	4
Yaracuy	4
Barranquitas Oeste	4
Mato	4
Soma	4
Itaquerao	4
Silicon	4
Cuartel	4
Rostov	4
Valles Calchaquíes	4
Donnelley	4
Cantagallo	4
Amerli	4
Pekín-	4
Causeway Bay	4
Sabadell	4
Pas-de-Calais	4
Hit	4
Hortaleza	4
parisina	4
Verviers	4
Debaltsevo	4
Carpentras	4
Cipolleti	4
Avellanada	4
Nimrud	4
North Charleston	4
La Salada	4
Cangallo	4
Kerala	4
Tres Puentes	4
McKinney	4
Somalía	4
Parque Sarmiento	4
Buen Ayre	4
Idomeni	4
Tovarnik	4
Lamas	4
Villa La Ñata	4
Khyber Pakhtunkhwa	4
Altagracia	4
Orituco	4
Fíat	4
Tumeremo	4
Campos	4
Restrepo	4
Chinandega	4
Hammersmith	4
Kiriat	4
Baton	4
Trabajo	4
Phuket	4
Qaterji	4
Conadu	4
Ezeiza-	4
Bartella	4
San Antonio de los Altos	4
Ramo	4
Ojeda	4
Fua	4
Alcaçuz	4
Prince George	4
Natanya	4
Paramacay	4
Durham	4
Surgut	4
Subirats	4
Cambiemos	4
Lavapiés	4
Tres de	4
Bir	4
Kalkilia	4
Estación	4
Pudahuel	4
Mucajaí	4
Nashville	4
Quedas do Iguaçu	4
Tocantins	4
Sweida	4
Oyarzún	4
Río Santiago	4
Amaya	4
Monza	4
Guaidó	4
Bobigny	4
Isla Sur	4
Aramoana	4
Dhahran	4
Inclán	4
Huesca	4
Quiaca	4
Jorge Newbery	4
Huánuco	4
Cuña	4
Basilán	4
Bradford	4
Binyamina	4
Torrevieja	4
Yeda	4
Buritis	4
Villa El Libertador	4
Beit Hanoun	4
Grundy	4
Villate	4
Africa	4
Ahmadabad	4
Bagadó	4
Tubas	4
Río Blanco	4
Karlsruhe	4
Kalkilya	4
colombiana	4
Hilversum	4
Kaspiisk	4
Mannheim	4
Puerto Alvira	4
Safed	4
Dársena Sur	4
Whitehall	4
Sao Gonzalo	4
Chuao	4
Mymensingh	4
Bingol	4
Znamenskoye	4
Oventic	4
Khaldiya	4
Atamisqui	4
Gona•ves	4
Al Khobar	4
Azamiya	4
Kfar Saaba	4
Khalis	4
Mamudiya	4
Buhriz	4
Baladruz	4
Wunsiedel	4
Kisangani	4
Shaba	4
Gori	4
Doura	4
Madain	4
Zayuna	4
Jilá	4
Korasuv	4
Kusadasi	4
Paranapanema	4
Janeqin	4
Tlemcen	4
Lucknow	4
Amona	4
Balmaseda	4
Benarés	4
Amel	4
Wokingham	4
Naher	4
Kahtaniya	4
Bhutto	4
Derio	4
Gansu	4
Kolom	3
Fatimiya	3
Grodno	3
Poznan	3
Breslavia	3
Tombuctú	3
Kong	3
Ratisbona	3
Kelbo	3
Cornualles	3
Bilin	3
Unguwar Lalle	3
Sabon	3
Puerto Williams	3
Sibi	3
Balochistán	3
Faso	3
Linz	3
Pisu Pisue	3
Wynwood	3
Algeciras	3
Cayetano	3
Pijijiapan	3
Campeche	3
Dasht-e-Barchi	3
Pistoia	3
Tegina	3
Colima	3
Saladino	3
Axum	3
Kousséri	3
Carta	3
Abdiya	3
Espinar	3
Kunar	3
Donbás	3
Kafr	3
Sabha	3
Porta	3
Titao	3
Paghman	3
guayaquil	3
Kassala	3
Charikar	3
Mocimboa	3
Sennar	3
Cipoletti	3
Jerusalen	3
Imo	3
Mo So	3
Uptown	3
Würzburg	3
Maule	3
Torres del Paine	3
Jadriyah	3
Jersey	3
Alí	3
del Cauca	3
Oyo	3
Comarca Andina	3
Cocody	3
Jackson	3
Ascalón	3
Cuesta del	3
Plymouth	3
Adís	3
Naipyidó	3
Cubará	3
Moria	3
Muthotholi	3
Kilingwa	3
Beaumont	3
Ladbroke Grove	3
Brunswick	3
Apodaca	3
Lamu	3
Fuenlabrada	3
Edmonton	3
Babel	3
Beit Lahia	3
Duesseldorf	3
Lousteau	3
Artemisa	3
Suroeste	3
Abala	3
Almelo	3
Cotacachi	3
Portezuelo	3
Agareb	3
Yangon	3
Ministro	3
La Habana Vieja	3
Fiorito	3
Lacatunga	3
Le	3
Pueblo Garzón	3
Vaca	3
Skopie	3
Santiago Laollaga	3
El Kantaui	3
Sheijupura	3
Aguililla	3
Usera	3
Carabanchel	3
Olimpia	3
ZAMORA	3
Aquia	3
Kati	3
Angol	3
Ciénaga	3
Guinea Bissau	3
Las Bambas	3
Sabac	3
Bío Bío	3
Puna	3
Julga	3
Esmeraldas	3
Bamiyán	3
Sant	3
Chimborazo	3
La Granada	3
Novosibirsk	3
Coruña	3
Punta de Vacas	3
Komanda	3
Addis	3
Belem	3
Riace	3
Anantnag	3
Sukkur	3
Mardan	3
Jacobabad	3
Jor Maskar	3
belga	3
Járkov	3
Virunga	3
Bataclan	3
Shabua	3
Shenzen	3
Tarapacá	3
Villa La	3
Goronyo	3
Nagorno Karabaj	3
Samangan	3
Minden	3
Norte-Westfalia	3
Sorong	3
Daulat Abad	3
Aktau	3
LUGANO	3
Punta Quilla	3
Jíber Pajtunjua	3
Limay	3
Dasht-e	3
Cesar	3
Dedebit	3
Manabí	3
Carchi	3
Yenín	3
Grande do	3
Bielsa	3
Chapultepec	3
Yangoli	3
Avignon	3
Jinotepe	3
Villepinte	3
Silwan	3
Lazio	3
Ancash	3
Apurimac	3
Ica	3
Cárcel	3
Freres	3
Quissanga	3
Suleimaniya	3
Macrozona	3
El Tandil	3
Ñuñoa	3
Providence	3
Tarazá	3
Irbil	3
Bío	3
Ciudad de la Paz	3
Ademys	3
Mucojo	3
Jadriya	3
Amess	3
Luzuriaga	3
Anorí	3
Rancho Grande	3
Tampico	3
Ciudad Autónoma de Buenos Aires	3
Fresno	3
Puerto de	3
Creggan	3
Alejandro	3
Chiaiano	3
Sibaté	3
Aida	3
Zauiya	3
Espinoza	3
keniana	3
Waziristán del Norte	3
Salem	3
Riohacha	3
Renk	3
Mármol	3
Guadalupe Sur	3
Potrerillos	3
Gato	3
los	3
Bunia	3
Kasai	3
Bacacay	3
Welikada	3
Acevedo	3
Kerman	3
Wuhan	3
Bkerké	3
Tagab	3
Brno	3
Bosso	3
Libres	3
Loma Negra	3
Genaro	3
Tartagal-Mosconi	3
Rajastán	3
Alexandra	3
Carrara	3
Paseo	3
santafecina	3
del Estero	3
Dumcree	3
Tala	3
Kuzbass	3
La Capital	3
Tyrone	3
Poblete	3
Parque Barón	3
Vukovar	3
Rivera Indarte	3
Altos Fierro	3
Dungannon	3
Bogside	3
Kuqa	3
Little Rock	3
Osetia del Sur	3
Gudermés	3
Carrickfergus	3
Bello	3
Yapacani	3
Lancaster	3
La Pintana	3
Altos de Laferrère	3
Flint	3
Arcor	3
Ondarroa	3
Castel Volturno	3
Maquinista Savio	3
Columbus	3
Nova Iguaçú	3
Doda	3
Cinco	3
Siena	3
Greensboro	3
Pescara	3
Hargeisa	3
Guwahati	3
Reggio Calabria	3
DPA	3
Largo	3
Oberoi	3
Bombonera	3
Dahran	3
Newell´s	3
Atilra	3
Sancor	3
Muzaffarabad	3
Timote	3
Ostia	3
Assiut	3
Palo Alto	3
Bajo Manhattan	3
Friburgo	3
Vigía del Fuerte	3
Del Plata	3
Tuz Jormatu	3
Lincolnshire	3
Lindsey	3
Pittsburg	3
Pozo del Molle	3
Jamundí	3
Marysville	3
FEB	3
Malmö	3
Jefferson	3
Villa Echenagucía	3
Clairoix	3
Guelaguaychú	3
Khyber	3
Teresina	3
El Martillo	3
Interlagos	3
Molinos Río de la Plata	3
Deportivo	3
Hornos	3
Gran Buenos Aires-	3
Náschel	3
Quiroga	3
Forest	3
Livorno	3
Constituyentes	3
Bagua	3
Aquisgrán	3
Metz	3
Ituzaingo	3
Viareggio	3
La Ceiba	3
General San	3
Gral	3
Tres de Mayo	3
Teruel	3
Calvià	3
Rovereto	3
Pampa del Indio	3
Caballo	3
Pascua	3
Villa del Dique	3
Urümqi	3
Matera	3
East	3
San José del Rincón	3
Uruapan	3
Las Piedras	3
Comuna	3
madrileño	3
Fernández Oro	3
William Morris	3
Estado de San Pablo	3
Villanueva	3
Bermúdez	3
Aberdeen	3
Najafabad	3
Ingeniero White	3
Walpa Siksa	3
Waziristán del	3
Miranshah	3
Puerto Principe	3
Cité	3
Kurram	3
Udine	3
Ahwaz	3
José C.	3
Holguín	3
península	3
Linares	3
Conchalí	3
Gorostiaga	3
Basilea	3
Jiangsu	3
Atlantic	3
Hurriya	3
Amambay	3
Obrero	3
Terrazas	3
Caranavi	3
Shaanxi	3
Shandong	3
Cantón	3
Moreno y Salta	3
Atacama	3
Taxco	3
Poblet	3
San Fernando del Valle	3
Fariñas	3
Waziristan	3
Villeneuve	3
Acosta	3
Bielefeld	3
Solita	3
Manuel Alberti	3
Santa Fe-	3
Entebbe	3
Parque Rivadavia	3
Beara	3
Picadilly	3
Casanova	3
Klina	3
Ambato	3
Bastilla	3
Piedras Moras	3
Tepic	3
Puerto Ordaz	3
paraguaya	3
Pisa	3
Penha	3
Cayes	3
Molino	3
Molino Blanco	3
Bernal Oeste	3
Barracas-	3
Alfar	3
Cartago	3
Colastiné	3
L'Aquila	3
Puerto Said	3
Gimnasia	3
Río Hondo	3
Termas	3
Sabratha	3
Mukalla	3
Qatif	3
Deraa ( Sur	3
Sabah	3
Zenten	3
Pomazatin	3
Larralde	3
Harasta	3
Baniyas	3
31 de Retiro	3
Dedinje	3
Porto Seguro	3
Ribera	3
Imbaba	3
Drmno	3
el Sur	3
Aragón	3
Grondona	3
Alto de Bariloche	3
de Cuyo	3
Batajnica	3
Neptuno	3
Mangueira	3
Quesada	3
Núnez	3
Altamirano	3
Porch	3
Prokuplje	3
Aleksandrovac	3
Sargento	3
Marín	3
madrileña	3
Beliz	3
Kolubara	3
Lewisham	3
Lomas del Millón	3
Coraceros	3
Estación Central	3
Islington	3
MERLO	3
Sargento Vidal	3
Yucumo	3
Fusco	3
Tuba Zangaria	3
Iberá	3
Seal Beach	3
Morales	3
Washington D.C	3
Villeta	3
Sidi Bouzid	3
Adhamiyah	3
Moscú-	3
Merseburgo	3
Valeria	3
Villa Tunari	3
Año	3
Villa Rica	3
Baba Amro	3
Amaicha	3
Amaicha del Valle	3
Zona Norte	3
Ibiza	3
Punta Alvear	3
Dunblane	3
Verona	3
Matienzo	3
São Gonçalo	3
Soler	3
Argüello	3
Arboledas	3
Patio	3
Dragón	3
Milkaut	3
Zeballos	3
Cerro Negro	3
Botlikh	3
Saadiya	3
Salaheddine	3
Tupac	3
Lonmin	3
Knightsbridge	3
Zambrano	3
Yare I	3
Carlos Keen	3
El Copey	3
Arévalo	3
Chenaut	3
Adolfo	3
Zi Qar	3
La Pastora	3
General Güemes	3
Playa Mansa	3
Interior	3
Makassar	3
Bochum	3
Fragata	3
Al Kut	3
Melián	3
Dársena Norte	3
Palo	3
San Marcos	3
Ramírez	3
Naser	3
Shwedagon	3
Salí	3
Santa Clara del Mar	3
Las Leñas	3
Binghamton	3
Fort Worth	3
Timbuctú	3
Repsol	3
El Peñol	3
Dreyfus	3
Magreb	3
Vichada	3
El Mondongo	3
Samashki	3
Uribana	3
Serena	3
Larrazábal	3
Ramón Lista	3
O'Higgins	3
Agmer	3
Villa General	3
Villa Belgrano	3
Altos de San Lorenzo	3
Sarandí Grande	3
Guilford	3
Enniskillen	3
Husby	3
Buchenwald	3
Acrópolis	3
Manaus	3
D.C.	3
Belgrano Sur	3
Lavín	3
Aparecida	3
Tocopilla	3
Puerto La Cruz	3
Nahda	3
Fayum	3
Rosas	3
Guainía	3
Cauquenes	3
Cañitas	3
Westgate	3
Gujba	3
Tierra Santa	3
Felipe Vallese	3
Albano Laziale	3
Exactas	3
Villa Fraga	3
Libres del	3
Inzá	3
Waterloo	3
Jolo	3
Quirno	3
Centenera	3
Aguirre	3
Haaret	3
Sohag	3
Coro	3
Pradera	3
Naguanagua	3
Camino Negro	3
Naón	3
Ruiz Huidobro	3
Wanda	3
Ugarte	3
Bustan	3
Chatisgarh	3
Nyanya	3
Cuartel V	3
Buni Yadi	3
Vieytes	3
Gorlivka	3
Doral	3
Rann	3
Fundación	3
Teresópolis	3
Sants	3
Gwoza	3
Guarujá	3
Del Sur	3
Shuafat	3
Savassi	3
Napalpí	3
Los Boulevares	3
Elcano	3
Qaraqosh	3
Kojo	3
Jalawla	3
Madagali	3
Villas	3
Viña del	3
Yondó	3
Perth	3
Dubrovnik	3
Azare	3
Idiazábal	3
Máximo	3
Mubi	3
Wagah	3
Coyoacán	3
Cabral	3
Tequila	3
Pantin	3
Barranca Yaco	3
Once-	3
Colombes	3
Alfaro	3
Quinquela Martín	3
Felipe	3
Ciudad de Este	3
Al Hasaka	3
Tío Rolo	3
La Angostura	3
Gualeguyachú	3
Smolensk	3
Del Barco	3
Alto Valle del Río Negro	3
Deir al-Zur	3
Tullerías	3
Sirnak	3
Barueri	3
Rachaprasong	3
Los Troncos	3
Twickenham	3
Surrey	3
El Chirete	3
Palais	3
La Madrid	3
Badajshan	3
Humberto	3
Othacehé	3
Oliden	3
Montreuil	3
Urso	3
Nuevo Encuentro	3
San Carlos Sur	3
197	3
Kaserin	3
Otniel	3
Banderaló	3
Topo Chico	3
Banda Aceh	3
Aceh	3
Ecatepec	3
Heysel	3
Anfield	3
Beyoglu	3
Casiano	3
Bentalha	3
Edo Carabobo	3
Une	3
Grafing	3
Yabla	3
Cemento	3
Gemelas	3
Yvelines	3
Birstall	3
#	3
Marmaris	3
Saint-Etienne-du-Rouvray	3
Manbij	3
Ruán	3
Ruan	3
Patong	3
Sisco	3
Lupino	3
Belisario Roldán	3
Niceto	3
Limache	3
Saint-Etienne	3
Costa Azul	3
Goias	3
Dessau	3
Kukyeli	3
Sharqat	3
Sisli	3
Busan	3
Bergara	3
El Callao	3
Río Grande do Norte	3
Santa Julia	3
Rosa	3
Palm Beach	3
San Siro	3
Bello Monte	3
Aprosa	3
Marawi	3
Barking	3
ITUZAINGO	3
Lucena	3
Esgrima	3
Yarmouk	3
Falcón	3
Verde	3
Benítez	3
Charlotesville	3
Kibera	3
Juchitán	3
Parsons	3
Paranacito	3
Petrogrado	3
Paterson	3
Asia	3
Salt Lake City	3
Bonadio	3
Guarenas	3
Servando Bayo	3
El Junquito	3
Cabeza de Tigre	3
Santa Victoria	3
Shankill	3
Dapchi	3
Carcassonne	3
Santa Cándida	3
Khan	3
Quinteros	3
Intxaurrondo	3
Sébaco	3
Gavilán	3
Mastung	3
Vidt	3
Pacaraima	3
Jacksonville	3
Provincia de Córdoba	3
Upata	3
Temucuicui	3
Hodeidah	3
Bordeaux	3
Aristóbulo	3
Mantes-la-Jolie	3
Magnitogorsk	3
Pigüe	3
Fuerte Tiuna	3
Puerta Caracas	3
Masjid	3
Alta Montaña	3
Acarigua	3
San Patricio	3
Liberación	3
Pohang	3
Wong Tai Sin	3
Reunión	3
Hendaya	3
Tsuen Wan	3
Swansea	3
Stewartstown	3
Agreda	3
Alcalá	3
Carondelet	3
Brandenburgo	3
Hernani	3
Ratchaburi	3
Las Violetas	3
Yungas	3
Lasarte	3
Kissufim	3
Jiangxi	3
Yuandu	3
Gandía	3
La Cocha	3
Treviso	3
Bangú	3
Misiones-	3
Gilo	3
Fraile	3
Naharia	3
Partido	3
Paktia	3
Bahawalpur	3
Göttingen	3
Bondy	3
Camet	3
La Casona	3
Ein	3
Rios	3
Billabona	3
Neve	3
Tristán Suárez	3
Ortiz	3
Vélez Sársfield	3
Caicedo	3
Adora	3
ANSA	3
Sabra	3
Petah	3
El Jaguel	3
Trigoria	3
El Socorro	3
San Paulo	3
Mendieta	3
Karamay	3
Pepirí	3
Dugit	3
Santacruceño	3
poblado	3
Zanón	3
Denpasar	3
Termini Imerese	3
Tamil Nadu	3
Kfar Saba	3
Manipur	3
Sopelana	3
West Warwick	3
DE ZAMORA	3
Netania	3
Ilasjan-Yurt	3
Barranca	3
Corpus Christi	3
Estado de	3
Beluchistán	3
Napo	3
Estella	3
Rural	3
Villa Carlos	3
Corbas	3
Jeppener	3
Sorata	3
Baqouba	3
El Alto-	3
San Cristóbal de las Casas	3
Badgad	3
Khan Bani Saad	3
Punto Fijo	3
Talafar	3
Pattani	3
Mea	3
Saint-Marc	3
Sweira	3
Dondon	3
Falujah	3
Alcalá de Henares	3
Sussex	3
Morón-	3
Castaño	3
Zubeir	3
Jolan	3
De Benedetti	3
Samawa	3
Yanbu	3
Bandung	3
Polhó	3
Muthanna	3
Zona Verde	3
San Vicente de la Barquera	3
Encausados	3
Sylhet	3
Durand	3
Stávropol	3
Sierra de	3
Al-Amel	3
Dimapur	3
Abu Suweira	3
Ishaqi	3
Ishaki	3
Osvaldo Cruz	3
PABLO.-	3
Mahaweel	3
Llanes	3
Behobia	3
Belagua	3
Villa Ballester Oeste	3
Fuxin	3
Rashad	3
Denia	3
Gexto	3
Huincul	3
Iscuandé	3
Ghazaliya	3
Musayyib	3
Yapacaní	3
Musayib	3
Kenge	3
Lafsa	3
SANTA	3
Kaslik	3
Ventana	3
ATE	3
Vallegrande	3
Multán	3
Al Shula	3
Metn	3
Gleneagles	3
Cesme	3
Aldgate	3
Netivot	3
Sharm el-Sheikh	3
Nagasaki	3
Neve Dkalim	3
Pontal	3
Paharganj	3
Grigny	3
Blanc-Mesnil	3
Larbaa	3
Gazipur	3
Alto Huallaga	3
HERAS	3
Gualeguachú	3
Chattisgarh	3
Mukdadiya	3
Trenque Lauquén	3
Muqdadiyah	3
Barañain	3
Southall	3
Khar	3
Shorja	3
Bailey	3
Tierradentro	3
Abancay	3
Mena	3
Christiania	3
Diyalah	3
Naher al-Bared	3
Sinak	3
Eixample	3
Dellys	3
Jena	3
Sule	3
Saint-Dizier	3
Montecristi	3
Dungoob	2
Antioch	2
Catedral	2
Starzyna	2
Puerto Rellena	2
Perla	2
Ramat Gan	2
Lausanne	2
Pszczyna	2
maliense	2
Mapasana	2
Regensburg	2
Darfur Occidental	2
Nuevo Horizonte	2
Botalón	2
El Tambo	2
Deir al-Balah	2
Anahí	2
Niassa	2
Irving	2
Atyrau	2
Aktobe	2
Uralsk	2
Maiuand	2
Míchigan	2
Bombonerita	2
Mikenge	2
Seyaiya	2
Silvana Colombo	2
Leeuwarden	2
Enschede	2
Lago Escondido	2
Wisil	2
Trujuy	2
Ballester	2
Oting	2
Tafí	2
Loudoun	2
Moroleón	2
Bahía Petempich	2
Beerseba	2
Musmus	2
Arroyo El Sauce	2
Riglos	2
de Gaza	2
McAllen	2
Panjwai	2
VENECIA	2
Spinghar	2
Rafi	2
Siracusa	2
Dagon del Sur	2
Balkh	2
Jonestown	2
Mai Kadra	2
Ouloumsa	2
Tuxtla	2
Betanzos	2
Buea	2
Diego	2
Fianto	2
Bukkuyum	2
Gusau	2
Santilli	2
Bandar	2
Bat Yam	2
Tomsk	2
Guacarí	2
Benué	2
Jos North	2
Riyom	2
Conxo	2
Estiria	2
Klagenfurt	2
Port Sudan	2
Madani	2
Villa Libertador	2
Belleville	2
Holón	2
Abú	2
Shahrak	2
Boulder	2
Campidoglio	2
Pocho	2
Bethel	2
Hassakeh	2
Harvard	2
Cornell	2
La Palma	2
Burj	2
Jilin	2
Wad Madani Obaid	2
Ploiesti	2
Ocotepeque	2
Igangan	2
Boghra Chowk	2
Maradi	2
Tehuantepec	2
Costa de	2
Kogsberg	2
Kotchari	2
Neukölln	2
Tuxtepec	2
La Sierra	2
Ábrego	2
Ahmednagar	2
Bradford City	2
Embu	2
Ribeirão Preto	2
Guanajay	2
E. Echeverría	2
Ruwenzori	2
Abu Tor	2
Cienfuegos	2
Tuhaita	2
Goiana	2
Bueno Aires	2
Songho Gare	2
Fredericton	2
Solingen	2
libanesa	2
Yomasa	2
South Beach	2
Lo Espejo	2
Sardinata	2
SantaCruz	2
Topeka	2
Montepuez	2
La Saline	2
Banja Luka	2
Salina	2
Russ	2
Drodo	2
Minesota	2
Bandiba	2
Comunidad Valenciana	2
Douentza	2
Mazamari	2
Datu Paglas	2
Istmina	2
Coronel Oviedo	2
Siloé	2
Metepec	2
Rajine	2
Río Grande del Sur	2
Jartúm	2
Vrbetice	2
Baguz	2
Tartaristán	2
Givatayim	2
La Peña	2
Oumarou	2
Samangán	2
Nuevo Urecho	2
Ciudad Lineal	2
Tetuán	2
Henares	2
Tirúa	2
Ménaka	2
Villa Ressia	2
Zohur	2
Badajshán	2
Breda	2
Freiburgo	2
Lakhimpur	2
Baquedano	2
Pueyrredon	2
Achupallas	2
Yatenga	2
Antapaccay	2
Guriel	2
Moliere	2
checa	2
Dehmazang	2
Wan Chai	2
Alkmaar	2
Merdare	2
Yirgou	2
Mongolia Interior	2
Malamfatori	2
Manuel B.	2
Kinyanjojo	2
Quera	2
Sabá	2
Queensland	2
PEKIN	2
Makalondi	2
Bimini	2
Pichari	2
Drome	2
Al Yumhuriya	2
Pul-e-Jumri	2
Bashu	2
Majmur	2
Al Rashad	2
Ekaterimburgo	2
Jamis	2
Santa Catarina Ixtahuacán	2
Coventry	2
Cholula	2
Joghyani	2
Wuerzburg	2
Guben	2
Duitama	2
Jask	2
Kalandia	2
Cox 's	2
Seis	2
Kabba	2
Mangodara	2
Daytona	2
Atbara	2
Canindeyú	2
Pedro Juan Caballero	2
Uaberi	2
Ridgecrest	2
Darfur Sur	2
Silao	2
sudanés	2
La Güinera	2
Litiminha	2
Zitácuaro	2
Blanca	2
Esuatini	2
Sierra Centro	2
Dará	2
Escondida	2
Alvarado	2
Freiberg	2
Pinar del Río	2
Batangafo	2
Banibangou	2
Bridgewater	2
Salinas	2
Tobar	2
Larissa	2
Bata	2
Tengiz	2
AMBA	2
KwaZulu-Natal	2
Gauteng	2
Magunga	2
Aranda	2
Ternero	2
Mallín Ahogado	2
Manheim	2
Quetzaltenango	2
Panjshir	2
Zaranj	2
Nimroz	2
La Fortaleza	2
Ugrahan	2
Chubut–	2
Tort-Kocho	2
Batken	2
Mahagi	2
Hermel	2
Puerto Maldonado	2
Delta del Paraná	2
Bankilaré	2
nigeriana	2
Maru	2
Kech	2
Evergrande	2
Pitalito	2
Thiou	2
Shiroro	2
Abasan	2
Nonsin	2
TIERRA DEL FUEGO	2
Pánuco	2
Tibet	2
Barbès	2
Batn	2
Campo Verde	2
Magway	2
Harlingen	2
Maicao	2
Hurligham	2
PILAR	2
NUEVA	2
Matchika	2
Quito-	2
Cité Soleil	2
Sadhuke	2
Las Golondrinas	2
Challhuaco	2
Allende	2
Liguria	2
Kazajstán	2
Seco	2
Ambala	2
Houet	2
Ouallam	2
Kalisz	2
Namssiguia	2
Yabal	2
Pro	2
Nueva Gales del	2
Grand	2
Hialeah	2
Lichtenstein	2
Potsdam	2
de janeiro	2
sao	2
paulo	2
Contepec	2
Xoxocotla	2
Benishangul-Gumuz	2
Amstetten	2
Englewood	2
Suffolk	2
Montero	2
Buffalo	2
Hamtramck	2
Betulia	2
Santoro	2
Indec	2
Falmouth	2
Traiguén	2
Sar	2
Sanmatenga	2
Microcentro	2
Las Margaritas	2
Kismayo	2
Musaffah	2
Mexicali	2
Pinar	2
Gwanghu	2
Ramos Mejía Ignacio Sánchez	2
Ramos Mejía Ignacio	2
Gualegaychú	2
Chillar	2
Ishafan	2
Si	2
Moncloa	2
Oro	2
Hainan	2
Kpandroma	2
Times	2
Imán	2
Long Beach	2
Jartum Norte	2
Espinar de Perú	2
Shewa	2
Kolwezi	2
Lanzhou	2
Acacías	2
Fort-de-France	2
Vicentin	2
Pereyra	2
Tomás	2
Logar	2
AVELLANEDA	2
Mariana	2
Coporaque	2
Besancon	2
Lambaré	2
Jabalia	2
Elephant	2
Mazar	2
Karen	2
Kyimyindaing	2
Manguistau	2
Atirau	2
del Parque	2
Isfahán	2
Nimruz	2
Turingia	2
Carupá	2
Chabas	2
Orinoco	2
Sfax	2
Zwolle	2
Cox Bazar	2
Widho	2
Guizhou	2
Vicuña Mackena	2
El Fasher	2
Szudzialowo	2
Ukhiya	2
Donado	2
Holmberg	2
Bagre	2
Ciudad de Rosario	2
Puerto Real	2
Glencore	2
Irapuato	2
Kebbi	2
Simferópol	2
Burka	2
Dunkerque	2
Pétion-Ville	2
Nueva Gales del Sur	2
Acandí	2
Hiiraan	2
Roquetas de Mar	2
Sabon Birni	2
Pibor	2
Ocosingo	2
Los Patos	2
Stonewall	2
Dikwa	2
Puerto Libertador	2
Rica	2
Karnataka	2
Orissa	2
Walnut Creek	2
Compton	2
Miami Beach	2
Sayudabad	2
Kasserine	2
B	2
En Mar del Plata	2
Oromia	2
Adis	2
Quinta de	2
Mai Tsebri	2
Aalborg	2
Comayagua	2
Hesse	2
Andonaegui	2
Chacho	2
Villa Vásquez	2
Surobi	2
Las Tejerías	2
Wadajir	2
Plan 3000	2
La Concepción	2
Capuchinos	2
Jan Yunis	2
Rafá	2
Petaj	2
Zurmi	2
Sierras Bayas	2
Roque Saénz Peña	2
Truncado	2
Salta-	2
El Havre	2
Tizi Ouzou	2
Güer Aike	2
portuaria	2
Villa Los Altos	2
Rincón de Milberg	2
West Belfast	2
Puerto Quequén	2
Quemú	2
la Esquina	2
Madrid-	2
Volga	2
General Rojo	2
González Chaves	2
Palencia	2
González Chávez	2
Galarza	2
Mineira	2
Sandoná	2
Burlada	2
El Remanso	2
Libres del Sur	2
Cibeles	2
Alto Fierro	2
Oruzgan	2
Roberts	2
Minetti	2
Dematagoda	2
Mataban	2
Babiano	2
Noja	2
Muchinga	2
Urquiza y Moreno	2
Pedregal	2
Eva	2
Ahmenabad	2
José María Moreno	2
Warrington	2
Noreste	2
El Tropezón	2
Cullen y Bauness	2
Farah	2
Chincha	2
Barrio Frino	2
Buira	2
Wah	2
Vorkuta	2
La Martinica	2
Harrold	2
Itaguí	2
Perfil	2
500	2
Bulo Bulo	2
Eugene	2
Norfolk	2
Spin	2
Porvenir	2
de Zamora	2
La Cabaña	2
Santoña	2
Ongamira	2
Pilar-	2
Huancavelica	2
Bajo Putumayo	2
Antioquía	2
Sakhalin	2
Drenica	2
Yitzhar	2
Cheliabinsk	2
Orito	2
Kismayu	2
Estado de Paraná	2
Kokrajhar	2
Waziristán del Sur	2
West Paducah	2
Nozhai-Yurt	2
Kasra	2
Montecito	2
Santa Barbara	2
Copello	2
Fermi	2
Dique	2
Cabana	2
Alto Perú	2
Surat	2
Colaba	2
Crisólogo Larralde	2
SanCor	2
Villa del Carmen	2
Billinghurt	2
Ioannina	2
Clemente Onelli	2
Ballykelly	2
Barrio Alberdi	2
Ofer	2
Dnipropetrovsk	2
Nuestra Señora del Carmen	2
Covina	2
Garhi Khuda Bakhsh	2
Fahem	2
Nazareth	2
Nahal	2
Worcester	2
Colinas	2
Marrakesh	2
Sajnin	2
Jeque	2
Chiozza	2
Acha	2
Staythorpe	2
Chaitén	2
Nueve	2
San Fernando del Valle de Catamarca	2
Napoli	2
Baden-Württemberg	2
Lashkar Gah	2
entrerriana	2
Pinedo	2
Jamrud	2
Choele-Choel	2
Kehl	2
Abruzos	2
Villa del Plata	2
Sivas	2
Cachipay	2
Birkenau	2
Al-Muqdadiya	2
Albenga	2
L´Aquila	2
Bidu	2
Cañar	2
Puente Alsina	2
Avellaneda-	2
Falluyah	2
Sistán-Baluchestán	2
Florentino	2
Hermosillo	2
Yurimaguas	2
Dir	2
Machhad	2
El Tigre	2
Parque Roca	2
Hipertehuelche	2
Choluteca	2
Viel	2
Pozo Azul	2
Brisbane	2
Puerto Gaboto	2
campo	2
Calviá	2
Alamo Alto	2
Trento	2
Azules	2
Colorados	2
Olancho	2
Al Amel	2
Al Shurta	2
Hisingen	2
Jahra	2
Mataveri	2
Rapa	2
Karrade	2
la Ciudad	2
Mahane	2
En Salta	2
Mahattan	2
Ustarzai	2
Kohat	2
Kedumim	2
Terrabusi	2
Medan	2
Zelanda	2
Valentina	2
Polla	2
Clermont Ferrand	2
Corrientes-	2
Fernando de la Mora	2
Wilkes	2
San Ysidro	2
EEUU	2
Hindú	2
Bermeo	2
Coronel Rosales	2
Bañado de Ovanta	2
Lepaera	2
Kadimiya	2
Vernet	2
Quilicura	2
Paraguarí	2
Espoo	2
Península	2
Arhab	2
UPCN	2
Dheisheh	2
Kassanje	2
Jaramillo	2
Oriente	2
Totoral	2
Igualada	2
La Barra	2
Huntsville	2
Bayelsa	2
Izquierda	2
Angel Gallardo	2
Banes	2
Recova	2
Ur	2
Al Yihad	2
Rodó	2
Dammarie-les-Lys	2
Den Haag	2
Pachá	2
Milan	2
Dubrovka	2
Nusseirat	2
Talas	2
Madison	2
Wawel	2
Reggio	2
Ulloa	2
Aeropuerto	2
Espejo	2
Washington D.C.	2
Nanzheng	2
Ezeiza-Cañuelas	2
Montecristo	2
Vito Dumas	2
Jiang	2
J. B. Molina	2
Whitehaven	2
Hungerford	2
Chongqing	2
asentamientos	2
Soccer City	2
Foxconn	2
2002	2
Crespi	2
Guerrero-	2
Tamaulipas-	2
Khayelitsha	2
El Pireo	2
Yakaghund	2
Culpina	2
Combate	2
Clara	2
Puerto San	2
Obelisco-	2
Barrio de Pie	2
Agrelo	2
Muzaffargarth	2
Bonifacio	2
Hangzhou	2
Eugenio	2
Khowst	2
Tauranga	2
San Vicente de Paul	2
Rabe	2
Sylacauga	2
Techint	2
Gainesville	2
Maradona	2
Scalabrini	2
Aligarh	2
La Macarena	2
La Julia	2
Pireo	2
Ezeiza-Esteban Echeverría	2
Caloto	2
Piendamó	2
Zelarrayán	2
Cascó	2
Alsacia	2
Realengo	2
Bangu	2
Gran Neuquén	2
Tepito	2
Ramal	2
Altos de Laferrere	2
Coroa	2
Katanga	2
Jerónimo	2
Rosetti	2
Alexandría	2
Chura Puña	2
Salgueiro	2
Fuentealbilla	2
Madrid-Barajas	2
Bahía Azul	2
Gardena	2
Arcore	2
Alsina 65	2
Domodédovo	2
Bursa	2
Villa Transradio	2
Polje	2
Velika Krusa	2
Zarqa	2
Karnak	2
Aqaba	2
Shoubra	2
Djakovica	2
Juan Martín	2
Youngstown	2
Grande	2
Venegas	2
Sanaá	2
Seba	2
Tánger	2
Alzentan	2
Comala	2
Terbil	2
Corvalán	2
Abdiján	2
Mokattam	2
Cañada Seca	2
Zanello	2
Guillermo	2
Libia.-	2
Kamenica	2
Monte Longdon	2
Grmija	2
Belacevac	2
Yekaterimburgo	2
Roncesvalles	2
Nagoya	2
Maluku	2
Monasterio	2
Monte Avala	2
Meitian	2
Cabello	2
Amuda	2
Sanamei	2
Qafe Prush	2
Lebane	2
Jacarepaguá	2
Ventimiglia	2
Kruma	2
Anteayer	2
Derá	2
Mirgor	2
Soho	2
Aix-en-Provence	2
Fos-Lavera	2
Dara	2
Ramstein	2
Chubut-	2
Sinopec	2
Vrsac	2
Dunedin	2
Zinyibar	2
Frávega	2
Xiamen	2
Golán	2
Laguna Naineck	2
del Sol	2
Hubei	2
Qabune	2
Vladicin Han	2
Alemão	2
Barzeh	2
Khanabad	2
Bangasi	2
Exeter	2
Likovac	2
Cetinje	2
El Arish	2
Nottingham	2
Salford	2
West Bromwich	2
Wolverhampton	2
Grand Bourg	2
Kapacanik	2
comunas	2
Saliqueló	2
Comunidad de Madrid	2
Dalian	2
East London	2
Sol	2
Zeitun	2
Deir Ezor	2
Khadafy	2
Chiloé	2
Cartero	2
Cañadón	2
Cirenaica	2
Argentinos	2
Sjenica	2
Concepción Arenal	2
Charrúas	2
Otamendi	2
Habbaniya	2
Escuela	2
Cerino	2
Novi Pazar	2
Vides	2
Santiago-	2
Batalik	2
Heraclión	2
Palaa	2
Minneápolis	2
Raleigh	2
Bani	2
Wenzhou	2
Villa Mayo	2
Volos	2
Pietrobelli	2
Astiz	2
PSOE	2
Collahuasi	2
Lousiana	2
Jagüey Grande	2
El Quiché	2
Asuán	2
Larcade	2
Marsa	2
Fayetteville	2
Devon	2
La Cartuja	2
Grace	2
Mazar-e	2
Bengala	2
Lamezia	2
Fort Meade	2
Allaui	2
Al-Amal	2
Tantoyuca	2
Madalla	2
Beit Shemesh	2
Punto	2
Sanlitun	2
French	2
Wuppertal	2
Ruhr	2
Ramsés	2
Higüey	2
Mazzeh	2
Jubar	2
Coyhaique	2
Nargahar	2
Chardon	2
Kheyvis	2
Cravo Norte	2
Zapopan	2
Ofunato	2
Kordofán	2
macrocentro	2
Agote	2
Alpargatas	2
Dominico	2
Méndez	2
Chenque	2
Tunja	2
Allahabad	2
Abbasiya	2
Qazzaz	2
Rastan	2
Hebei	2
Villa Adela	2
Nahuel Huapi	2
Hamadán	2
Sosa	2
Roland	2
Polvorines	2
Coronel Díaz	2
Mir Alí	2
Mazraat	2
Auburn	2
Puerto de La Plata	2
Refinor	2
Celendín	2
marplatense	2
FE	2
Kafar Soussé	2
Nahr Aisha	2
Qabun	2
Red	2
Rawda	2
Stratford	2
Dibis	2
Barze	2
Vivoratá	2
Comunidad	2
norteña	2
MATANZA	2
Écija	2
Ecija	2
Marinaleda	2
Flatiron	2
College	2
Obligado	2
Mazzé	2
Sharpeville	2
Ciudad de La Paz	2
Oak	2
Ciudad Guayana	2
Carajas	2
Chateau	2
Vilafranca del Penedès	2
Bancalari	2
Al-Raqqa	2
Demarchi	2
Beka	2
Daka	2
Holanda.-	2
Etcheverry	2
Donostia	2
Chennai	2
santiagueño	2
Comodo	2
Mayo	2
Rustenburg	2
El Líbano	2
Médisis	2
Brookfield	2
Wadi	2
Hoboken	2
Saraqeb	2
San Bernardo do Campo	2
Itaquera	2
Millau	2
Ningbo	2
Gaspar	2
Itapema	2
Tiquicheo	2
Dagua	2
Condarco	2
Damanhour	2
Gallegos	2
Jaramana	2
Espirito Santo	2
Espíritu Santo	2
Vieques	2
Cucha Cucha	2
Cildáñez	2
Modín	2
Sandy	2
Presidente Derqui	2
Los Lagos	2
Taftanaz	2
Vistahermosa	2
Freire	2
Pieres	2
Tigantourine	2
Konna	2
Kailahun	2
Diabaly	2
Liquisa	2
Cruce Alberdi	2
Damboa	2
Java Oriental	2
Manado	2
Nogoyá 3045	2
Robles	2
do	2
Vallenar	2
Pisú	2
Zwickau	2
Chapecó	2
Joinville	2
Zamalka	2
Quinindé	2
Junin	2
Partido de la	2
Busto Arsizio	2
Hertzlia	2
Orense	2
Troncos del Talar	2
Arenal	2
Viña	2
Terrero	2
junín	2
Playón de Chacarita	2
La Carbonilla	2
Sañogasta	2
Iturraspe	2
Angamos	2
Tuyú	2
Burruchaga	2
Villa Argüello	2
Heliconia	2
Orgreave	2
Isla Maciel	2
Alberto	2
Massachussets	2
Parque Castelli	2
Al-Bayda	2
Hatay	2
Habibiya	2
Baladiyat	2
Greenville	2
Porcel	2
Kizilay	2
Princeton	2
de Córdoba	2
Semana Santa	2
DE	2
Riberão Preto	2
Ivirgarzama	2
Havanna	2
Intercargo	2
Nasr	2
Muqatam	2
Ravignani	2
Ciudad Nasr	2
Orléans	2
Castelar Sur	2
Al Arish	2
San Pablo-	2
Carrillo	2
Paseo Colón	2
Ciudad Naser	2
Sidi Bishr	2
Los Incas	2
Campo Maripe	2
londinense	2
Baraya	2
Tatsa	2
Morse	2
Benito	2
Oikos	2
Turón	2
La Fraternidad	2
Pechora	2
Al-Kazemiya	2
Ponce	2
Mar Azul	2
La Lonja	2
Murmansk	2
Bonfatti	2
Acambuco	2
Múrmansk	2
Sachsenhausen	2
Dachau	2
Granadero	2
Urus-Martán	2
Casa Tía	2
Virgen	2
Suwayra	2
Baltc	2
Malula	2
Santa Fe La	2
Mendoza-	2
Río Salí	2
Faimallá	2
Ahmici	2
Mistrató	2
Membrillar	2
Donato Álvarez	2
Echesortu	2
Vallejos	2
Quirno ( Flores	2
Montiel	2
Beveren	2
Marqués	2
Batlle	2
31 de	2
costanera	2
Al Tuz	2
Pedrinhas	2
Sierra de la Ventana	2
Juan Bautista	2
Bor	2
Guiza	2
Chaab	2
Malaab	2
Mansura	2
Alpesca	2
Los Lagartos	2
brasileñas	2
Carúpano	2
Pampa del	2
Los Pilares	2
Dionisio Cerqueira	2
Jardín	2
Pirelli	2
Caracas Libertador	2
Lido	2
Georgias	2
Fernández de la	2
Tolo	2
San Martín de las Escobas	2
Murrysville	2
Chiclana	2
Slavyansk	2
Kramatorsk	2
Kharkov	2
Gorlovka	2
Villa Obrera	2
Borno-	2
Hopkinton	2
Zaira Nara	2
Camioneros	2
Sloviansk	2
Gamboru	2
Shawa	2
Volnovaha	2
Novoaydar	2
Abra	2
Ávila	2
Vila Isabel	2
Moncton	2
Horto	2
Hamirpur	2
Cidade do Galo	2
Brijesce	2
Srebenica	2
Viñas	2
Acería	2
Kwada	2
Ngurojina	2
Karagau	2
Kautikari	2
Ciudad de Dios	2
Bs	2
Parque de los Patricios	2
Larino	2
Real	2
Adamawa	2
Arismendi	2
Aviñón	2
General Pirán	2
Kolofata	2
Miñones	2
Salcedo	2
Kirov	2
Nuestra Señora de Itatí	2
Doron Baga	2
Gwanghwamun	2
Govan	2
Rabia	2
Biedma	2
Lanusse	2
Fecra	2
Segura	2
Estancia	2
Chilavert	2
Los Aromos	2
Mora	2
Pedro Molina	2
Barrio Illia	2
Gómez Carreño	2
Gallipoli	2
Northampton	2
Somme	2
Zillebeke	2
Lleida	2
Vic	2
Katyn	2
Hung Hom	2
Loma Campana	2
Stornelli	2
Yusufiya	2
Kirchner	2
Ojo de Agua	2
Debenedetti	2
Santiago de	2
Gorgona	2
Sinchon	2
Offenbach	2
Rayo Vallecano	2
Cerviño	2
Quebrachal	2
Benito Legerén	2
Laguna del Desierto	2
Cabín	2
De la Sota	2
Monte Salvado	2
Madre	2
Baga	2
Villefranche-sur-Saône	2
Elche	2
Dammartin-en-Goele	2
Ciudad Gaza	2
La Castellane	2
Chapel	2
Debaltseve	2
danesa	2
Aarhus	2
Niceto Vega	2
Ledezma	2
Jorramabad	2
Atuel	2
Combate de los Pozos	2
Camargo	2
Lavalleja	2
Gander	2
Sada	2
Sauces	2
Ankara-	2
Castana	2
Garowe	2
Der	2
Galípoli	2
Comarca	2
La Perlita	2
Matteoti	2
Würenlingen	2
Tanhuato	2
Yurécuaro	2
Islay	2
Al-Bab	2
Al-Shaar	2
Tharthar	2
Maryinka	2
Garmisch-Partenkirchen	2
En Rosario	2
Valle de Río Negro	2
Cornejo	2
Hasaké	2
Lego	2
Isère	2
Kukawa	2
Monguno	2
Puente Aranda	2
Wimbledon	2
Lagunilla	2
San Fermín	2
Xaltianguis	2
Sariyer	2
Little Habana	2
Huaraz	2
Erawan	2
Gevgelija	2
Roanoke	2
Cocha	2
Los Pizarros	2
Fonrouge	2
Cortés	2
Bicske	2
Roszke	2
El Durazno	2
Samos	2
Horgos	2
Béziers	2
Lucía	2
Sarasota	2
turca	2
Tekoa	2
Sierras Chicas	2
Issawiya	2
Glace	2
Trollhattan	2
Manzanillo	2
Huinca	2
Cromañon	2
Gigante	2
Iasi	2
Los Próceres	2
Bataclán	2
Sévaré	2
Roubaix	2
Pizarro	2
Caricuao	2
Buriticupu	2
Minusma	2
Bajada	2
Romina	2
Baldomero Fernández Moreno	2
Cavia	2
Al Zahra	2
Mashaad	2
Manuel Castro	2
Refinería	2
Nueva York-	2
Bodo	2
Beit Horón	2
Viterbo	2
Villahermosa	2
San Bernandino	2
Cuyaya	2
Faecap	2
San Bernardo del Campo	2
Onelli	2
Blas Parera	2
Guayabetal	2
Kollam	2
Acobamba	2
Anderlecht	2
El Vedado	2
Recreio	2
Torrealba	2
Adimra	2
Barrio Obrero	2
Santiago Hafford	2
Pinheiros	2
Anaheim	2
Beyazit	2
Vezneciler	2
Cerezal	2
Qasr	2
Litchfield	2
Al Karrada	2
Guanare	2
Angeles	2
Fatih	2
San Antonio del Táchira	2
Fort Myers	2
Ramusa	2
Trang	2
Surat Thani	2
Phang Nga	2
Maré	2
Pedro Juan	2
Viborg	2
Elazig	2
Villa Banana	2
Sayari	2
Moreno Emiliano Lasalvia	2
Potrero de los Funes	2
Caracas\	2
KwaZulu Natal	2
Essonne	2
Bonaerense	2
Linden	2
Zumarán	2
Matabelelandia	2
Riosucio	2
Itumbiara	2
Portsmouth	2
Pampanga	2
La Favorita	2
Recoleta Telam	2
Doña	2
Trapiche	2
Norcia	2
Venancio Flores	2
Kendall	2
Sevnica	2
Sahibabad	2
Caracazo	2
Baire	2
del Sur	2
Uairén	2
Guasdualito	2
milanés	2
Reina	2
Compaj	2
Al-Shaab	2
Bárcena	2
Flores Daniel	2
Ludden	2
Batanovtsi	2
Año Nuevo	2
La Emilia	2
Québec	2
Los Roques	2
Friedrichshain	2
Camacuá	2
San José Pinula	2
Caras	2
Samid	2
Molina Arrotea	2
Rudy	2
Rashidin	2
Kabul-	2
Iguaçu	2
Viana	2
Rodrigo Néspolo	2
Arredondo	2
Tucapé	2
Valera	2
Lechería	2
Portuguesa	2
Borough	2
Playa Chica	2
cordobeses	2
Navolato	2
Sankt Pauli	2
Altona	2
Hortensia	2
Ejido	2
Los Guayabitos	2
Buenos Aires Chico	2
Lumaco	2
Puerto Ayacucho	2
Cambrills	2
Wuppertal-Elberfeld	2
Mazatepec	2
Los Cabos	2
Winslow	2
Chein Khar Li	2
Sagrada	2
Heppenheim	2
Catalu Josep Lago	2
Calella	2
Comte de Urgell	2
Qardaha	2
Blagnac	2
Villa Mascari	2
Parque San Martín	2
Villadiego	2
Cofco	2
Nuevo Hampshire	2
Vega	2
Servellera	2
Pastorizzo	2
Perla Norte	2
Cunco	2
DOCK SUD	2
Xian	2
Ulan-Ude	2
São Bernardo do	2
Samborombón	2
Saboya	2
Los Vinchuqueros	2
Xochimilco	2
SAN MIGUEL	2
Tanusevci	2
Pisa Pisué	2
Nüremberg	2
Hamouriya	2
Pelermo	2
Budva	2
Deán	2
São Miguel do Oeste	2
Arturo Seguí	2
ABC	2
Mataje	2
Bluefields	2
South	2
Newbery	2
La Rural	2
Birkenhead	2
Matagalpa	2
Unamuno	2
Queenstown	2
Jagüel	2
Yogyakarta	2
Ramalah	2
Somoza	2
Ticuantepe	2
Neuquéna	2
Esteco	2
GBA	2
Las Rozas	2
Carazo	2
Melfi	2
Borgo	2
José León Suarez	2
Nouveau-Brunswick	2
Caracas-	2
Rodriguez Peña	2
Astilleros	2
Trappes	2
Javier de la Rosa	2
En Chaco	2
Palu	2
Cossenttini	2
Rappi	2
Tecún Umán	2
Ciudad Hidalgo	2
Alto Avellaneda	2
Villa La Ribera	2
Güerrín	2
Chico	2
Ventura	2
Paradise	2
La Rochelle	2
Osecac	2
Katowice	2
Orleans	2
Muky	2
Manjib	2
San José de Cotiza	2
Brumadinho Estado de Minas/CBMMG	2
North Kensington	2
Fernando Massobrio	2
Brest	2
Muñoz	2
Balakot	2
Poonch	2
Tasmania	2
Baghuz	2
Guri	2
Virrey Cevallos	2
Buenavista	2
Sulu	2
Kalmunai	2
Winterfell	2
Castelar Augusto Arturi	2
San Miguel del	2
Ríos Gallegos	2
Chañar	2
Tierralta	2
Ostritz	2
Argra	2
Gintota	2
Viejo San Juan	2
Castelo	2
Macao	2
KONG.-	2
Guadalupe Oeste	2
Villeurbanne	2
Aramco	2
Salomón	2
Aquitania	2
Gecho	2
Rocesvalles	2
Saldungaray	2
Arboleda	2
Sierra Nevada	2
Oropesa	2
Chimalhuacán	2
Markina	2
Guilo	2
Cheba	2
Edsa	2
Malacanang	2
Chigorodó	2
Yebalia	2
Huambo	2
Glodwick	2
Lamitan	2
Bogotá-	2
Ikeda	2
Cazón	2
Tomarrazón	2
Yehud	2
Formello	2
Caracol	2
Atambua	2
Cristoforo	2
Sheshnag	2
Madhya Pradesh	2
Tearce	2
Bet Yala	2
Guiló	2
Totonicapán	2
Balobo	2
Urnieta	2
Grupchin	2
Saarbruecken	2
Estado de Minas Gerais	2
Vigonza	2
Pangoa	2
Lomas de	2
Muñecas	2
Ipil	2
Jara	2
Pensylvannia	2
Chinatown	2
Belmont	2
Sant Adriá del Besós	2
Langley	2
Sansinena	2
Jom Qadam	2
Temergarah	2
Altolaguirre	2
Patacamaya	2
partidos	2
Shadan Lund	2
Padres	2
Atambúa	2
Arrankudiaga	2
Chatila	2
el Obelisco	2
Maquinista	2
Cristianía	2
Odisa	2
Láinez	2
Gran Tucumán	2
Chebaa	2
Nisanit	2
Tucumán–	2
Shebaa	2
Jamu-Cachemira	2
Capitán Bado	2
Campoamor	2
Malacañang	2
Embú	2
Liniers y Flores	2
Hazmieh	2
Tres Cerritos	2
El Dorado	2
Edison	2
Heidelberg	2
Sidi Lajdar	2
Bufarik	2
Ayola	2
Ocanto	2
Constitución-	2
Kisufin	2
Nestlé	2
Tufah	2
Noal	2
Beit Lid	2
Downey	2
Villa Ariza	2
Efrat	2
Gush Katif	2
Potrero de	2
Jebaliya	2
Barranquillita	2
San Miguel de	2
Ambon	2
Cisjordania.-	2
Campamento	2
Caseros-	2
Rishón	2
Rishon-le-Zion	2
Juan José Paso	2
Long	2
Meguido	2
Arafat	2
Saitama	2
Dolli	2
Montes	2
Francisco Madero	2
Saint-Laurent	2
Trelles	2
Yatta	2
Barrio Borro	2
Villarrica	2
Tecpetrol	2
Alto Egipto	2
Villa Albertina	2
Hawai	2
San Ramón Nonato	2
Piacenza	2
Mykonos	2
Galashki	2
Doce	2
S‹o Bernardo do Campo	2
Aspen	2
Failaka	2
Kidapawan	2
Urdax	2
Kuta Beach	2
Karkur	2
Pardes	2
Zabaleta	2
Campobasso	2
Viladecavalls	2
Kiryat Menahem	2
Visegrad	2
Márquez	2
Raúl	2
Meholla	2
Nochebuena	2
Kabatiya	2
Témperley	2
Tubinga	2
Yacopí	2
Bullrich	2
Flandria	2
Hartford	2
Khulna	2
Konak	2
Chalet	2
lombarda	2
Teodoro	2
Maure	2
Al Shaab	2
Zubayr	2
Azúcar	2
Makhachkala	2
Koronadal	2
Známenskoe	2
Azimiya	2
Kadhamiya	2
Ossetia	2
Majar	2
Prodinco	2
cuyana	2
Tushino	2
sierra	2
Hockenheim	2
Mamba	2
Tena	2
ciudades	2
La Carrodilla	2
Larzac	2
Insbruck	2
Kufá	2
El Totoral	2
PAZ	2
Pupyong	2
Quispe	2
Pirajuí	2
Chivor	2
Sanandresito	2
Sampit	2
México DF	2
Asís	2
Al Baya	2
Huehuetenango	2
Palangkaraya	2
Atzmona	2
Carmen de Bolívar	2
Zugdidi	2
Sao Vicente	2
Nassirya	2
Musa	2
Djelfa	2
Aiquile	2
Tercero	2
Iessentuki	2
Amiriyah	2
Husainiya	2
Ameriya	2
Carlos Spegazzini	2
Daudi	2
Sultana	2
Tenere	2
Palopo	2
Mulhouse	2
Aman	2
haitiana	2
Unaí	2
Rehavia	2
Garbarino	2
Budionnovsk	2
Gracani	2
Sainte Suzanne	2
Ouananmithe	2
Alvarez Jonte	2
Pétionville	2
Khadimiya	2
Jauretche	2
Hirbata	2
Fannin County	2
Tainan	2
Sungai Kolok	2
Durres	2
Bukhara	2
Mocejón	2
Sheik	2
Jharjand	2
Paroissien	2
Khor	2
Bakubá	2
Lomas Taurinas	2
Pascual	2
Yelwa	2
Kalithea	2
Randallstown	2
Zeitoun	2
Barahona	2
Jammú	2
santa	2
Al-Arrakah	2
Ta´if	2
Estado de Guerrero	2
Salman Pak	2
Urusgán	2
Tres Arroyo	2
Samawá	2
Villa Itatí	2
Paso del Sapo	2
Santa Rosa del Sara	2
Franja de Gaza	2
Baiyi	2
Khuzestán	2
Bohruz	2
El Salado	2
Los Yungas	2
Al-Wahda	2
Kerrada	2
Aceros Zapla	2
Gatumba	2
Fernanda	2
Al Jadra	2
Villa Barberán	2
Nueva Hampshire	2
Inguchia	2
Fernando Cotillo	2
Las Toninas	2
Cold Spring	2
Crisólogo	2
Oyuela	2
Tall	2
EN	2
Berlín Occidental	2
Azamiyah	2
Al-Adhamiyah	2
Al-Ghazaliyah	2
San Juan Ixtayopan	2
Ksar El Boukhari	2
Corriente	2
Ciudad Real	2
Santillana del Mar	2
Kasenga	2
Al Wihda	2
Scampia	2
Karj	2
Thalit	2
Chamelecón	2
Kinsasha	2
Dijla	2
Mesa Redonda	2
Xinjang	2
Llaoning	2
Surco	2
Jurriya	2
Mahauil	2
Gilgit	2
Salman	2
Estado de Pará	2
Nissanit	2
Moqdadiya	2
Dhuluiya	2
Marbach	2
Ortega	2
Baya	2
República Cromañón	2
Tarmiyah	2
Lahuachaca	2
Cutral Có-Plaza Huincul	2
Villa Mazán	2
Bower	2
Naseerabad	2
Jalal-Abad	2
Itapúa	2
Ate-Vitarte	2
Jalal Abad	2
Mar de Plata	2
Gran Bourg	2
Cholaa	2
Al Bunuk	2
Tall Afar	2
Zayona	2
Senasa	2
Andizhán	2
Lila	2
Andiján	2
Kara-Suu	2
Zuviría	2
San Blas	2
Tentena	2
Poso	2
Marjayoun	2
Hueya	2
Hawiya	2
Kanaan	2
Anlong	2
de Chiapas	2
Wata Moussaytbeh	2
Palermo-	2
Al Musayab	2
Auchterarder	2
Sha	2
Ujta	2
Mussayeb	2
Kfar Maimon	2
Oval	2
Tooting	2
Perú-	2
Shfaram	2
Hiroshima	2
Carurú	2
Costa del Este	2
Casabindo	2
Abu Saida	2
Raúl Scalabrini Ortiz	2
L´Hay	2
Kadamiya	2
Moyobamba	2
Morristown	2
Villordo	2
Greve	2
Madaen	2
Govindpuri	2
Sarojini Nagar	2
Manta	2
Stains	2
Val d´Oise	2
Aubervilliers	2
Khanaqin	2
Omaria	2
Dairet Lebguer	2
Suhan	2
Siddi Moussa	2
Alsasua	2
Machu Picchu	2
Sidi-Youcef	2
Beni-Messous	2
Londres-	2
Urso Branco	2
Adl	2
Buquebus	2
Baracaldo	2
Marengo	2
Gualguaychú	2
Qalat	2
Las Heras-	2
Bossaso	2
Trapagarán	2
Aminga	2
Hurriyah	2
Petionville	2
Onitsha	2
Zafaraniya	2
Al Ula	2
Baden-Wuerttemberg	2
Blackburn	2
Bragagnolo	2
Belbeiss	2
Ambón	2
Argún	2
Barañáin	2
O´Brian	2
Tlemecén	2
Presidente	2
Iaras	2
PABLO	2
Chafor	2
Guarayos	2
Sorocaba	2
Ceccano	2
Äänekoski	2
Pedro Aguirre Cerda	2
Kazimiyá	2
Julián	2
Buratha	2
Mahmudiyá	2
Haraj	2
Vila Velha	2
Qana	2
Agua Blanca	2
Jundiaí	2
Trincomalee	2
Jaffna	2
Donosti	2
Al Askari	2
Hat Yai	2
Luzón	2
Relizane	2
Saputo	2
Fuenterrabía	2
Tlapa	2
Bagnolet	2
Gualeguychú	2
Caleta Paula	2
Zeitún	2
Jdeideh	2
Baabda	2
Corral	2
RIOJA.–	2
20	2
Duque de Caxias	2
PARQUE	2
Iskan	2
Heiligendamm	2
Liebig	2
Kajaki	2
Barakaldo	2
Shurya	2
Bikfaya	2
Hallú	2
Panipat	2
Ma´an	2
Nörrebro	2
Noerrebro	2
Christianshavn	2
Iskanderiyah	2
Amiriya	2
Santa Cruz-	2
Cartagena del Chairá	2
Mesetas	2
Red Lake	2
O´Connor	2
Casa Amarilla	2
Carabelas	2
Catumbí	2
Tallin	2
Irízar	2
Cananea	2
Verdun	2
Skanska	2
Rovira	2
Tocache	2
Jequitibá	2
Buaké	2
Kennebunkport	2
Potocari	2
Dantewada	2
Riocentro	2
Shah Walikot	2
Ontur	2
Chacras del Molino	2
Edimboro	2
Vert-Bois	2
Chacras	2
Har	2
Daglica	2
Pokokku	2
Varones	2
Troncos	2
Legazpi	2
Costa Uruguay	2
Los Alamos	2
Zárate-	2
Benares	2
Chuquisaca-	2
Inés	2
Cap Breton	2
Naudero	2
Mombassa	2
Pianura	2
Cipinang	2
Kericho	2
Ainamoi	2
Dambulla	2
Egg	2
Ramos Horta	2
Norberto	2
Jumbo	2
abyei	1
Quilleco	1
Nacate	1
En Cáceres	1
Sássari	1
Yomasa-Usme	1
Bakatá	1
Bialystok	1
Niafunké	1
Oicha	1
Mabuo	1
Manyama-Beu	1
Mambelenge	1
Baidit	1
Gran Píbor	1
Puerto Maderas	1
Neumarkt	1
Seubersdorf	1
Krink	1
BUCARAMANGA	1
Puerto Miranda	1
La Orqueta	1
Medio Shabelle	1
Bajo Juba	1
tulum	1
La Plata Matías	1
Togoga	1
Cherokee	1
Carbis	1
al-Jalaa	1
Katy	1
VillaMaria	1
Fengtai	1
Sula	1
Nampula	1
Al Shati	1
Tin-Hama	1
Ansongo	1
Thorntonhall	1
Samoré	1
Nochixtlán	1
Kagara	1
Neukoelln	1
Cannebiere	1
Área	1
Port Elizabeth	1
Sand Creek	1
González Catán Télam	1
Qala i Naw	1
Gipuzkoa	1
Ndjala	1
Tché	1
Kars	1
Ssangyong	1
ugandesa	1
Imán Sahib	1
Dasht-e-Archi	1
Qaryout	1
Dimentman	1
Groningen	1
Tilburg	1
Acharane	1
Ferfer	1
Mahabad	1
Bohan	1
Bané	1
Guzargah	1
Nur	1
Maraban Damishi	1
Quiwiya	1
29	1
Anqing	1
Anhui	1
Tessei	1
Modi	1
BARCELONA	1
Sebabugu	1
Kwala	1
Kolokani	1
Mogi	1
Leesburg	1
Erie	1
Leales	1
Remané	1
Yavne	1
Be ’	1
Al-Karameh	1
Beersheba🚨	1
قطاع	1
غزة	1
Hotesur	1
Mentao	1
Shangani	1
Pyay	1
Larroudé	1
Villa Iris	1
Masvingo	1
Charumbira	1
Arriaga	1
Cercedilla	1
Romich	1
Gokloch	1
Turagot	1
Malek	1
Piokjiak	1
Rai	1
Tonj Oriental	1
Maiwand	1
Sardawra	1
Diah	1
TEGUCIGLPA	1
Mahtab	1
Ruca Laquen	1
Taldykurgán	1
Nueva Cajamarca	1
Kitashinchi	1
Cabaña	1
Shwepyithar	1
Dagon del Norte	1
Dagon Seikkan	1
Al Fatá	1
Usnarz Gorny	1
Shir	1
Kala Shah Kako	1
Barrio Rocamora	1
Pistoya	1
Rahaba	1
Taimami	1
Lübeck	1
Bosnia y Herzegovina	1
Tilbury	1
Rheinberg	1
Koblenz	1
Graben	1
La Alameda	1
Gando	1
Barikin Daji	1
Rafin Gero	1
Barayar Zaki	1
SD	1
Batamaloo	1
Scheveningen	1
Yahukimo	1
Tiberias	1
Shakar Dara	1
Chelyabinsk	1
Paruán	1
Rahat	1
Oaxaca de Juárez	1
Margen	1
Katsina-Ala	1
Dong	1
Kiwi	1
Loroum	1
Tollo	1
Table	1
Innsbruck	1
Sankt Polten	1
El-Deain	1
Azerber	1
Morón Adentro	1
Chatham	1
Kashe	1
Karu	1
Praía	1
Checoslovaquia	1
Puentes La Noria	1
Tuxla	1
Itapirú	1
San Vladimiro	1
Maarat al-Naasan	1
Wilmington	1
Agaña	1
Hagåtña	1
Guam	1
Neftegorsk	1
Slidell	1
Jasper	1
Stamford	1
EAU	1
Rosario.En	1
Rosario.Según	1
Cabin 9	1
Battle Creek	1
de Herrera	1
Bougouni	1
Habei	1
Zhehiang	1
Tayuné	1
Njaba	1
Lens-Lille	1
Bnei Brak	1
Tadaryat	1
Provincetown	1
So	1
Tayuneh	1
Shuheil	1
Badad	1
Huixtla	1
Davenport	1
Khabarovsk	1
Algericas	1
CONURBANO	1
Changchun	1
La Rábida	1
Andina	1
jabarovsk	1
La Coronela	1
Mpigi	1
Al Aqsa	1
Gachancipa	1
Bengala Occidental	1
INTA	1
Qaisar	1
El Tintal	1
Matongo	1
Savalou	1
Tacabamba	1
Guayabales	1
L'Hospitalet	1
Gilboa	1
Santo Domingo Tehuantepec	1
Terbasa	1
Bavio	1
Maní	1
Mabani	1
Pailitas de Cesar	1
Madjoari	1
Manzini	1
Emilio Castro	1
Budgam	1
Yamina	1
Valle de Chalco	1
Naucalpan	1
Alamata	1
Kasapa	1
Arangazo	1
Sakaba-Wasagu	1
Maharastra	1
Santana	1
Jaú	1
Perijá	1
San Antonio de los Baños	1
Nawa	1
Nahrsaraj	1
Shwe Pyi Thar	1
Sao Luis	1
Marghera	1
Pokrov	1
Ocoyoacac	1
Regina	1
Palma Soriano	1
Diourouzon	1
Yundum	1
Honiaria	1
Ekondotiti	1
Wisonsin	1
Serekunda	1
Marlins	1
Sioux Falls	1
Nabisco	1
Magale	1
Barhale	1
Erbiti	1
Mariche	1
Mariches	1
Stendal	1
Rathenow	1
Marcial Candioti	1
Masaka	1
Mastoumeh	1
Malasaña	1
Janja	1
Manitoba	1
La Boucan	1
Frabcia	1
Estado de Buenos Aires	1
Perú Libre	1
Danga-Zouani	1
Korombara	1
Aazeiza	1
Hauza	1
Hafrat Ashyaf	1
Bagari	1
Ameitir Lamyeinza	1
Sabyat Tanuchad	1
Grarat Lfarsik	1
Mahbes	1
Farsía	1
Ahreichat	1
Esmara	1
Marka	1
Brookshire	1
Guadalupe Lucero	1
Núñez Fariña	1
Luciana	1
Czeremsza	1
miamense	1
Brickell	1
Alto Mantaro	1
Unión Fortaleza	1
Vizcatán del Ene	1
Unión Mantaro	1
Valle Manantial	1
Dle	1
O ’ Brien	1
Colcura	1
Alindao	1
Balaq	1
Idar-Oberstein	1
ENTRE	1
Magami	1
Yabal Sbeih	1
Acailandia	1
Muzaffarpur	1
Bela	1
Taixtan	1
Puente Tabla	1
Alassima	1
Cassaba	1
Nueva Hamphsire	1
Šibarġan	1
Garay y Piedras	1
Ebonyi	1
El Nihuil	1
Pama	1
Betancourt	1
Komtanalé	1
Nyala	1
Klugino-Bashkirivka	1
Nueva Inglaterra	1
Maidan Wardak	1
Shirján	1
Aqina	1
Ai Janum	1
burkina	1
Nachitenje	1
N'Gapa	1
Yoro	1
Nowshera	1
Kivu del	1
La Cuesta del Ternero	1
Luciano	1
Carbis Bay	1
Calamarca	1
Brigittenau	1
Danzig	1
Szczecin	1
Sliven	1
Cautín	1
Elíseos	1
Xochipala	1
Umutu	1
Demanda	1
Santa Cruz Inpres	1
El Quijote	1
Ouahigouya	1
Eshkol	1
Al Omar	1
Causeway	1
Hang Hau	1
Nara	1
Ardoz	1
Bria	1
Alto Kotto	1
Banga	1
Mambéré-Kadéi	1
Ellipse	1
La Consulta	1
Hiran	1
Mahas	1
Klessoum	1
Hoshab	1
Jacaranda	1
Bamenda	1
príncipe	1
haití	1
Daulat Sha	1
Bazarak	1
Daykundi	1
Géminis	1
Al Azim	1
Asdod	1
Fureidis	1
Umm Al Fahm	1
Pointe-a -Pitre	1
Los Sauces	1
Lakshmi	1
formoseño	1
San José de Guaviare	1
Lupane	1
Altas Cumbres	1
Al Muzayrib	1
Al Yadudá	1
Mirolindo	1
La Patagonia	1
Puerto Leguízamo	1
Royak	1
Campo La Cira Infantas	1
La Cira	1
Espert	1
Branson	1
Achira	1
Gourma	1
Vila Leopoldina	1
Miami Gardens	1
Abeché	1
Matupi	1
Chetima Wangou	1
Laboule	1
Lungga	1
Lárnaca	1
Shohada	1
Behbud	1
Gargaresh	1
Makran	1
Ormara	1
Planta Salar	1
Zolote	1
Horlivka	1
FOZ	1
Josephine	1
Eagle Point	1
Johar Town	1
puna	1
Villa del Parques	1
Devara Jeevanahalli	1
Doab	1
El Botalón	1
Hacarí	1
Anguillara Veneta	1
Veneta	1
Bregenz	1
Bergen	1
Trondheim	1
Otu	1
Riazan	1
Arghanjua	1
Chinartu	1
Formentera	1
Libertadores	1
Michalowo	1
Mier	1
Terán	1
San Esteban Atatlahuca	1
Ndoyonuyuji	1
Córdoba Asilo	1
Muku Dhere	1
Kaboré	1
Humera	1
Schweinfurt	1
Santa Fe Marcelo	1
NORDELTA	1
Qarachogh	1
Khush Roi Kalan	1
Maderna	1
Arcioni	1
Manyu	1
Abadía	1
Ku	1
Al Miqdadiya	1
Bezons	1
Hammarby Sjostad	1
Sra	1
Farsi	1
Adraskán	1
Nifas Mewcha	1
La Esneda	1
Millalonco Ranquehue	1
Cólon	1
Mailalle	1
Tacuar	1
Larkana	1
Ziarat	1
Donbass	1
Madhya	1
Lakewood	1
Sorrento	1
Beit Dajan	1
Mlang	1
Mambassa	1
Kirumba	1
Tche	1
Nadia	1
Boyeco	1
Purén	1
Naqadé	1
Osaka Córdoba	1
Lardin-Saint-Lazare	1
Kasaka	1
Burunid	1
Mon	1
Tinduf	1
En Luján	1
Villa Lechiguana	1
Titanyen	1
Nifas Meucha	1
Jayapura	1
Kornach	1
Chena	1
Kobo	1
Semien Wollo	1
Iloilo	1
Talayan	1
Nieuw Zuid	1
Congo Central	1
Mutambala	1
Bahema	1
Dongola	1
Managil	1
Ituti	1
Villa Ygatini	1
Ponta Porã	1
Tacumbú	1
Nuakchott	1
Curacautín	1
Darfur Norte	1
Rosario Marcelo	1
San José de Gracia	1
La Aldea	1
Hefei	1
Abi	1
Yopal	1
Noaka	1
Inhaminga	1
Cheringoma	1
Negri	1
Samaná	1
Yedá	1
Hais	1
Chitama	1
Collipulli	1
Lovaina	1
Teorama	1
Resguardo Alto del Rey	1
Illela	1
Um Dafuk	1
Kuryar Madaro	1
Ciudad Jardín	1
Mai	1
Samre	1
Iveco	1
Khan Abad	1
Ruja	1
Baghlan-e-Markazi	1
San Fernando del	1
ESTADOS	1
ALDO	1
Kale	1
Katha	1
zaragoza	1
MAMBRU	1
MDP	1
Bautzen	1
Taupo	1
La Sucia	1
Oba	1
Qala-e-Kah	1
Fará	1
Pusht-e-Koh	1
Shirin	1
Lavado	1
Salta 2290	1
Bambeto	1
Galmudug	1
Kahandhaale	1
Kozani	1
Singhu	1
Tikri	1
Ghazipur	1
Lamu Oriental	1
La Mina	1
Myeik	1
En Belgrano	1
General Sarmiento	1
Harleem	1
Cumilla	1
Asadabad	1
Ajó	1
del Carmen	1
Kakuku	1
Fizi	1
Pance	1
Pailitas	1
Felixstowe	1
Anarkali	1
El Retorno	1
ADÍS	1
ABEBA	1
Insfrán	1
Turi	1
Lajimpur Jeri	1
Joaquín	1
Santa Ponsa	1
La Arenera	1
Tejerias	1
Cota	1
Tayikistán	1
Chyr-Dobro	1
Dobo	1
Richland	1
Tigray-	1
Mumu-Kokonyagi	1
Solenimana	1
Kipira	1
Majhipara	1
Bottola	1
Hatibandha	1
Rangpur	1
mekelle	1
Comilla	1
Chinagoder	1
Lejano	1
Tongo Tongo	1
Salina Cruz	1
Malele	1
Munawa	1
Randa	1
Ourense	1
El Espinal	1
Grangemouth	1
Mapiripán	1
Tutunendo	1
Kabrique	1
Trinamul	1
Calí	1
Munduruku	1
Yanomami	1
Kagoma	1
Martín Encalada	1
Nakudna	1
Wurukuchi	1
Sheij Jarrah	1
Daquq	1
Nessa	1
Eviatar	1
Kafr Qaddoum	1
Birin	1
Susiya	1
Hatb	1
Chapelle-sur-Erdre	1
Hitté	1
Kibuye	1
Álvaro Obregón	1
Castilla-León	1
Agatu	1
Odugbeho	1
Sai Wan Ho	1
Bammesing	1
Grenfell	1
Las Matas	1
Tomás Jofré	1
Kafer	1
Yatma	1
Qabalan	1
Akko	1
Lafken Winkul Mapu	1
Ventanilla	1
Wad Madani	1
Patrocinio	1
Agadir	1
Harnai	1
Awaran	1
Umbrales de la Merced	1
Umbrales	1
Mala	1
San Luis Calango	1
Cuautepec Barrio Alto	1
Shreveport	1
Barbes	1
Ouro Verde	1
Nilin	1
Cacharí	1
Vaughan	1
Bon Repos	1
Loteo Belén	1
Tougbo	1
Kafolo	1
Kolobougou	1
Benue	1
Meiktila	1
Furn	1
Chebbak	1
Furn el Chebbak	1
Ippy	1
Tillabery	1
Gadchiroli	1
Kotgul-Gyarapatti	1
Amravati	1
DON TORCUATO	1
Hoyo	1
Koumpentoum	1
Panamaricana	1
Balaguer	1
Kyzylorda	1
Puerto Unzué	1
Gllogjan	1
Deçan	1
Los Silos	1
Agra	1
Magsaysay	1
Toussiana	1
Orodara	1
Kénédougou	1
Hauts-Bassins	1
Estor	1
Dasht-e Barchi	1
RAMOS	1
Kuznika	1
Lajas Blancas	1
Ranas	1
Ombusal	1
La Cortada	1
Koiray Bangou	1
Balleyara	1
burkinesa	1
Tofahiya	1
Covid	1
Badia	1
Schönbrunn	1
Inlaglaou	1
Príncipe Pío	1
Yauzyán	1
Tweed Heads	1
Wollongong	1
Alibori	1
Porga	1
Kepenjdal	1
nagorno	1
En Avellaneda	1
Bandeburgo	1
Baden-Wurtemberg	1
Knokke-Heist	1
Brujas	1
Quemquemtreu	1
Adabda	1
Metula	1
San José de	1
La Chapelle-sur-Erdre	1
Petras	1
Te'egbe	1
Goteburgo	1
Colonial Heights	1
Karak	1
Barrancas del Orinoco	1
Sotillo	1
Mansfield	1
San Miguel Pettapa	1
Boca del Monte	1
Rumonge	1
Mocha	1
Rumanía	1
Al Amud	1
Hagen	1
Kun Taung	1
Krasnoyark	1
Quintela	1
Gidami	1
casanare	1
Lozovoe	1
Nevelske	1
Rosario..	1
Canagua	1
San Juan de los Morros	1
Komamboga	1
Tigrai	1
Haight-Ashbury-	1
Hayes Valley	1
Itombwe	1
Mwenga	1
Tchabusiku	1
Dhusamareb	1
Entre Ríos Juan Baialardo	1
Sulaymaniya	1
Ecuatoria Central	1
Región Noroeste	1
Bamessing	1
Sabga	1
Ngoketundjia	1
río	1
Muthendero	1
Mehtarlam	1
Alingar	1
Alishang	1
Alatona	1
Muramvya	1
del Río	1
Tungar Ruwa	1
Rijiya	1
Dubicze Cerkiewne	1
Kolonia Klukowicze	1
Mapina	1
Split	1
Cardón	1
Daynile	1
Plaine	1
Plaine Savo	1
Churachandpur	1
Sehken	1
Turbat	1
Margat	1
Dumlupinar	1
Yacanto	1
Molinari	1
la Franja	1
Kabylie	1
Río Limay	1
Adeba	1
Lof Quemquemtreu	1
Sefton	1
Bay	1
Deynunay	1
Jizan	1
Al Mabani	1
Gergaresh	1
BISKEK	1
Isfana	1
Mermoz Sacre-Coeur	1
Al Sur	1
Tahat	1
Safiya	1
Saad	1
Maizila	1
Makayanga	1
Teyouneh	1
Paikoro	1
Tigra	1
Fontevecchia	1
Bakorat	1
Cofico	1
San Francisco del Zulia	1
Getafe	1
Arganda del Rey	1
Valdemoro	1
Ciempozuelos	1
salomonense	1
Arrodha	1
La Chinita	1
Churidó	1
Facatativá	1
Zubin Potok	1
Zvecan	1
Dashti Barchi	1
Hart	1
Estévez	1
Mupoi	1
Yubu	1
Nobeoka	1
Kani	1
Sagain	1
Yin	1
Sanaré	1
Darfur del Sur	1
Makhmur	1
El Gran Sábalo	1
La Tirana	1
Bardstown	1
Four	1
Abkamari	1
Tachileik	1
Tase	1
Naypyitaw	1
Safia	1
Mangina	1
Masiriko	1
Nizi	1
Berutti y Donado	1
Bibi Fatima	1
Frigorífico Soychú	1
EntreRios	1
Mwe Tone	1
Pan	1
Sololá	1
Pyi Thar	1
cap-haitien	1
Xi ’	1
Pigwa	1
Shewa Robit	1
Jacareacanga	1
Palimiu	1
Terre	1
Liberty City	1
Overtown	1
Cayo Hueso	1
Dubicze	1
Burhan	1
Loi Sam	1
Baise	1
Ejin	1
Heihe	1
Greensboro—	1
Tula de Allende	1
Las Moras	1
Jabarovsk	1
Elorza	1
Oberpfalz	1
Livadia	1
Ayacucho-	1
Barrio Belgrano	1
Uajadir	1
Giessen	1
Al Kasara	1
New South Wales	1
Kasara	1
Villa El	1
Surj Rod	1
Kartan	1
Panzaleo	1
Uribelarrea	1
Téhini	1
Bouna	1
Moskota	1
Sandawadjiri	1
Ganthier	1
Daulat Sah	1
Ghanzi	1
Tapoko	1
Kompienga	1
Redon	1
Ille-et-Vilaine	1
Ccapacmarca	1
Samarkanda	1
Guadalmar	1
Benalmádena	1
Tiznit	1
Andónegui	1
Southwark	1
Nigelec	1
Issers	1
Cabilia	1
Trelew-	1
Shan	1
Pekon	1
Shwebo	1
Eidgá	1
Arles	1
Matreros	1
Kuvu Norte	1
Kisunga	1
Numea	1
Manseriche	1
Cidra	1
Flores Hernán	1
Greiz	1
Cabaña Los	1
El Mallín	1
Uagadugú​	1
Gapanli	1
Janaozen	1
Mangystau	1
Bangole	1
Makumo	1
Mobala	1
Almaly	1
almaty	1
Lagbo	1
Villa Ocampo Videla	1
Kundiz	1
Gozar-e-Sayed	1
Bushrán	1
Misnk	1
Salvador Escalante	1
Tarétan	1
Little River	1
Karangasso	1
Saramuro	1
Bosco	1
Chitima	1
Ezza	1
sudanesas	1
Arbara	1
Bula Fulay	1
Birminghan	1
Islas Feroe	1
Debebit	1
CAMPAÑA	1
San Ruperto	1
Villaverde	1
Parla	1
Koi Ngan	1
Ricciardelli	1
Yardymli	1
Greifswald	1
Nuevo Brandenburgo	1
Doman	1
Times Square	1
Río San Pedro	1
Tsim Sha	1
Khoyani	1
Chinlandia	1
Khualhring	1
Haja	1
Shewa Oriental	1
Las Gradas de la Plazoleta	1
NY	1
Itakuatía	1
Acacoyagua	1
Cantarranas	1
Scranton	1
Crater	1
Tongatapu	1
bambu	1
Bambu	1
Tayouneh	1
Danko-Wasagu	1
Comalcalco	1
del Ternero	1
Halba	1
Markazi	1
Nahrin	1
Imam	1
Mambasa	1
Nova Zambezia	1
Huamanga Ayacucho	1
Oakbrook	1
Lafòsèt	1
Pont Grand	1
Samarie	1
Kachin	1
Mutatá	1
Darién	1
Balboa	1
Myawaddy	1
Lay Kay Kaw	1
Loikaw	1
Loilin Lay	1
Pekhon	1
Al Nahdin	1
keniano	1
Jamjang	1
Ruweng	1
Criciúma	1
Araçatuba	1
Uberaba	1
Oz Zion	1
Fataki	1
Tapebicúa	1
Indio Rico	1
PASO	1
Woreilu	1
Kilokwa	1
Mayangose	1
Sorj Rod	1
Zhuzhou	1
Buloburde	1
Gabaciwa	1
Abdoi	1
Moshav Netiv HaAsara	1
Roquetas del	1
Kumi	1
Mashegu	1
Katsina	1
Extremo Norte	1
Logone Birni	1
Rosario La Capital	1
Jämsänkoski	1
Kouvola	1
Lappeenranta	1
Pietarsaari	1
Rauma	1
Tampere	1
Valkeakoski	1
Abjasia	1
Isa	1
Brizuela	1
Doria	1
Ca	1
Paulina	1
Alto Nilo	1
Kizilorda	1
Taldikorgan	1
Taraz	1
Puerta	1
Nippes	1
Miranda de Ebro	1
Paoua	1
Nzmari	1
Winkul	1
Luna-Samboko	1
Bruzgi	1
Kulgam	1
Manucho	1
Alma	1
Manas Chowck	1
Johari	1
Ajmer	1
Egleridge	1
Kogolbarao	1
Puente Viejo	1
Sahel	1
AMHARA	1
Gondar	1
Gulina	1
Oceanía	1
Polonio	1
Cabo Polonio	1
Golweyn	1
La Osa	1
BAHIA	1
Dessie	1
Vesubio	1
Gambella	1
Adama	1
Dire Daua	1
Dukem	1
Gamella	1
Jimma	1
Legetafo	1
Nekemte	1
Sebeta	1
Shashemene	1
Kiskivi	1
Miliota	1
Loselose	1
Alkoma	1
Saifi	1
Qubayat	1
Akar	1
Téra	1
La Corriente	1
Songho	1
Venancio	1
Bourem	1
SOACHA	1
AP	1
SanJuan	1
Zuk Mosbé	1
Minié	1
Deniyé	1
piquete	1
BHP	1
Sudbury	1
Ala	1
Belagavi	1
Campo Dos	1
Catatumbo	1
Oak Brook	1
Hayward	1
Bay Area	1
Midlands	1
Papúa Occidental	1
CARAPACHAY	1
NOGUES	1
Assighassia	1
Mozogo	1
Pirovano	1
New Kru	1
Ayol	1
Tonj	1
Río Villegas	1
pamplona	1
bilbao	1
Boyo	1
Ouaka	1
Biarritz	1
Villa Pineral…	1
Núñez Anibal Greco	1
Salta Marcha	1
El Rosario	1
Samarco	1
Usilan	1
TikTok	1
El Escorial	1
Thunder	1
LÓPEZ	1
Zwoenitz	1
Cuxhaven	1
Boni	1
Huntington	1
Bahir	1
Ramle	1
Letele	1
Inspector Fernández	1
Selva Oscura	1
Treichville	1
Vega del Cobán	1
Teculután	1
Lucanas	1
Tolosi	1
Yirol Occidental	1
Kutupalong	1
Noumoukièdougou	1
Comoé	1
Polledo	1
Meléndez	1
Ciudad Santa	1
Ravna	1
República Democrática del	1
’ i Cofán	1
Waorani	1
Sinangoe	1
Atama	1
Nasarawa	1
Awe	1
Lafia	1
Obi	1
Giwa	1
Chikun	1
Zaria	1
Zangon Kataf	1
Galolhu	1
Malé	1
El Gurí	1
Gilda	1
Bonao	1
Chifra	1
El Zócalo	1
Futaleufú	1
Bandipora	1
Argüelles	1
Mungwalu	1
Cotabambas	1
Monte Flores	1
Francetti	1
Laki Maruat	1
Rumbek	1
Alaw	1
Zaruma	1
Liptako-Gourma	1
Ambo	1
Jima	1
Borena	1
Arbinda	1
Dankade	1
Maarab	1
Gailan	1
Tarin	1
Parwán	1
Loni	1
Kiboga	1
Soto	1
Dharkenly	1
Vuhesi	1
Tchisanga	1
Bialowieza	1
Szudzialow	1
Cochambamba	1
Yacacaní	1
Daikundi	1
Buen	1
Río de Janeiro Bruna	1
Nuevo Quilmes	1
Escazú	1
Gheriyan	1
Santa Cruz de Tenerife	1
Iapakani	1
Kolajo	1
Yemel Mun	1
Kabkabiya	1
Sáhara	1
La Herradura	1
Kobi	1
Puerto Resistencia	1
Abi Adi	1
Vraem	1
VRAEM	1
Mugica Silvana Colombo	1
Metropolitano	1
Marana	1
Las Arenas	1
Banisa	1
Kamu	1
Badajsán	1
Talugan	1
Al Maghazi	1
Rishon Lezion	1
Mahara	1
poblaciones	1
Kadawa	1
Kwata	1
Maduba	1
Ganda Samu	1
Saulawa	1
Askawa	1
Samboko Chani-Chani	1
Maimoya	1
Mann	1
Kaita	1
Chabusiki	1
Santa Fe En Pérez	1
L Amali	1
Barker	1
Ashanti	1
Ejura	1
Sierra Bermeja	1
MARTELLI	1
Llambi	1
Santa Fe En Santa Fe	1
Sur-	1
Tembisa	1
Belizán	1
Gualeguatchú.	1
Misión La Paz	1
Free State	1
Minerton	1
Dunoon	1
North West	1
El Cabo	1
Pigneto	1
Taourirt Moussa	1
Chimen	1
Pandu	1
Chakoti	1
Espartillar	1
Avia	1
Caudillos Riojanos	1
Margarita Belén	1
Ingersoll	1
La Jolla	1
La Pampa En La Pampa	1
Santa Rosa-	1
Eduardo	1
Wajihiyah	1
Pampa Sur	1
Pampa Húmeda	1
Tsuchiura	1
La Rivera	1
Jonquera	1
Alcanena	1
Llambí Campbell	1
Kémerovo	1
Primorie	1
Serranías	1
Mohmad	1
9 de Julio	1
Vaile	1
Alcira Gigena	1
Región Autónoma	1
La Mora	1
de Olivos	1
Gigena	1
Fierro	1
Arazá	1
Carlota	1
Cabossi	1
En Recife	1
Villa Guay	1
Morro	1
López Camelo	1
Arghandab	1
Realilcó	1
Beichuan	1
Machalí	1
Loncoche	1
Berabebú	1
Tomatitas	1
Verdier	1
Unity	1
Barberá del Vallés	1
Parada Robles	1
Chipinge	1
Copiapo	1
Bab Tibbaneh	1
Bonny Island	1
Ballynafeigh	1
Shaar	1
Anzhero-Sudzhensk	1
Hokkaido	1
Sinsacate-Jesús	1
Tulúm	1
Solidaridad	1
Beravebú	1
Panyijiar	1
Ganyliel Payam	1
Guol	1
Budi	1
Putao	1
Taze	1
Sistán	1
Kurin	1
Deh Rawood	1
Sudán del	1
Kuner	1
Bibi	1
Kotahena	1
Ibadan	1
Molete	1
Oke Ado	1
Reconquista y	1
Beníto Juárez	1
Urif	1
Bada	1
Bergadid	1
Leiva	1
Nilín	1
Colomi	1
Yamin Moshé	1
C. Paz	1
Rajasthan	1
Knoxville	1
Güngoren	1
Pomeroy	1
Resistiré	1
São Cristobal	1
Deheishe	1
Salas	1
Veliko Tarnovo	1
Daule	1
Down	1
Glengormley	1
Moe Bye	1
Jubalandia	1
Bajo Yuba	1
Schiaretti	1
Pingüinia	1
Palermo SoHa	1
Tarija ( Sur	1
Herne	1
Mauritania.-	1
Ungwan Lalle	1
Brazo Largo	1
Shunyi	1
Coeur d´Alene	1
Ezincan	1
Corveta	1
San Juan Capistrano	1
Villa Santa Rosa	1
Skikda	1
Guanta	1
Baranda	1
Larrabure	1
Kabal	1
Osinniki	1
Arzmas	1
Reconquista-Avellaneda	1
Korazim	1
Poti	1
Guayaramerín	1
Envigado	1
Pajón	1
Antioquia-	1
Kitzbühel	1
San Peregrino	1
Tarascon	1
Ariege	1
Manus	1
Castelar y Merlo	1
Cromagnón	1
Austral	1
Zangi	1
Valle de Swat	1
Hrazdan	1
Komoran	1
Tordó	1
Cuatro Cañadas	1
El Torno	1
PIE	1
El Porvenir	1
Plan	1
Ramada	1
Portachuelo	1
Tiquipayo	1
Kronstadt	1
La Salle	1
Los Robles	1
Salburua	1
Las Pirquitas	1
Luyang	1
Kharia	1
Kikar Tzahal	1
Castelvolturno	1
Lomas Zamora	1
Pachorriento	1
Nerja	1
Estado de Cachemira	1
Trenque Launquen	1
Jokela	1
Finlandia.Los	1
Los Molinos	1
coronel Pringues	1
Rushashi	1
Milagros	1
Gran Buenos aires	1
Edita	1
Alto Fierro-	1
Ixtapan de la Sal	1
Himachal Pradesh	1
Tisa	1
Tintaypunco	1
Humaitá	1
Bota Caucana	1
Norte y	1
Sur de Santander	1
Kitona	1
Val di Susa	1
Partisansk	1
Larranguren	1
Las Lomas	1
Pluna	1
Volterra	1
Coloso del Parque	1
Conway	1
Ivrea	1
Ciudad Autónoma de	1
Somalilandia	1
Uvira	1
Barpeta	1
Bongaigaon	1
Trastevere	1
Francisco de Oliveira	1
Donaueschingen	1
Selva Negra	1
Serraino Vulpitta	1
Sillicon	1
Sao Antonio	1
Mahackala	1
Al Qahira	1
Cochabamba Grande	1
Woltobre	1
Sao Luiz	1
Santo Antonio das Missoes	1
Bamyan	1
Bati Kot	1
Buesaco	1
Ejército	1
Cap	1
Montarcé	1
Sourigues	1
Oruídes	1
Junik	1
Hattiesburg	1
25 de	1
Stephenson	1
En Acassuso	1
Chhatrapati Shivaji	1
Guawahati	1
Augher	1
Rechnitz	1
Nariman	1
Luisa Valenzuela	1
Manuel Belgrano	1
Orakzai	1
Boero	1
Azpeitía	1
Muzaffabarad	1
Peña 2791	1
Del Piero	1
Kavala	1
Kirkuk (	1
Pequeña	1
Vigía	1
Leyva	1
Exarchia	1
Santa Rosa del Aguaray	1
Dashanbé	1
Printemps	1
Ruca	1
San Pedro de	1
Gudi	1
Galatsi	1
Atenas-	1
Rendi	1
Kiato	1
Drama	1
Shufat	1
Sahnin	1
Tamra	1
Ein el-Hilweh	1
Colo	1
Buner	1
Ashquelon	1
Unicenter	1
Haiphong	1
Da	1
Ho Chi Minh	1
Bien	1
Libertador San Martín	1
Perpignán	1
Malmöe	1
Zaitun	1
Dahaniya	1
Colonia Barraquero	1
Klecke	1
Dulje	1
Chujaiya	1
Etchevarren	1
Karikot	1
Waziristan del Sur	1
Playa Verde	1
Playa Hermosa	1
Pirlápolis	1
Neptunia	1
del Toro	1
del Burro	1
Cerro del Burro	1
Fuente de la Alegría	1
Colón y Concordia	1
Bab-el-Oued	1
Chaparhar	1
Plaquemina	1
San Antonio Este	1
Lorente	1
La Cabrera	1
Janaqine	1
San Bosco	1
Wilton	1
Aberthaw	1
Nottinghamshire	1
Kilroot	1
Sellafield	1
Eluana	1
Paraná-	1
Moré	1
Baterías	1
Novoduguinsk	1
Tona	1
Chitagá	1
Silos	1
Cácota	1
Veszprem	1
Mazagaon	1
Vile Parle	1
Villa Ahumada	1
Marsellesa	1
Khairkhana	1
Cajón del Maipo	1
do Norte	1
Mussayab	1
Jaifa	1
Ber	1
Cabrera 3314	1
El Corte	1
Leones-	1
Bolívar Roque Pérez	1
Saladillos	1
Arisco	1
Rüsselsheim	1
Eisenach	1
Kaiserlautern	1
Chaval	1
Gervasio Pavón	1
Federico	1
Belén-	1
Stolac	1
Spinazzola	1
Tenochtitlán	1
la Nueva Orán	1
Al Hashemiya	1
Landolina	1
Hernán Landolina	1
Golog	1
Craigavon	1
Massereene	1
Piñeyro	1
Chinchinales	1
Pontonx-sur-l´Adour	1
Fontainebleau	1
Epizana	1
Padre Bruno	1
Delaram	1
Recoquista	1
Regimiento	1
Compiègne	1
Lezha	1
Pucallpa	1
Chaves	1
Sao José dos Campos	1
Loiret	1
Las Cinco Esquinas	1
Jandola	1
Shahab	1
Atenco	1
Malmoe	1
José María	1
Landi Kotal	1
Santiago del Estero–	1
de Marfil	1
Sánchez Loria	1
Harbat	1
Binghampton	1
Carthage	1
Chakwal	1
Santo Stefano di Sessanio	1
Castelvecchio Calvisio	1
San Pio	1
Villa Sant ’	1
Fossa	1
Ocre	1
San Demetrio	1
Melipal	1
Ushant	1
Dearborn	1
Buenos Aries	1
Rudangia	1
Din	1
Khosh Rud	1
Rekalde	1
Charsada	1
Girardot	1
Leguitino	1
Gregorio Pomar	1
Raulet	1
Río Negro.-	1
Kwazulu Natal	1
Puerto Pibes	1
Jharkand	1
Kademiya	1
Ulrico Schmidl	1
Riestra y Laguna	1
Savona	1
General Martín	1
Cotar	1
Ulm	1
Köpenick	1
Manshiet	1
Saidu Sharif	1
Bidare	1
Mallavi	1
Kilinochchi	1
Aracruz	1
Zanola	1
Giribone	1
La Blanquita	1
Villa San Carlos	1
Ríos De Neuquén	1
Santa Angela	1
Newburgh	1
Villat	1
Los Corrales	1
San José de Flores	1
Buenas Aires	1
Blancuntre	1
Yala Laubat	1
Shelbyville	1
Mandelema	1
Capandegui	1
Ospina	1
Qalqiliya	1
Jorasan	1
Utcubamba	1
Brasília	1
Tucumán-	1
Kindú	1
Condarco y Heredia	1
Paso de las Cabra	1
Mogote	1
Sancti Spiriti	1
Sarmiento y Esmeralda	1
Tazet	1
Leonberg	1
Lloco	1
Tersuave	1
La Zavaleta	1
Ladha	1
Givon	1
Buenos Aires-La Plata	1
San Juan Pueblo	1
Atlántida	1
Toncontín	1
Lysistrata	1
Döng Körkük	1
Wye	1
Stoke City	1
La Tumba	1
Zanjón	1
Xingiang	1
Kutchi	1
Copán	1
Lempira	1
Ghoba	1
Santa Rosa de Copán	1
Malecón	1
Suoem	1
Thokoza	1
Horta de Sant Joan	1
San Pedro de Sula	1
Alauca	1
Búfalo	1
Ocotal	1
Corferias	1
Virrey Loreto	1
Behesht Zahra	1
Tonghua	1
Arrigoriaga	1
Burgo	1
hondureña	1
Pensilvania.-	1
L.A	1
Mehsud	1
Puerto Madero-	1
Sáenz Peña y Pavón	1
Alcatraz	1
Portixtol	1
La Rigoletta	1
Enco	1
Jazna	1
Slijan	1
Emerainville	1
El Progreso	1
Agua Amarga	1
Llambías	1
Cáucaso Norte	1
Salihiya	1
Yabaraté	1
TRP	1
Andrés	1
Los Libertadores	1
Piedritas	1
Alarcón	1
Hyannisport	1
CapitalFederal	1
azteca	1
Falda	1
Roxbury	1
Las Vertientes	1
El Arco	1
Mihtarla	1
Puerto Saldaño	1
Guajira	1
Carpa Verde	1
Mil	1
Quinta Normal	1
Panamericano	1
Cristianshavn	1
El Gallinato	1
El Mosco	1
Paquiistán	1
Aguarai	1
Sur En Quilmes	1
Senen	1
Coronel Du	1
Kamdesh	1
Sarobi	1
Gaicán	1
Punta Vacas	1
Palazzo Chigi	1
Siroki Brijeg	1
Troy	1
Alpuri	1
Shangla	1
Bedian	1
Manawan	1
Kahot	1
Fernández de Enciso	1
Mahle	1
Pehuenia	1
Morro São Joao	1
Pishin	1
Juan de Vera	1
RamosMejía	1
Yizhar	1
Quillén	1
Rio de	1
Qahataniya	1
Laplacet	1
Ribera Sur	1
Mayab	1
Peepal Mandi	1
Pisagua	1
Palotal	1
Nueva México	1
RDA	1
Adezai	1
Jyber	1
Conurbano Bonaerense	1
Tualatin	1
Uliánovsk	1
Kupang	1
Nusatengara	1
Cuartoelemento	1
Foz de Iguaçú	1
Cristo Obrero	1
Warren	1
Campo de	1
Azay-Le-Rideau	1
Loira	1
Rodeo del Medio	1
PLATA-	1
Frisón	1
Paichil Antriao	1
Al Musayeb	1
Janakin	1
Amarli	1
D ’ Elía	1
Sala y Esteche	1
Villers-Bocage	1
Ued Buaicha	1
Avenia de Mayo	1
Seineldín	1
Quintana y Tapalqué	1
Lanzarote	1
Montazeri	1
Catalinas Sur	1
Caleta Punta	1
Tucapel	1
Takuapah	1
Phang-Nga	1
Mutara	1
Nelly	1
RC-East	1
Puerto Cabezas	1
Chapman	1
Lakki Marwat	1
Shah Hassan	1
General Cerri	1
angoleño	1
Quelín	1
La Mède—	1
Cachi Adentro	1
Al-Mahafad	1
Iporá	1
Selarrayán	1
Ischilín	1
Río Seco	1
Don Emilio	1
Obraca	1
Shati	1
Salvarcar	1
Gorostiza	1
Jeremie	1
Stoke	1
Hurlingam	1
Abruzzos	1
Shrarak-e Gharb	1
Pilar 1	1
Dar el	1
Yenegoa	1
Estaban Echeverría	1
Atentas	1
Gauleguaychú	1
Nueva Jersey-	1
Mons	1
Julián Alvarez	1
Vittoria	1
Gela	1
Karam	1
Quereshi More	1
Naicó	1
Cerro Norte	1
La Carolina	1
El Parque	1
La Rotonda	1
Curicó	1
Lo Prado	1
Hualpén	1
San Pedro de la Paz	1
Tomé	1
municipio	1
Túpac	1
Ayohúma	1
César ( Norte	1
Karawang	1
Ranchería	1
Al Salij	1
Yabara	1
Pampuro	1
JOS	1
Dogo	1
Ratsat	1
Dogo Nahawa	1
Amsafé	1
Playón de Orozco	1
Maipú 1252	1
Paso de	1
Ajuchitlán del Progreso	1
Mirasoles	1
La Pradera	1
Jerusalén Oriental	1
Santa Brígida	1
Chufat	1
Baredero	1
El Yobeir	1
9	1
Angil	1
Lubyanka	1
Yessentuki	1
Leibei	1
Berlusconi	1
Kotliakoskoye	1
Kisliar	1
Jasavirt	1
Arshty	1
Ventersdorp	1
Biskhek	1
Marañón	1
Danzica	1
Argentino	1
Riquelme	1
Ráquira	1
Bogado	1
Querini	1
La Bombonerita	1
Yokohama	1
Figueras	1
polaca	1
Villa Borges	1
Thar-Thar	1
Salheddin	1
Quemes	1
bosnia	1
Kosevo	1
Puerto de Rosario	1
Kwa Zulu-Natal	1
Yomitan	1
25 de Mayo	1
Alto Paraguay	1
Presidente Hayes	1
Hato Rey	1
Crocce	1
Dinahuapi	1
Paloma	1
Centinela	1
Rochdale	1
Rochdale-	1
Leizhou	1
Kabukiza	1
Arizona-	1
Subte	1
Guanabo	1
Pichi	1
Villa Aspasia	1
Oxfordshire	1
Calarcá	1
San Francisco Tlalnepantla	1
Capital.Esa	1
Dinosaurio	1
Forja	1
Río Negro.Ayer	1
Lerma (	1
San José de Potocitos	1
Montecitorio	1
Cordiviola	1
Islington North	1
Free	1
Bargi Matal	1
Hon Hai	1
Ormagh	1
Seascale	1
Egremont	1
Cumbria	1
Iskendurun	1
Missisippi	1
Guoyan	1
Daolin	1
Senzhen	1
Censen	1
Chacarita-Morón	1
Llamas	1
Zepa	1
Palazzo	1
Djalal-Abad	1
correntinas	1
Ezbt Abed Rabbo	1
Río Bravo	1
Nuestra Señora del	1
Zhongshan	1
Pacífico	1
Galán	1
Pozo Verde	1
Pomigliano d´Arco	1
Feghra	1
Naharía	1
Bonefoi	1
Torre Cantú	1
Enarsa	1
Kimberley	1
Mayale	1
Haruky	1
Actopan	1
Tenejapa	1
Lerdo	1
Oses	1
Yakka Ghand	1
La Calle	1
Manthra	1
Florencia Corbani	1
Daxing	1
Xingjiang	1
Sulaimaniya	1
Neyra	1
Rambouillet	1
Cadereyta	1
Valle de Juárez	1
Saint-Aignan	1
Moreno y Maza	1
Ann	1
Lapashtica	1
Studencane	1
Rincón y Rivadavia	1
Movljane	1
Kacanik	1
Saint-Aybert	1
Pantina	1
Okrastica	1
Anteanoche	1
Peñacabarga	1
Coquelén	1
Nahuel	1
1800	1
Carolina Piparo	1
Piparo	1
Escobar Anteanoche	1
Tacotalpa	1
Agua Escondida	1
Nogales	1
Al Balesem	1
Fray Justo	1
Pintos	1
C	1
D	1
Galápagos	1
Barreira	1
Redención	1
Chihin	1
Domiz	1
Bahraz	1
Agremiados	1
Duisburg	1
Ntkovo	1
Viso	1
Kyriat	1
Clairefontaine	1
Fargosi	1
General Terviño	1
Mardán	1
Chaco Impenetrable	1
José Martí	1
Aconcagua	1
Mujica	1
Rodríguez Peña y	1
Hon	1
Cankiri	1
Mendoza 5030	1
Feizabad	1
Badakhshan	1
Bruno	1
Kaxda	1
Campbell	1
Masai	1
Mendhar	1
Ermúa	1
Clap	1
Francisco Solano	1
Revava	1
Ezeiza-Esteban	1
Ciudad Madero	1
Santa Amelia	1
Villa Scasso	1
Goztepoe	1
Pudojevo	1
Dus	1
Surhe	1
Ingeniero Pereyra	1
Caparrapí	1
Manta Ibarra	1
San Antonio de	1
Cobres	1
La Paya	1
Montparnasse	1
Val-de-Marne	1
Fos-Levera	1
Reichstett	1
Renatino	1
Bastia Marsella	1
Feyzin	1
Kabas	1
Prizen	1
Newman	1
Barracas Biolcati	1
Saltillo	1
Fos sur Mer	1
Castellammare di Stabia	1
Horizontes del	1
Villas de Salvárcar	1
Codazzi	1
Horizontes	1
Caseta	1
Ochoa	1
Santa María de Oro	1
Espronceda	1
Olimpo	1
Zivals	1
Berns	1
Raiatea	1
Mururoa	1
Akhurwal	1
Badaber	1
Sívori	1
Pulmarí	1
Dannenberg	1
Gorleben	1
Comedores	1
Yrurtia	1
Alfonsina Storni	1
Alto Valle de Itajaí	1
San Vicente de Caguán	1
San Franciso	1
Labardén-	1
Pedro de Luján	1
Lota	1
Goden	1
Zylfaj	1
Kosovska	1
Colonia La Primavera	1
Lozano	1
Dar Es Saalam	1
Yebra	1
Sharm el-Sheij	1
Ghraib	1
Yeonpyeong	1
Itabuna	1
Príncipe	1
Garfagnoli	1
Bastia Umbra	1
El Porteño	1
Juan XXIII	1
Lugano-	1
Chu¬but	1
Camilo Torres	1
Alta Verapaz	1
La Bandera	1
La Legua	1
Mimbreras	1
El Ventorro	1
Narváez	1
Trimble	1
Penta	1
Rousselot	1
Rosario-Victoria	1
Ortiz Fernández	1
Parioli	1
Gradisca	1
San Jerónimo Sur–	1
Liberatori	1
Llanos-	1
Gemonio	1
Jamovniki	1
Meoqui	1
Petrobras	1
Pórtico	1
King Mariut	1
Bil'in	1
Banjica	1
Krajevo	1
Smederevo	1
Solier	1
Montehermoso	1
Machurucuto	1
Ferrosur	1
Al Nawahid	1
Kena	1
Sadaic	1
Bogojevo	1
Loznica	1
Estrecho	1
Punta Delgada	1
el Noroeste	1
Puerto Márquez	1
Pontal de Paranapanema	1
Nuevo Capra	1
Al Garbiya	1
Jassaviurt	1
Wikalat	1
Sheij Zuwayed	1
Cheij	1
Noble	1
Buyatti	1
Molinos Río de La Plata	1
La Plata Cereal	1
Kamenice	1
Tropoje	1
rosarino	1
Zastava	1
Cuprija	1
Berango	1
Ismaeliya	1
Irbid	1
Ajlun	1
Mafrak	1
Alejandria	1
Spitall	1
Mirovac	1
Sheick Zayerd	1
Echagüe	1
José L. Suárez	1
Esteban Echevarría	1
Baja	1
Villa La Cárcova	1
Sidi Thabet	1
Los Abruzos	1
Punta Carretas	1
El Jargo	1
El-Kharfa	1
Ouargla	1
El Bayadh	1
Yemen.-	1
Alto Valle Verani	1
Ilubaires	1
Manamá	1
Mahala	1
Madanaj	1
Pirot	1
Bistrica	1
Yibuti	1
Beroiz	1
Harbin	1
Musratha	1
Zouia	1
Villa del Lago	1
Jocolí	1
Sirta	1
Darras	1
Iztacalco	1
Imzuren	1
marroquí	1
Departamento Iglesia	1
Tudcum	1
Al Zawiya	1
Sabratah	1
Sanná	1
GERLI	1
Fashlum	1
Zauia	1
Dohmani	1
Bin al Shur	1
Al Siahia	1
Yumhuría	1
Subotica	1
Rakovica	1
Taez	1
BUZIOS	1
Buzios	1
Wangfujing	1
Enseñada	1
Sohar	1
Baida	1
El Torero	1
Gharyan	1
Lahech	1
Sabar	1
CARABOBO	1
CASTAÑARES	1
Harf	1
Zawiyah	1
Briga	1
Abobo	1
Xidan	1
Ben Yauad	1
Bagua Grande	1
Brahmaputra	1
Riffa	1
Zarka	1
Iwate	1
Quafe	1
Quafe E Prushit	1
Ibaraki	1
Alzaga 2271	1
Balcarce 50	1
Azziziya	1
Enjel	1
Jasem	1
RIO	1
Safajlija	1
Dobrune	1
Berezovski	1
Maale	1
Al Sanamien	1
Daael	1
Embankment	1
Foyel	1
Nofilia	1
Estivao	1
Beccar Pedro Miño	1
Wimberly	1
Hays	1
MARFIL	1
Mizda	1
Avala	1
Punta de los Llanos	1
Deir al Sor	1
Qashmili	1
Hasake	1
PRUSH	1
Maja	1
Alphen	1
den Rijn	1
Koenji	1
Ajvalija	1
Srbrenica	1
Vlore	1
Wichita	1
Ghnaimiya	1
Talbiseh	1
ALBERDI	1
Golubovci	1
Sipcanik	1
Batusa	1
Tornjk	1
Barza	1
Jable	1
Petrovac	1
Salonika	1
Angasyacu	1
Izra'a	1
Maadamía	1
Hauran	1
Fna	1
Solvay	1
Tall Kalakh	1
Sakhir	1
Solvay Indupa	1
Kurilo	1
Ariljaca	1
Vrelo	1
Downing	1
Jardim Leblon	1
Marina Roshtsha	1
Atocha Poco	1
Bilal	1
Beunos Aires	1
vienés	1
Cove	1
Hampshire	1
Jablah	1
Derbasiye	1
Abadan	1
Sveti	1
Bajina Bacta	1
Bajina Basta	1
Rozaje	1
Luzane	1
Gaucho Rivero	1
Somisa	1
Majdal Shams	1
Pekín-2008	1
Uruguay524	1
Qamichli	1
Nueva Guinea	1
Centroeuropa	1
Deauville	1
MAGELAND	1
Mehran	1
Charata ( Chaco	1
Chorroarin	1
Novi Beograd	1
selvas	1
Placetas	1
Toty	1
Mosaic	1
Sánchez de Loria	1
Crni Vrh	1
Bogutovac	1
Sismo	1
Xian ( Norte	1
Kosmaj	1
Valjevor	1
Lopatnica	1
Altos del Golán	1
Núñez-	1
colombiano	1
Yisr	1
Peoria	1
Jisr	1
Ibled	1
Jisr al-Shogur	1
Las Heras III	1
Elaia	1
Jiber	1
Dallas Los Mavericks	1
Ibanjica	1
Baric	1
Belgrado-	1
Zengcheng	1
Lichuan	1
Tabarís	1
Kasaj	1
Palos	1
Pozarevac	1
Irbin	1
Azra	1
East Village	1
West Village	1
Gangeme	1
Qala-i-Naw	1
Montañeses	1
Kolonaki	1
Heraklion	1
Chania	1
Las Achiras	1
Garraham	1
Orontes	1
Gualich	1
Ballesteros Sur	1
guatemalteca	1
Saltimbanquis	1
Bariñas	1
Las Pampas	1
25	1
Solanas	1
Roque Alonso	1
Gorina	1
Beyroutti	1
Donje Obrinje	1
Obrinje	1
Han	1
Guasave	1
Río Gastona	1
Campo Herrera	1
Aranzazú	1
Ovcara	1
Istok	1
Pek	1
Ciutat Vella	1
Utoya–	1
Sleteloeka	1
Lingfield	1
Bellingham	1
Yacarepaguá	1
Harak	1
Hamidiyah	1
Albu Kamal	1
sirio	1
Al-Sharia	1
Los Lapachos	1
Al-Hader	1
Libertador General San	1
Puesto	1
Al-Joura	1
Wood	1
Wood Green	1
Hackney Central	1
El Mirador	1
Kentish Town	1
Gloucester	1
Clapham Juction	1
East Midlands	1
La Moneda	1
Viña del Mar-	1
Clampham	1
Einfield	1
Piratininga	1
Puerto Manzano	1
Mallín	1
Sremska Mitrovica	1
La Fuente	1
Playón	1
Puerto Pilcomayo	1
Winson Green	1
Khan Beni Saad	1
Espeña	1
Ajaylat	1
Sorman	1
Netafin	1
Puerres	1
Bet Lahiye	1
Soug Jomaa	1
Arada	1
Mitiga	1
Dohanovci	1
Pogaj	1
Vllahan	1
Yafran	1
Janzour	1
Buin	1
Friburguense	1
Virginia Occidental	1
San José de Jáchal	1
Abousalim	1
Ben Jawad	1
La Benquerencia	1
Kula Milicija	1
Livadica	1
Raska	1
La Piconya	1
Dreby	1
Luna	1
Puerto de Mar del Plata	1
Monterrey-adjudicado	1
Kukes	1
Jamundi	1
Vidikovac	1
Varvarin	1
Torre	1
Lemos	1
Valmy	1
Xejuyup	1
Al-Shumali	1
Rodrigazo	1
Qusra	1
Choquehuanca	1
Pastrik	1
Ghadames	1
Heado	1
Mendoza.-	1
Villa Atuel	1
Quiquibey	1
Borja	1
Valle Inferior	1
Este-Foz	1
Gereshk	1
Ouagadugu	1
Maspero	1
Santa Emilia	1
Ceiba	1
Aswan	1
Traslasierras	1
Pathum Thai	1
Ayutthaya	1
de Santander	1
TURDERA	1
chaqueño	1
Upper	1
Lavardén	1
Mitzpe Hila	1
Cianfagna	1
Tajura	1
Cerro Verde	1
Udeso	1
Cork	1
McPherson	1
Puente de Vallecas	1
Vranjevec	1
Vranjevac	1
Stagov	1
Rumjeva	1
Kothinche	1
Drajkovce	1
Gotovusa	1
Tehuacán	1
Al-Karadh	1
Gregoria Matorral	1
Massey	1
Campo Quemado	1
Fopea	1
Giordano Bruno	1
Hulingham	1
Qina	1
Amaiur	1
Lubisht	1
Ongaro	1
Vistalba	1
Utoeya	1
Novo Selo	1
Kosovska Kamenica	1
Lanín	1
Murat Khani	1
Exarjia	1
Bogotá–	1
Guinea Ecuatorial	1
Coconut	1
Algarrobal	1
Cajamarca (	1
Vivorata	1
rionegrina	1
Copérnico	1
Obes	1
Novara	1
Lützen	1
Bab al Muatham	1
Shuala	1
Murguiondo	1
Palihue	1
Parque Bustamante	1
El Higo	1
Alaoui	1
Kfar Sousa	1
Kfar Suseh	1
Nijni-Novgorod	1
Nobossibirsk	1
Gadaka	1
San Pedro Telmo	1
San Pedro de La Boca	1
LIbertador	1
Rif	1
Vitomirica	1
Nahala	1
Harari	1
Quillón	1
Pichiqueime	1
Eltham	1
Pueblo Bello	1
Bellopoje	1
Kiernan	1
Goyita	1
Copabacabana	1
Puerto Patriada	1
Algarrobos	1
Juan F. Aranguren	1
Dras	1
Parque Luro	1
Florida Telam	1
Atica	1
Contramaestre	1
Moenchengladbach	1
Mackeke-Virginia	1
Mvurwi	1
Punta La	1
Belén–	1
Balderas	1
Al Qaboun	1
Barzah Al Balad	1
Rokn Ad Dien	1
Bolton	1
Suráfrica	1
Catemu	1
Dique Luján	1
Valeria del	1
Sahnaya	1
Zeran	1
Almirón	1
Estado de Bahía	1
Wounded Knee	1
Grosso	1
Portsaid	1
Planta Cañadón Seco	1
Catac	1
Dael	1
Estado de Río de Janeiro	1
Agrinio	1
Andana	1
Puerto de Campana	1
Lazarte	1
Casimero	1
Ilobasco	1
Nzérékoré	1
Hair	1
Nueva León	1
Barzé	1
Kafar Sussé	1
Cidade do Samba	1
Mazé	1
TBA	1
Costa Allegra	1
Elba	1
Chaco-	1
Guaicoco	1
Gracanica	1
Potro	1
Soberbio Isósceles	1
Cardenal Cagliero	1
San Luís	1
Rasht	1
Alem 600	1
Sipalan	1
Tierras	1
Mhangura	1
Shamva	1
Deir Zur	1
Amirabad	1
Aysen	1
Ispahan	1
Racht	1
Al-Balad	1
Lleras	1
Hato	1
Corozal	1
Tortuga	1
Dir Zur	1
14	1
Marina	1
Al-Mezzeh	1
Al-Mezeh	1
Toulousse	1
Manchalá	1
Sintagma	1
Azurix	1
Camino	1
Zolá	1
Las Quintas	1
Al-Bashiriya	1
Peten	1
Caballito Norte	1
Southampton	1
Véneto	1
DE MAYO	1
Mistral	1
Darfour	1
Barrera	1
Figue­redo	1
Dniepropetrovsk	1
Marondera	1
La Montañita	1
Falun Gong	1
Aspropyrgos	1
Rieti	1
Emilia-Romagna	1
Kennedy	1
Abasiya	1
Distrito Federal de México	1
Esatdos	1
Bujance	1
Dapsa	1
Qazaz	1
Tadamone	1
Hassaka	1
Provincias Unidas	1
Dehburi	1
uruguayas	1
Al Shaar	1
Al Zahara	1
La Planta	1
Emilia-Romaña	1
Sant'Agostino	1
Ferrara	1
San Carlo	1
Abian	1
Lascano	1
Shubra	1
América del	1
Juncal y Salguero	1
Hyvinkaa	1
Mataderoas	1
NUEVA CHICAGO	1
del Sacramento	1
Pertrak	1
Quintana Alfredo	1
Galerías Pacífico	1
Dot	1
Green	1
Batam	1
Telbiseh	1
Lower Manhattan	1
Kazamiya	1
Al Hila	1
Ybyrá Pyta	1
Edelap	1
Las Cabañas	1
Leperq	1
D.C	1
paraguayo	1
Huapi	1
Nucete	1
Huamahuaca	1
Sanliurfa	1
Nezahualcóyotl	1
Ciudad Neza	1
Daura	1
Tilly	1
Sán­chez	1
Corlasa	1
Hualgayoc	1
Ansalta	1
Rakhata	1
Echeda	1
Parque Calchaquí	1
Puerto La Plata	1
Barbuda	1
Tiscornia	1
Al-Tadamoun	1
Daría	1
Misraba	1
Al-Qabun	1
Al Qabun	1
Dummar	1
Sukari	1
Eaton	1
Isla de Utoya	1
Musalmiyeh	1
Hajar al-Aswad	1
Jan Beni Saad	1
Idhaa	1
Marje	1
Jamiliya	1
Zabdiya	1
Hayar	1
Bab al-Hadid	1
Al-Zahara	1
Al-Arqub	1
Fairfax	1
El Norte	1
Tipnis	1
Sao José de Río Preto	1
Berwa	1
Sao Jose	1
Tío Pujío	1
Zajecar	1
Espera	1
Contreras	1
Arcos de la Frontera	1
Pol-Ka	1
Sant Joan Despí	1
Matehuala	1
Bagatli	1
Rikvani	1
Kasham	1
Amador	1
Postdam	1
Uriburu-	1
Uotsurijima	1
Talar Chico	1
Golcuk	1
Yalova	1
Adapazari	1
Valle de Punilla	1
Curumaní	1
Terracina	1
Ameghino y Fontana	1
vereda	1
600	1
Sulcis	1
Taiji	1
Oxenard	1
Dayr az Zor	1
Boukamal	1
Dayr	1
Zor	1
Arroyo Dulce	1
Abu Rummaneh	1
Al Fan	1
Isla Adentro	1
Retiro.El	1
IV	1
ADROGUÉ	1
Ali al Sharqi	1
Salahedín	1
Zi	1
Río de Oro	1
Fusina	1
501	1
Yeman	1
Fiorda	1
Recoleta.Fuentes	1
Turkmenistán	1
Baadba	1
Tando	1
Paracuellos del Jarama	1
Hanano	1
Nahta	1
Taiyuan	1
Shanxi	1
Liboa	1
Al Tayi	1
Cabimas	1
Izaa	1
Florange	1
El Tordillo-	1
Azadpur	1
El Tordillo	1
La Boca Guadalupe Aizaga	1
TN	1
Puerto Madero Hernán	1
Guemes	1
Amplats	1
Altinozu	1
Guillermo Moreno	1
ranelagh	1
de Chubut	1
Estanislao López	1
Xi	1
Moaña	1
Sanitá	1
Cittadella	1
Veneto	1
Larena	1
Amparo	1
Alto Anchicayó	1
Unamet	1
Gleno	1
Dawlat Abad	1
Sasin	1
Planes	1
La Colina	1
Bab al-Tebaneh	1
Quillacollo	1
Chiang Kai Shek	1
Hato Corozal	1
Maliana	1
Daf al Shuk	1
Daf Shawk	1
Maaret	1
Numan	1
Bariloche-	1
Paisley	1
Massada	1
Malali	1
Roqn el-Din	1
Astra	1
Diadema	1
Zara	1
Portella della Ginestra	1
garín	1
Badalona	1
Campo Limpo	1
Vila Carmosina	1
Concord	1
Des	1
Perterser	1
Taruca Pampa	1
Kaicoli	1
Comoro	1
Río En Río de Janeiro	1
Azerbaiján	1
Santa Rosa de Osos	1
Maza	1
Thorné	1
Alieu	1
Novolakskoye	1
Novolaksk	1
Tema	1
Guardacostas	1
Bacau	1
Blumenau	1
Tijucas	1
Navegantes	1
Itajaí	1
Ibiúna	1
Ingleses	1
Canasvieiras	1
Alimentación	1
Tel Zaatar	1
Tranqueras	1
Saké	1
Ramón Carrillo	1
Pechatniki	1
Yekaterinburgo	1
Baucau	1
Los Álamos	1
Buenos Aires–	1
Américo Gallego	1
Othamendi	1
Belaruskaya	1
Yarmana	1
siriana	1
boulogne	1
Matba	1
SANTIAGO	1
LOS HORNOS	1
Milagro	1
Almeira	1
Itihadiya	1
Ángel	1
Zahara al Maadi	1
Venezuela-	1
Al Sharquiya	1
Madinat	1
Parque San Lorenzo	1
APAP	1
Rukneddine	1
Salhiyeh	1
Qatana	1
Yedeit Artuz	1
Navidad	1
Wedgwood	1
Connecticut.–	1
Patio Bullrich	1
San Peters-burgo	1
Northern	1
Virginia Tech	1
Geeseytown	1
Halfaya	1
Deraya	1
Arabeen	1
Ramal Tigre	1
Jamshedpur	1
Webster	1
Piri	1
Al-Qahtaniya	1
Sanguinetti	1
San Miguel del Tucumán	1
Próspero Mena	1
Nueva Dehli	1
Vnukovo	1
La Huella	1
Al Mleiha	1
Connecticut.-	1
Bayauca	1
Goye	1
Sur Bonaerense	1
Saraya	1
Lumahue	1
Capitán Pastene	1
Colón y Cañada	1
Iom	1
Ramat	1
Bou	1
Pinamar Guadalupe Aizaga	1
Alejandro Korn	1
San Vicente-	1
Al Hula	1
Iztapalapa	1
Nahuelpan	1
Rubén	1
Magburaka	1
Kumalarang	1
Isabela	1
Muhafaza	1
Daraya	1
Taibessi	1
Sili	1
Churruca	1
Gesell	1
Las Yungas	1
Semarang	1
Sulawesi del Norte	1
Bandarlampung	1
Lampug	1
Ismailía	1
gonzales	1
lomas	1
zamora	1
Iberá y Montañeses	1
Pepe	1
Boate	1
Santa Maria	1
Ohuanta	1
Oktiabrsk	1
Khaian-Kort	1
Dahshour	1
Beziers	1
Kiss	1
Escorihuela	1
Illia 2850	1
San Juanico	1
Bufano	1
Newtwon	1
Ayutla	1
Plan de Gatica	1
Kahrizak	1
São José	1
Indaial	1
Tubarão	1
Hajar	1
Pisué	1
Tres Algarrobos	1
Guedermes	1
Barrio Chino	1
José María Paz	1
Mogama	1
Ittahadeya	1
Malí—	1
Khasaviurt	1
Rodelillo	1
Valparíso	1
Buser	1
Cerreti	1
Cisadems	1
Feira de Santana	1
Salvador de Bahía-	1
Hamuriya	1
Al Mazra	1
Tishrin	1
provincia	1
Mazraa	1
Naurski	1
Hertzlia Pituaj	1
Feira de	1
Tyre	1
Belgrano Oeste	1
Menznau	1
Schaffhausen	1
Crissier	1
Vaud	1
Tokaimura	1
Malkiyé	1
Sfeira	1
Belgrano–	1
Guandong	1
Sovietskaia	1
Tiquisio	1
Cicop	1
1400	1
Puente Llaguno	1
Pedescala	1
Jamare	1
Miguel Porta	1
Boca Quinquela Martín	1
DEL SEÑOR	1
Berni	1
Passaponti	1
Gestar	1
Punta Iglesias	1
Zelada	1
Quemú-Quemú	1
Quantico	1
Shanghái	1
Villa del Parque-	1
Rio Hondo	1
Daract	1
Cuartel Quinto	1
CFKArgentina	1
Nueva Berlín	1
Tahití	1
Goragorski	1
Bamut	1
Chervlionnaya	1
Valle Central	1
Becerril	1
Becerril.En	1
Angamos lanacionar	1
Macarapana	1
Angamos–	1
Villa Pueyrredón-	1
Velika Ivanca	1
Talipao	1
Inta	1
Ovidio	1
Atarazana	1
Puente Gallego	1
Pereda	1
Cumbres de Curumo	1
Los Chaguaramos	1
Palos Grandes	1
Revere	1
Washuk	1
Garzón	1
Doctor Rivasm	1
Aborígenes Argentinos	1
Dr. Rivas	1
Teques	1
La Puntana	1
Cidade Maravilhosa	1
Club	1
Lidoro Quinteros	1
Los siete Puentes	1
Metropolitana	1
Keelhau	1
Bleiburg	1
Foibes	1
Krizni Put	1
Apeldoorn	1
Lartigau	1
Indarte	1
Al-Messe	1
Dartmouth	1
Collón Cura	1
Sicardi	1
Callao 114	1
Novochedrinskaya	1
Buschiazzo	1
Pervomaiskaia	1
Jamraya	1
Huanuani	1
Savar	1
Regatas	1
San Egidio-	1
Horacio Cestino	1
Puerto de Frutos	1
Santo Domingo de	1
Unamsil	1
Juan José	1
Anchoris	1
Quseir	1
Al-Maalif	1
el Norte	1
Sabi al-Boor	1
Sadria	1
San Carlos.Al	1
Finochietto	1
Alejina	1
Fenerbahce	1
Virrey Olaguer	1
Umraniye	1
Antakya	1
Parque Bristol	1
Comandante Nicanor Otamendi	1
Bodrum	1
Tomkinson	1
El Treinta	1
Zahrai	1
Taskim	1
Escandinavia	1
Cochería	1
Kasimpasa	1
Horizonte	1
Clínicas	1
Sao Gonçalo	1
Mangeri	1
Juazerio do Norte	1
Candiotí Sur	1
Salvador de Bahia	1
Colquechaca	1
Turquía-	1
Nova Holanda	1
Bomsucesso	1
El Cerro	1
Ribeirao	1
Pampulha	1
Cascade	1
Guelph	1
Campo Chico	1
Kafer Sheij	1
Garbiya	1
Dajiliya	1
Bolívar 1	1
Lago Rosario	1
Mursi	1
Marsa Matrouh	1
Aisut	1
Gharbiya	1
Mineiro	1
Moqattam	1
Aldoaín	1
Sao Mateus	1
Nasr City	1
Lumping	1
Coxquihui	1
Puerto Saldaña	1
Rioblanco	1
El Encón	1
Nocito	1
Alfredo	1
Villa Josefina	1
Uatre	1
Wasat	1
Zhengzhou	1
Qaliub	1
Laranjeiras	1
Éfeso	1
Chalandri	1
Guaratiba	1
Monte Rio	1
Mércuri	1
Pastor Luna	1
Dar es-Salaam	1
Adra	1
El Cairo.Tras	1
Las Mellizas	1
Presidente Roque Sáenz Peña	1
La Clotilda	1
Weber	1
Pesaro	1
Rabaa al-Adawiya	1
Krog	1
Rabea	1
Al-Fayum	1
Beheira	1
Daqahiliya	1
Qena	1
Atánquez	1
Salehín	1
East River	1
Ezbekiya	1
Derbala	1
Ibrahimiya	1
Sumuha	1
Fayoum	1
Alejandría ( Norte	1
Heluan	1
Al Hadra	1
Asafra	1
Abu Suleimán	1
Prefectura	1
HARARE.-	1
Beatrice	1
Fayyoum	1
Guta	1
Shura	1
Beulah Grove	1
Acambuco-	1
Moadamiyeh	1
Ein Tarma	1
Bosa	1
Decatur	1
Cuzco 150	1
Loma La Lata	1
Añel	1
Chevalier	1
Sierras de Córdoba	1
Ferradura	1
Puerto Inírida	1
Labateca	1
Bauness y Cullen	1
Marnissolle	1
La Bolsa	1
Le Perthus	1
Bengahzi	1
Pinar de los Ríos	1
La Ñata	1
Martín Sabbatella	1
Tuscon	1
300	1
Narobi	1
Nairob	1
Inírida	1
Hurlingan	1
NYSE	1
Rosario3	1
Goiti	1
Mamud	1
Damatru	1
Lagomarsino	1
Pachecho	1
San Ignacion	1
Villa Gessel	1
Tibiríades	1
El Patacón	1
Rio Branco	1
Pedro Lozano	1
Tur	1
Barents	1
Araceli	1
Jauregui	1
Limburgo	1
Fosas	1
Ilha	1
Novogroznensky	1
Albano	1
Aldecoa	1
Sparks	1
Río de Gallegos	1
UBA	1
Massa	1
Cañón Oculto	1
Provins	1
Lihuel Calel	1
Mouadamiya	1
Safira	1
BARILOCHE.-	1
Maadi	1
Paramus	1
Ann Arbor	1
Regional	1
Las Barrancas	1
Speyer	1
Triers	1
Wursburg	1
Enzo	1
Guiuan	1
Jaén	1
Palemo	1
Barangay Paon	1
Alangalang	1
Rotonda	1
Araucaia	1
Libération	1
Lerche	1
Arruga	1
La Défense	1
Janah	1
Hardoy	1
Araca	1
La Santé	1
Soldado Aguirre	1
Alem al	1
Tarmiya	1
Costa de Sauípe	1
Juan Facundo Quiroga	1
Gran San Juan	1
Curillo ( Sur	1
F. C. Rodríguez	1
Los Hacheros	1
Bocalandro	1
Parque Camet	1
Fortunado	1
Rondeau	1
Salta Fernando Font	1
Ebro	1
TUCUMÁN.-	1
La Milagrosa	1
Concordía	1
Radaa	1
Centennial	1
Port Loko	1
Miró	1
Las Praderas	1
Patikul	1
Capurganá	1
Aylesbury	1
Qadi Askar	1
Marjeh	1
Rivarola	1
Mansoura	1
Daqahleya	1
Varela	1
Manuel Trelles	1
Otero	1
Cullen y Mendoza	1
Ángel Gallardo	1
Rueis	1
Ciudad Universitaria	1
Starco	1
Stalingrado	1
Dakota del Norte	1
Casselton	1
Hobo	1
El Mirlo	1
Gran Buenos AIres	1
Al Bufray	1
Al Bubali	1
Cristóbal de las Casas	1
Utedyc	1
São Luís	1
Fragata Sarmiento	1
Crisóstomo Álvarez	1
Castañón	1
Chatilla	1
Tranquila	1
Gregorio Laferrère	1
Vida Nova	1
Kerdasa	1
Mursh	1
cairota	1
Menufiya	1
GodoyCruz	1
Shatub	1
Moqdadiyan	1
Saqlawiyah	1
Glendora	1
Tucuruvi	1
Parácuaro	1
Bonobrio	1
Villa Lanús	1
Villa Las Rosas	1
Dokki	1
Talbiya	1
Marylan	1
Fénix	1
VII	1
Lar	1
Morumbi	1
Nihuil	1
Zevallos	1
Niketown	1
Cascadura	1
Callao y Corrientes	1
Cyrville	1
Aguas de Oro	1
Abracadabra	1
Marfil	1
Open Door	1
Radio Chaco	1
Buenos Aíres	1
Caracas.Montoya	1
Parque Carabobo	1
Izge	1
Palos y Blanes	1
Quirinale	1
ucraniana	1
Chacaito	1
Maidán	1
Bama	1
Fisque	1
Tazajal	1
Puerto Vallarta	1
Vélez-River	1
Kiev-	1
Tachira	1
Albatros	1
Guamúchil	1
la Cruz	1
Valeo	1
Huidobro	1
Machaín	1
Perevalne	1
Villa Chacarita	1
Villa Gloria	1
Villa Elena	1
Villa Palermo	1
Portal del Este	1
Punta Blanca	1
Porlamar	1
Arístides Bastidas	1
Liliana	1
Mestre	1
Laranga	1
Udocba	1
La Alborada	1
Caló	1
Ramal Campana	1
Tucumán Chubut La Pampa	1
Cerro Divisadero	1
Villa Cubas	1
Los Nuevos Teques	1
Pamantingan	1
Sultán Kudarat	1
Karradat Myriam	1
SanCristóbal	1
Alemao	1
San Telmo Catalinas Sur La Boca Villa Crespo	1
Goldstein	1
Hood	1
Barrio Comunal 3	1
Danunzio	1
7.8	1
Jarkiv	1
Dunas I	1
Laguna Verde	1
Jorge Inostrosa	1
Bustán	1
Suq al Yach	1
Galway	1
Kharkiv	1
El Ombú	1
Murambi	1
Kransny Liman	1
Yenakiyevo	1
Herme	1
Horlivska	1
IAPI	1
Chinook	1
Sopeña	1
Latzina	1
Changzhou	1
El Obelisco	1
Bilbasivka	1
Murias	1
Alkorta	1
Nueva Dirigencia	1
Taco	1
Frigorífico San José	1
Madereros	1
Barrio Oeste	1
Adua	1
Al-Zahra	1
Matay	1
Aruya	1
Warabe	1
Chibol	1
Shurugwi	1
Valparaíso-	1
Winifresa	1
Abasto-	1
Zanguldak	1
Vilanova i la Geltrú	1
Chukku Nguddoa	1
Alagarno	1
Rubizhne	1
Isla-Vista	1
Sablon	1
Magallanes 364	1
Sadad	1
Xingú	1
Catete	1
Méier	1
Barrio Parque San Martín	1
Nuevo Brunswick	1
Attagara	1
Agapalawa	1
Aganjara	1
Villa 31 de Retiro	1
Barderi	1
Joaquín V.González	1
Chinquiquirá	1
Galeao	1
Al-Maljaa	1
Carrao	1
Karta	1
Badaun	1
Yalula	1
Guaruja	1
Stepánovka	1
Mpeketoni	1
Dios	1
Katun	1
Mafraq	1
Mualemin	1
Samay Huasi	1
Alajuela	1
Heredio	1
El-Adwa	1
Chuha A	1
Chuha	1
Wuse	1
Izvarino	1
Tlatlaya	1
Modi'in	1
Asbury	1
Suafat	1
Lamú	1
Qalansawe	1
Borno (	1
Port Hueneme	1
Guarapiranga	1
Murrieta	1
Neuquén Salta	1
San Juan Río Gallegos	1
Emfer	1
Haditah	1
Marcelitaojeda	1
Dille	1
Orgun	1
Barrio Norte Belgrano	1
En Colombia	1
Río Caribe	1
Cúa	1
Savur Mogila	1
Aduana	1
Watkins	1
Kensington	1
Kiel	1
Caserta	1
Shakhtarsk	1
Torez	1
Savur-Moguila	1
Pervomaysk	1
Snizhne	1
Donbas	1
Bozize	1
Fempinra	1
Camp Qargha	1
Telkif	1
Bianchi	1
Norte del	1
Vivero	1
Fishkhabour	1
Mahmudia	1
Telskuf	1
Zumar	1
Parque Casas	1
Sica	1
Dolo Town	1
Margibi	1
Banfield Adrogué	1
Missouri.-	1
Bin Wais	1
Santa Fe Mendoza	1
Winifreda La Pampa	1
Fergurson	1
Tabqa	1
Cía	1
Frente	1
Capitales	1
Papa Francisco	1
Scharebeek	1
Ucrania.-	1
Guaymallénfue	1
Rabaul	1
Baracas	1
Benito Correa	1
tándem	1
Cufré	1
Borgione	1
Cormec	1
Guernika	1
Landskron	1
Melina	1
L'Hospitalet de Llobregat	1
Ayotzinaga	1
Tarman	1
Akrama	1
Ngambi	1
Pueblo Doyle	1
Gran Santa Fe	1
Mong Konk	1
El Bajo	1
Hong Kong-	1
Viñagrande	1
Louis	1
Amiralty	1
Ho Chi Minh City	1
Manzana	1
Kwoloon	1
El Marquesado	1
Sopocachi	1
Vilela	1
Tsang	1
En Córdoba	1
Bangún	1
La Teja	1
Quintana y San Juan	1
Waga	1
Garta	1
Waga Mangoro	1
Chapaleufú	1
Juan Domingo	1
Sao Bernado do Campo	1
cuarto	1
Barrio Virgen	1
Besançon	1
Passau	1
Aguas Prietas	1
Uagadugu	1
Vimtin	1
Zauiyat Albu Nimr	1
Ras al Maa	1
Pacheco-	1
Villa Margarita	1
El Pilar	1
La Lagunita	1
Villa Hidalgo	1
Al-Mughayir	1
Kaxipayiñ	1
Jalapa	1
Har Nof	1
Indart	1
Parlamento	1
Jar Nof	1
Konatogora	1
Bloomsbury	1
Tor Sapienza	1
Clayton	1
Yayhakhil	1
Dellwood	1
Seatlle	1
Brentwood	1
Cancún-	1
Nigeria-	1
Estanislao	1
Cárcel de Mujeres	1
Sinclair	1
Sierra Chica Olmos	1
mar Negro	1
Turmus	1
Nasca	1
Cabot	1
Huarpes	1
Martin	1
Mariano Roque Alonso	1
Cementerio Parque	1
Radá	1
Larroque-	1
Monsanto	1
Malala	1
Dorrega	1
Xichong	1
Wineberg	1
Joué-lés-Tours	1
Parque Nacional	1
Manu	1
Eskilstuna	1
Coronel Francisco	1
Domingo	1
Echendía	1
Juan Cabañas	1
Ciudad Altamirano	1
Caballito.Otras	1
Doron-Baga	1
Ilolay	1
Lidoro J.	1
Port-la-Nouvelle	1
Montagny-Sainte-Félicité	1
Oise	1
pinamaerense	1
Rio Dulce	1
Abacha	1
Reñaca	1
Cutral-	1
Amedy	1
Republique	1
Nation	1
William C.	1
Villa Floresta	1
Doron	1
Nuackchot	1
Pontoise	1
Cabo San Pedro	1
José Suárez	1
Libanesa	1
Piriápolis	1
Obrajuelo	1
Uchuraccay	1
Jovellanos	1
Yola	1
La Aguadita	1
Deir al Zur	1
Apemia	1
Fotokol	1
Castellane	1
Dokuchayevsk	1
Chapel Hill	1
Espora	1
Rodrigo	1
Popasna	1
Norrebro	1
Granjas	1
Valle Larrabure	1
Búzios	1
Lorestan	1
Debáltsevo	1
Tal Shamiram	1
Tal Hurmuz	1
Tel Hormidz	1
Al-Jazira	1
Tal Tamr	1
Teniente	1
Feyenoord	1
Haras del Sur	1
Debussy	1
Villar de Río	1
Ñirihuau	1
villa	1
Peñaloza	1
El Altiplano	1
Afganistásn	1
Jorsabad	1
Tuskegee	1
Vitória	1
Villa Castelli	1
Al Alam	1
Luis Agote	1
D'Elía	1
soja	1
Mario Bravo	1
Kaserine	1
Al-Hota	1
Zapiola 89	1
Laguna de	1
Goa	1
Kerala-	1
Sivori	1
Presidente Illia	1
Amet	1
En Posadas	1
Créteil	1
Sonda	1
Formosa-	1
El Mercadito	1
Pje	1
Beledwyne	1
Palatino	1
Trebisonda	1
Chiromo	1
Aldama	1
Coronel Vidt	1
Makerere	1
Costa del	1
Barra de Valizas	1
Calabria	1
Siraj	1
Dowla	1
el Cauca	1
Nagorno	1
Al-Baaj	1
Rocamadour	1
Piedra del Águila	1
los Andes	1
Redmond	1
Flores.	1
El Turbio	1
Cerro Currumahuida	1
Perón-	1
Garland	1
Rosario En Rosario	1
Benyto Lynch	1
Mateotti	1
Argovie	1
Conan	1
Cementerio	1
Al Malaab	1
Echeverria	1
Cruzeiro	1
Mountbatten	1
Fiesole	1
El Sol	1
Uñac	1
Sauce Grande	1
Crucero	1
Speicher	1
Mabruk	1
Gubio	1
Dammam	1
Caracas.ß	1
Aluthgama	1
Guayra	1
Zacatlán	1
Ahuacuotzingo	1
Daech	1
Cerro Largo	1
Valle del Chalco	1
Maturín	1
Marinka	1
Chiquiquirá	1
Santa María Chimalapa	1
Tuxtla Gutiérrez	1
Suran	1
Tixtla	1
Ometepe	1
Lúxor	1
Quepe	1
Trapilhue	1
Patota	1
Hajaj	1
Cuero Fresco	1
La Piedad	1
Agadez	1
Arlit	1
Fairfield	1
North	1
Lexington	1
Carolina de Sur	1
Carolina de	1
Purchase	1
Río Negro y Neuquén	1
Jerécuaro	1
El Fresno	1
Kontagora	1
Entres Ríos	1
Al Sawaber	1
kuwaití	1
Neshua	1
Sousse	1
Vucetich	1
Sol y Verde	1
San Atilio	1
Primavera	1
Hammamet	1
Reñaca Alto	1
Heliopolis	1
Trenque Laquen	1
Tal Abyad	1
Damas	1
Chapinero	1
Opicci	1
Cumbayá	1
Villa Hortensia	1
Kardze	1
Avellaneda.Poco	1
Gualegaychu	1
Ymette	1
Jan Ben Said	1
Monge	1
Jan Beni	1
La Comarca	1
ar del Plata	1
Syriza	1
Sulagh	1
Hougomont	1
Lafayette	1
Rowland Heights	1
Rowland	1
Manzanares	1
Félix	1
Chirica	1
Birseit	1
Villa Manuela	1
Narvarte	1
Padre Varela	1
Villa Garibaldi	1
Parque Sicardi	1
Sinamaica	1
Artilleros	1
Sumer	1
Midyat	1
Parque San	1
Olivera	1
Sultanbeyli	1
Lice	1
Silopi	1
El Bracho	1
Marcelo T. Alvear	1
Talcahuano.Cuñarro	1
Itapevi	1
Rogberi	1
Masiaca	1
Ayuí	1
Ratchaprasong	1
Chidlom	1
Birán	1
entrerriano	1
Tundu Wada	1
Yeoncheon	1
Assán	1
Roye	1
Faquier	1
Moneta	1
Delfín Gallo	1
Gran San Miguel	1
Quezaltepeque	1
Baal	1
Los Pizarro	1
Bavaria	1
Qadam	1
Freital	1
Prado del	1
Bicske-	1
Hegyeshalom	1
Keleti	1
Campo Hardy	1
Nuestras	1
Padborg	1
Flensburg	1
Rodby	1
Rottenburg am Neckar	1
Chille	1
Mineo	1
Santa Rita de Asís	1
Narcos	1
Veladero	1
Guerrero.	1
Beremend	1
Meric	1
San Lorenzo-Racing	1
Gomari	1
Ajilarien	1
Jericoacoara	1
Chacareros de Pie	1
Meca	1
Isla Vista	1
Inglis	1
Diamantina	1
Morillo	1
Bel	1
Ralos	1
Moya	1
Emelec	1
Flagstgaff	1
Ankara Tumay	1
Tumay	1
Pisgat	1
Arman Hanatziv	1
Pucú	1
Konya	1
Isawiya	1
Saint Ouen	1
La Chapelle	1
Shur	1
Valle del Río Negro	1
Bet Awwa	1
Palais de Glace	1
Armon	1
Gonzalez	1
Trollhättan	1
Kronan	1
Kronogrden	1
Palmas	1
Mariupol	1
Gorosito	1
Takhar	1
Fayzabad	1
Temple Argentino	1
Río Gualeguay	1
Rihson Letzión	1
Kalimnos	1
Ghalmine	1
Angulos	1
Boizenburg	1
Al Arich	1
Pelayes	1
Cluj-Napoca	1
Rosario Mauro V. Rizzi	1
Dahab-	1
Valle del Tuy	1
Buenuleo	1
Prato	1
Ramo Verde	1
Burch Barachne	1
Beit Einun	1
Parí­s	1
Les	1
Isla de Francia	1
Sena y Marne	1
Odeón	1
Les Halles	1
Tolón	1
X	1
Halles	1
Sant-Denis	1
Bercy	1
Porte	1
Raqqah	1
Syrie	1
del Mar	1
Casablanca-	1
ParisAttacks	1
Alfortville	1
Antalya	1
Hassaké	1
Ubik	1
Bamako-	1
En Mendoza	1
Rondônia	1
Villa Luján	1
Obregón	1
Bayir Bicak	1
Caucasia	1
Guasdalito	1
Kangemi	1
Brookline	1
Polledo y Cullen	1
Bicentenario	1
cuarte	1
Horneros	1
Tacuarita	1
Piquerí	1
Agouza	1
Qopiwini	1
Leytonstone	1
Santarelli	1
Colorado Spings	1
Independencia.Se	1
Redlands	1
Marqués de Pombal	1
Mujejuru	1
Caravana	1
Sherpor	1
Zenteno	1
Colonia Urquiza	1
MardelPlata	1
Valizas	1
Pampita	1
Fort Dodge	1
de Vaca	1
Rochester	1
Al-Qatif	1
Temixco	1
Wasit	1
Costanera Oeste	1
Connecticut-	1
Valdebebas	1
Playa Guadalupe	1
Zliten	1
Sug	1
Rivas	1
La Fonseca	1
Zlintan	1
Los Mochis	1
Tupac Amaru	1
Cinar	1
Ayash	1
Pazos	1
Saskatchewan	1
La Matanza Telam	1
Los Alerces	1
Kouyape	1
Ciudad de Córdoba	1
Ahwali	1
Burns	1
Malheur	1
Gutenberg	1
Puesta del Sol	1
Alto Mendoza	1
590	1
Pinotepa Nacional	1
Páez y Terrada	1
Caudales	1
Casteallanos	1
TopoChico	1
General Fernández	1
Beiro	1
Tamarindos	1
Cankaya	1
Quiver	1
Qasr Talil	1
Panamericana Los	1
Kalamazoo	1
Al-Zahraa	1
Sayyida	1
Miles	1
Junín de	1
distritos	1
Hesston	1
Jaime	1
Ravignani y Cabrera	1
Aguilar	1
Ipiranga	1
San Bernardo de Campo	1
Ben Guerdane	1
Jaffa-	1
Wilkinsburg	1
Marais	1
Grand-Bassam	1
Bassam	1
Salvador María del	1
Salvador María	1
Coad	1
São Jorge do Oeste	1
San Pablo Miguel	1
Chatillon	1
Feira	1
Lolla	1
Namur	1
Malbeek	1
Bruselas.	1
Fontezuelas	1
Brusela	1
Castelnuovo	1
Saint-Gilles	1
Argenteuil	1
Tsikhisdziri	1
Zaventemen	1
Provincia del Chaco	1
San Pablo Sebastiao	1
Dikili	1
Túnez-	1
Feliciano	1
Viscaya	1
Quetame	1
Norosí	1
Kollam.	1
Comandante	1
Yochegua	1
Villa Zagala	1
Marijuan	1
Alicia Moreau	1
Aguero	1
Carlso Pellegrini	1
Boca del Río	1
Vale de Anhangabaú	1
Vale do Anhangabaú	1
Pedernales	1
Bocas del Toro	1
Al-Sukari	1
Defensores	1
Al-Marya	1
La Garita	1
Burlingame	1
Costa Mesa	1
Lagarto	1
PAS	1
San Felipe	1
Corrientes y	1
Borlänge	1
Boqueron	1
Blanca Blanca	1
Barrio Cañadón	1
Halmahera	1
Dávao	1
Adulp	1
Laranjeiras do Sul	1
Al-Yamea	1
Winter	1
Acíndar	1
El Jaguel Telam	1
Alto Calafate	1
Roberson	1
Enrique	1
Rosario Franco	1
Eskisehirspor	1
Domingo Millar	1
Guangfuli	1
Río Guito	1
Dahie	1
Parte	1
O´Higgins y Arias	1
O'Higgins y Arias	1
Jufré	1
Vitrolles	1
Rio de Janeiro.	1
Ordoñez	1
Micaela Ortega	1
caraqueñas	1
Buenos Aires.14/03/2016	1
Sarona	1
Atta	1
Huaico	1
Huergo-Madero	1
Yanacocha	1
Cinelandia	1
Tinaquillo	1
Cilia	1
El Tocuyo	1
Mateen	1
Pulse	1
Barrientos	1
Topochico	1
Ariz.	1
Pulse Telam	1
Magnanville	1
Batley	1
Spen	1
Gibraltar.	1
Asunción Nochixtlán	1
Ocumare	1
Los Pinares	1
Millán	1
Garabuli	1
Luis Viale	1
Chernorechie	1
Nozhai-yurt	1
Vedenó	1
Roseti	1
Gisela	1
Sheldon	1
Cilvegözü	1
Estambul.	1
Mantes-la	1
Bombai	1
Orlando-	1
Bangledesh	1
Shalal	1
Barrio Las Vegas	1
Patrón	1
Bagdel	1
Al-Qarrada	1
Pioncenot	1
Minnesota-	1
Saint Paul	1
Parker	1
Watts	1
Golbasi	1
Pico de Oro	1
Estanbul	1
Tophane	1
Louisana	1
Ohio-	1
Bollene	1
Flamengo	1
Santos Laguna	1
Campania	1
Slipak	1
Entre Ríos y	1
Sagamihara	1
Munich-	1
alemana	1
Steglitz	1
Saint Etienne	1
Rouvray	1
Jose Maria Moreno	1
Saint-Étienne-du-Rouvray	1
Qameshli	1
Southcrest	1
Tony	1
Mauthausen	1
Platja d'Aro	1
Duque de Caixas	1
Angra dos Reis	1
Herat ( Noroeste	1
Hawiga	1
Bray	1
Bruera	1
Niterói	1
Los Jazmines	1
Corcrain	1
Complexo de Maré	1
del Norte	1
Chumphon	1
Phan	1
Krabi	1
Nakhon si Thammarat	1
Parlasur	1
Saint-Etienne-du	1
San Antonio Mauricio Dueñas	1
Larroca	1
Ozone Park	1
Qarqasha	1
Abzag	1
Quareitag	1
Villeneuve-Loubet	1
Villa Lamadrid	1
Bastia-	1
Buena Nueva	1
Sulz	1
Vorarlberg	1
Kozintsev	1
Trauberg	1
Mar del Plata-	1
Bitlis	1
Van	1
Yarabulus	1
Namuncurá	1
Chanas	1
Adkere	1
Akdere	1
Chimay	1
Jibik	1
Fernández de	1
Etchecoltaz	1
Mondongo	1
Suyuque	1
Burruyacu	1
Valenzuela	1
Jableh	1
PuertoMadero	1
Castonjauregui	1
Con ollas	1
Pristupluk	1
Al-Qameshli	1
Gaziantiep	1
Jallianwala Bagh	1
Nôtre-Dame	1
Boussy-Saint-Antoine	1
Harlow	1
Deyr	1
General Alvarado-	1
Al-Haidaria	1
Avaaz	1
Yubar	1
Saint Cloud	1
Seaside Park	1
Bryant	1
Seaside	1
La Guardia	1
Auram	1
Charlotte-Mecklenburg	1
Villa Trujui	1
Banech	1
Finca Las Costas	1
Weslayan	1
Mashonalandia	1
El Aro	1
Río Sucio	1
Townville	1
7 de Setiembre	1
Pasadena	1
Ayala	1
Tall Tawil	1
Massachussetts	1
Delfín	1
Rosario Telam	1
Victoriano	1
PP	1
Playa Serena	1
Marea	1
Dabiq	1
Soran	1
Cantagalo	1
Estado de Jammu	1
Jardines	1
Huepetuhe	1
Madre de Dios	1
Chaca	1
Dagenham	1
Avellaneda C5N	1
Dibaga	1
Camerino	1
Los Salias	1
Yemén	1
Tenaris	1
Chafariz	1
Lucas	1
Pimpilandia	1
Bajada Grande	1
Kaltenkirchenen	1
Hof	1
Azusa	1
Roosevelt	1
gateras	1
Maple	1
Aguaribay	1
Pozos	1
Ulsan	1
Oeste de	1
Deus	1
Blandengues	1
Montferrier-sur-Lez	1
Shomali	1
Kapikule	1
Jardins	1
Amherst	1
Pozo del	1
Novo Progresso	1
Vedado	1
Volvogrado	1
Al Zabdie	1
Al Aziza	1
Al Azamiya	1
Al Idaa	1
Nazala	1
Seif	1
Al Furqan	1
Larreta	1
Ciudad Hernán	1
Standing	1
Samah	1
Sifontes	1
Foua	1
Kefraya	1
Fedecámaras	1
Breitscheidplatz	1
Sesto San	1
Fezzan	1
Oberlín	1
Beverly	1
La Fría	1
Nueva Iguazú	1
Atyrá	1
Ganziantep	1
Puraquequara	1
Ingolstadt	1
Kiryá	1
Mestalla	1
Elpidio González	1
Pampa de Ludden	1
Tumbaya Grande	1
Kyet Yoepin	1
Fort Laudardale	1
PLATA._	1
Rondonópolis	1
Hankou	1
Centrooeste	1
Biskek	1
Esenyurt	1
Riviera Maya	1
balneario	1
Florez	1
Urca	1
Hyde Park	1
Pichi Mahuida	1
Ecuador.-	1
San Francisco Apoyo	1
de Río de Janeiro	1
Alerj	1
UC Berkeley	1
UCBerkeley	1
Davis	1
Chino	1
Corrientes Telam	1
Monte de Formosa	1
Necochea-	1
Méjico	1
Manso	1
Mitte	1
Americanópolis	1
Vistalegre	1
Brasilia–	1
Cluj	1
Sibiu	1
Yucatán	1
Dandong	1
Confluencia	1
Sehwan	1
Al-Bayaa	1
Odebrecht	1
Rumi Punco	1
Ferré	1
Treinta y	1
Tres Orientales	1
Covington	1
Tuiuti	1
Tunes Túnez	1
Ixtapaluca	1
Trocadero	1
Volcán Jujuy	1
Maiquetía	1
San Luis Telam	1
municipios	1
Ile	1
Urumchi	1
Alto Camet	1
Santiago Filipuzzi	1
La Colmena	1
Chaar	1
Caretas	1
La Plata Santiago Hafford	1
Sallanches	1
Cusco Gentileza	1
Prats	1
Federico Lacroze	1
Cincinatti	1
Mountain	1
Coronel Moldes	1
Juan Felipe Ibarra	1
Lan ?	1
Gooneratne	1
Ratmalana	1
Guadalcanal	1
Pirané-	1
El Recreo	1
Unido	1
Molina	1
Saint-Pee-sur-Nivelle	1
Andaux	1
Reano	1
Obelisco porteño	1
Debut	1
Los Caobos	1
Alba	1
Bosque Peralta Ramos	1
Achin	1
Kafrara	1
Franckfurt	1
Kafraya	1
Al-Rashidin	1
Lasalvia	1
Los Salías	1
Ubatuba	1
El Rosal	1
Santa Cruz Telam	1
Cordillera	1
Eugenio Bustos	1
Uco	1
Santa Cruz Mariela Arias	1
Itaipulândia	1
de Iguaçu	1
Itapulandia	1
Edgware	1
Grimsby	1
Foz do Iguaçu	1
Ruanda.-	1
Yerres	1
São Jose dos Campos	1
HPB	1
Ciudad José Potocar	1
Potocar	1
Cañizales	1
Perija	1
Ibarriola	1
El Churrinche	1
Salvigni	1
Huemul	1
Nervo	1
Ahu	1
Guásimo	1
Michelena	1
Santa Cruz de Mora	1
Chiche	1
los Teques	1
Capacho Nuevo	1
La Pampa y Santa Cruz	1
Marcelo T. de Alvear	1
Caracas Fernando Llano	1
Blanqueada	1
Punta de Los Llanos	1
Gladys	1
Motta	1
MstQuilmes	1
Zanbaq	1
Turén	1
Roland Garros	1
Roseland	1
Cují	1
Exaltación	1
Londrés	1
Ingeniero Bugde	1
París–	1
Carlo	1
París-	1
Machester	1
LondonBridge	1
Hoek Van Holland	1
Vincennes	1
Manfrey	1
Bernal Emiliano Lasalvia	1
Chile Chico	1
Omsk	1
Irkutsk	1
Ortiz de Rozas	1
Fengxian	1
Mastellone	1
Monos	1
Andino	1
Ojo	1
General López Gentileza	1
St Paul	1
Zanjili	1
Vaquería	1
San Cristóbal del Táchira	1
Ramzanpur Joya	1
Villa Carlos Paz..	1
Cuesta de	1
Tronconal	1
Calandria	1
Ahome	1
La Amapa	1
las	1
Cruces	1
Dpa	1
Caruachi	1
St Pauli	1
Schanzenviertel	1
Morro do Cantagalo	1
Lins	1
São João de Meriti	1
Sedeba	1
Roca y Posada	1
Devprayag	1
la Buena Vista	1
El Hornero	1
Bougainville	1
Papúa Nueva Guinea	1
Pativilca	1
London Ciki	1
Mammanti	1
Simari	1
Ein Daqna	1
barrio	1
Chachil	1
Pza	1
El Amanecer	1
Tláhuac	1
Schaffhouse	1
Merlo-Lobos	1
Juan B.	1
Capacho	1
Chiguará	1
Weston	1
Sincan	1
Treinta	1
Treinta de Agosto	1
Vacelar	1
Bedminster	1
Seine-et-Marne	1
Resistencia Cushamen	1
Sudamérica	1
D.F	1
Virgina	1
Trochita	1
Senhora do Monte	1
Pto Ayacucho	1
José de	1
Reino de España	1
Camrbils	1
Joan	1
Åbo	1
Las Ramblas	1
Fuente Canaletes	1
Cambrils-	1
Betis	1
Ougadougou	1
Laguna Blanca	1
San Miguel de Laguna Blanca	1
Schwaebisch	1
Sant Just Desvern	1
Hafencity	1
Hamburger	1
Pence	1
Hueyapan	1
Acayucan	1
Covarrubias	1
Ocotlán	1
Cambril	1
Rostov del Don	1
Solferino	1
Yonkers	1
Kitzingen	1
Nequén	1
chubutense	1
Aldo	1
San Jose	1
La Mariquina	1
Cherán	1
Mariquina	1
Shah Porir	1
Hollister	1
Teknaf	1
Hatchepsut	1
Catalunya	1
Yunká	1
Fulham	1
Astaná	1
Astana	1
Gran Bretaña-	1
Pu Lof de Resistencia	1
Roma Norte	1
Jojutla	1
Calfupan	1
Newham	1
Ensanada	1
Llaima	1
Khat Chaung Gwa Son	1
Maungdaw	1
Gótico	1
Lopetegui	1
Prat	1
Costa Brava	1
Vuelta del Río	1
Montjuic	1
Gracia	1
Sant Julià de Ramis	1
Francisco de Alava	1
Tenaris Siderca	1
South Kensington.More	1
Redding	1
Mendocino	1
Napa	1
Sonoma	1
Zangar	1
Cánning	1
Hodan	1
Mogasdicio	1
PK5	1
Arenys	1
Mosta	1
La Valeta	1
Amstérdam	1
Esquel Rodrigo Néspolo	1
Nebel	1
São Conrado	1
Acebo	1
Badiraguato	1
Nueva York.	1
Karshi	1
Saipov	1
Thornton	1
Sutherland	1
Lima 93	1
BCN	1
TGN	1
GIR	1
Cataluña-	1
Martínez de Caveri	1
Ellis	1
Rancho Tehama	1
Tribeca	1
Puente la Noria	1
Teotihuacán	1
Piñera	1
Gremio	1
La Paternal-	1
Bir al-Abed	1
El-Arish	1
Valle del Chalhuaco	1
Parque Saavedra	1
Carmelo	1
Costa do Sauípe	1
Mit	1
Río Negro de	1
Rahkine	1
Emiliano Lasalvia	1
Bonpara	1
PetroZamora	1
Lakfen Winkul Mapu	1
Jesusalén	1
Gazas	1
Carpenteria	1
Summerland	1
Callao y Mitre	1
Daly	1
Stamps	1
San Ildefonso	1
Pazo	1
Meirás	1
Wallenberg	1
Yeltsin	1
Mathare	1
Chinameca	1
Xochicalco	1
Vallo della Lucania	1
Salerno	1
Dalat	1
Ben Tre	1
Hue	1
Tinduf-	1
Cafiero	1
Cuchamen	1
Estremera	1
australiana	1
Northlands	1
Les Corts	1
Luján Telam	1
La Urbina	1
Seabrook	1
La Veguita	1
Puerto General San	1
Trang Bang	1
Isla Margarita	1
Paraguaná	1
Doraud	1
Loerstan-	1
Tuyserkan	1
Shahinshahr	1
Izeh	1
Al Hudeida	1
La Cerámica	1
Champigny-sur-Marne	1
Qahderijan	1
Kermanshah	1
Fanazul	1
SanPedroSula	1
Lizarra	1
Takestán	1
Vucitern	1
Bwindi	1
Grandes Lagos	1
Francisco Gurruchaga	1
Tupiza	1
Bo	1
Kenema	1
Colonia Española	1
Laguneta de La Montaña	1
Curanilahue	1
Arcilla	1
Panguipulli	1
Omagh pacere	1
Del Real	1
Montes Urales	1
Salvigny	1
Somellera	1
Picheuta	1
Vento	1
San José del Cabo	1
Miserere	1
Cajazeiras	1
Maywand	1
La Guayra	1
Whasington	1
Laicos	1
Barco	1
Cáceres-Esteco	1
Winkul Lafken Mapu	1
Pasco y Alsina	1
San Juan de Oro	1
Reims|Hulton	1
Kingston Oeste	1
Las Piedritas	1
Ugalde	1
Chocobar	1
Dalmacia	1
Yilan	1
Nuevo Taipei	1
Rodolfo	1
Condesa	1
Presidente Quintana y Crespo	1
pampeana	1
Yearce	1
Palos de	1
Coral Springs	1
San Salvador de Bahía	1
Manantial Sur	1
Ricota	1
Acqui Terme	1
Ayohuma	1
Conchillas	1
Móstoles	1
Vichigasta	1
Atlético	1
Eintrarcht Franckfurt	1
Santa Paula	1
Adine	1
Nabi Salih	1
Atlantic City	1
Puerto Natales	1
La París	1
Great	1
Modesto	1
Trebes	1
Carcassone	1
Lema	1
Belgrano.	1
SwatValley	1
Río-	1
Sao Bernardo Do Campo	1
Autónoma	1
Vacchina	1
Minas Gerais.ß	1
Cascassonne	1
Khan Sheikkhoun	1
Astoria	1
Greenwich Village	1
Novaresio	1
Stepney	1
Pomerania	1
Crossensee	1
Telde	1
Upoli	1
Villa Rafaela Herrera	1
Pluma de Pato	1
Zanella	1
Thika	1
Wambrechies	1
Smith	1
Martin Rodríguez	1
Craiova	1
Arregui	1
Okayama	1
Chaco Salteño	1
Río Chubut	1
Vuola	1
Yamila Parado	1
Miguel Quintana	1
Franja Morada	1
Alcochete	1
Manuela	1
Ibera	1
Killeen	1
Parlkalnd	1
Sunderland	1
Galveston	1
Waiheke	1
Surinam	1
Uruguaiana	1
Avroy	1
Chiara	1
Puerto General	1
Télam	1
Uberlandia	1
João Pinheiro	1
Contagem	1
Jinotega	1
Kratovo	1
Bronnitsy	1
Trenton	1
Mercer	1
El Tornillo	1
Andover	1
Bexhill	1
Fremont	1
LagoPuelo	1
Nihzni Nóvgorod	1
LaMatanza	1
Appalachia	1
Nizhni	1
Pateo	1
San Judas	1
Tanauan	1
La Sucera	1
Kitzsteinhorn	1
Uocra	1
Barrio Samoré	1
RIOS	1
Darengarh	1
Genk	1
Municipal	1
Zanja Honda	1
El Chipote	1
Urdaneta	1
La Hoya	1
Bueno Aire	1
BahiaBlanca	1
Carrollton	1
Lombok Oriental	1
Charllotesville	1
Tres Febrero	1
Casalecchio	1
PLATA-.Los	1
Marcelo T. De Alvear	1
av	1
Bynon	1
Barragán	1
Masyaf	1
Brookside	1
Mamboretá	1
Westminster-	1
Radio del Plata	1
Entre Ríos/Callao	1
Recoleta Ignacio Sánchez	1
Ignacio	1
Mataro	1
Palmeirante	1
Barrio Nuevo	1
Delfos	1
Paisley Park	1
Cayo Siesta	1
SáenzPeña	1
Rinkeby	1
Santos Irigoyen	1
Ancaste	1
Pedro Velarde	1
Barrio Anchorena	1
Juiz	1
Fora	1
Heuksapa	1
Radha Nagar	1
Villa Anita	1
Moreno Corina De	1
Valle de Susa	1
Fuiz de Fora	1
Minas Gerais-	1
Juanse	1
McCafé	1
Rajil	1
América del Sur	1
Guyanas	1
Dari	1
Soyem	1
María Reina	1
Eva Peron	1
Cossettini	1
Nova Iguaçu	1
Lynch	1
Villaflor	1
Maizani	1
Nadia Murad	1
E.	1
Bongiavani	1
Reina María	1
Brasnorte	1
Gilead	1
Epecuén	1
Tabgha	1
El Pucú	1
Cristo Pescador	1
Saadiyeh	1
Salahuddin	1
Kirku	1
Sousah	1
Kerch	1
Marechal	1
Tecún	1
Tupusay	1
Acajete	1
Buenos Aires.Ayer	1
Esmeraldas–	1
Estefanía	1
Pacajús	1
Pacajus	1
Los Corralitos	1
Nicole	1
La Churrasquita	1
Matadero-Franklin	1
La Habana-	1
Cáritas	1
Curuzú Cuatía	1
Valles	1
nuestro	1
Recoleta-	1
Winkul Mapu	1
Lafken	1
Coloccini	1
Saint-Quentin	1
Port Kaituma	1
Butte	1
Usuhaia	1
Al-Saleh	1
Huludao	1
Liaoning	1
Puente 12	1
Dos Erres	1
Touro	1
Sabarimala	1
La Laja	1
Charleville-Mezières	1
Villa Rumpai	1
Jaghori	1
Rafina	1
Kijiji	1
Southlands	1
Milagres	1
Dos	1
Elordi	1
Joguri	1
Maastricht	1
Eindhoven	1
Groninga	1
Neudorf	1
Glovo	1
Obeliso	1
Antibes	1
Hong Konk	1
Mountain View	1
Périgueux-	1
Eltrece	1
Deir-Ezzor	1
Pueto Gaboto	1
Le Boulou	1
El Campo	1
Mount	1
CTBA	1
Álvarez Thomas	1
Talamuyuna	1
Solís 5951	1
Tlaxiaco	1
Luis Piedra	1
Norquín	1
Próvolo	1
Torrance	1
Döbeln	1
Ciudad del Vaticano	1
Saint-Brieuc	1
Bourges	1
Carabelleda	1
Caraballeda	1
Berlín Barcelona	1
Lahj	1
Schweizer-Reneke	1
Porcaro	1
Simacota	1
Longchamp	1
Tuxpan-Tula	1
Santiago Roca	1
Pinto Salinas	1
Venzuela	1
Everington	1
Duala	1
Brumadinho-MG	1
Mina Gerais	1
El Mozote	1
San Agustín Tlaxiaca	1
Texmelucan	1
Mar del Plata.Las	1
Batan	1
Ninho do Urubú	1
Ninho	1
Urubu	1
Montreff	1
Providenciales	1
San Juan Santiago del Estero	1
Quatzenheim	1
Sentinel	1
Leitmeritz	1
Kamaracupay	1
Vega de Aza	1
Santa Elena del Uairén	1
Jurong	1
Mendizorroza	1
Nozshera	1
Pathankot	1
Uairen	1
Cousiño	1
Dogon	1
Gondogourou	1
Urimare	1
Sector 7	1
Bassi	1
Sauzalito	1
Jambaló	1
Barranca Bermejo	1
Noor	1
Lindwood	1
Hagley Park	1
DotEmpezamos	1
Chritschurch	1
Brasil-	1
Al Noor	1
Céspedes	1
Utrech	1
Jawf	1
Bayda	1
Ciudad Gótica	1
Koszalín	1
yumani	1
Senda	1
Leme	1
Villa Carmela	1
Arruabarrena	1
Prahran	1
Curapaligue	1
Arlés	1
británica	1
Pont Saint-Louis	1
Nicolás Avellaneda	1
Batticoloa	1
Shangri-La	1
Katana	1
Monte Dorrego	1
Aranthawala	1
Kochchikade	1
Sainthamaruthu	1
Sankt	1
Lakehurst	1
Highland Ranch	1
Tucupita	1
Bebote	1
Capiatá	1
Carapchay	1
Catia La Mar	1
Juan Navarro	1
Punta Libre	1
ituzaingo	1
Ituzaingó.Terrible	1
Honorio Pueyrredón	1
Brown	1
La Fluvial	1
Blackpool	1
Navarro Cádiz	1
Brandywine	1
Picpus	1
Kot	1
Castelar…	1
de Chaco	1
Rosario-Santa Fe	1
Samco	1
Spurs	1
Gallos	1
Strand	1
Socopó	1
Chávez	1
Butembo	1
Cambes	1
Cambareri	1
Loma Verde	1
João Pessoa	1
Perín	1
Sierras Blancas	1
Alfredo Palacios	1
O'Gorman	1
Puerto Tejada	1
Cheshire	1
Táriba	1
Canterbury	1
Karlovy Vary	1
irlandesa	1
Guiñazú	1
Basabilbaso	1
Vila de Rei	1
Yueng Long	1
Guaynabo	1
Isla de Vieques	1
Cono Sur	1
Sorenga	1
Ugento	1
PuertoRico	1
Plataforma	1
Cantera	1
Old San Juan	1
Avellaneda.Gestión	1
Brownville	1
Villa Tujui	1
Gilroy	1
Vera Mujica	1
Voerde	1
Pichetto	1
Frigerio	1
Chippewa Falls	1
Grennpeace	1
California-	1
Tai Po	1
Hong Kong Philip Fong	1
Tai	1
Yakutsk	1
Olympia	1
Liard	1
Pittbsburg	1
Curupaytí/	1
Merlo Norte	1
Bonne Nuit Bay	1
Risso	1
El Pozito	1
Retamo	1
Barriales	1
To Kwa Wan	1
Almirantazgo	1
Starnberg	1
Roboré	1
Emilio	1
Miralla	1
Sao Felix do Xingú	1
San Ignacio de Velasco	1
West Texas	1
Rawson Hernán	1
Avivim	1
Villeneuve-le-Roi	1
Bellavista	1
Suarez	1
Cauca.Exigimos	1
Rio De Janeiro	1
Seattle-	1
San Cruz	1
Pie Juan	1
Damman	1
Brás	1
Sharikar	1
Palangka Raya	1
Barrios de Pie-Libres del Sur	1
Fukushima	1
Thunberg	1
Hellas	1
Puente Saavedra Silvana Colombo	1
Bamiyan	1
Cruz Chica	1
El Pungo	1
Pueblo Nativo	1
Puente Labruna	1
Varisco	1
London.With	1
Watergate	1
Athit Perawongmetha	1
Cuidad	1
Choque	1
Nobleza	1
River-Chacarita	1
San Luis Mextepec	1
El-Kusheh	1
Bitschwiller-Les-Thann	1
Ciulla	1
Urus-Martan	1
Nobeira	1
El Salero	1
Pisba	1
Mogotes	1
Tilquiza	1
Ballyclare	1
Ulster-	1
Downpatrick	1
el Este	1
Athel	1
PuertoArgentino	1
Lunsar	1
Buñuel	1
Kadena	1
Deir-Sharaf	1
San Lucas	1
La Cruz	1
Villa Gobernador	1
Villabona	1
Barina	1
Fort Benning	1
Menteng	1
Caldas-	1
Olivos En	1
Wismar	1
Deggendorf	1
Macklemburgo	1
Tostedt	1
Bochun	1
Schweinrich	1
Loessnitz	1
Rockenhausen	1
Bolueta	1
Carmen de Atrato	1
Berriozar	1
Lal	1
Sringar	1
Monte Carlos	1
Piray	1
Munguia	1
DŸsseldorf	1
Zwickaw	1
Schleswig	1
Severomorsk	1
Ara Coeli	1
Tor	1
Sallent de Gállego	1
Or	1
Colpayo	1
San Marcelo	1
Caimito	1
Vejce	1
Netzer	1
Bañado Norte	1
Seminarios	1
Adelina	1
Bruehl	1
Vaksince	1
Blace	1
Sari	1
Necoclí	1
San Juan de Urabá	1
Kfar Aza	1
Odría	1
Beit Yala	1
Petaj Tikva	1
Floriana	1
Suárez-	1
White	1
Quezón	1
Sultan	1
Barongis	1
Mazzotti	1
1700	1
El Poblado	1
Jacinto Aráuz	1
Valle Azul	1
Kalil	1
Idizabal	1
Hullapima	1
En Formosa	1
Idevi	1
Carapebus	1
Morón-Hurlingham	1
Casa de	1
Bophal	1
Virrey del Pin	1
Kuito	1
Caxito	1
Cerro de Pasco	1
Manises	1
Maccabi	1
Buenos Aires.No	1
Samal	1
Greenhill	1
Ayslebury	1
Buckinghamshire	1
Westwood	1
Calzar	1
Tupes	1
Los Topes	1
Salvador Maza	1
Narayan Hity	1
Katmand	1
La Molina	1
Bateca	1
Eberswalde	1
Tetovo (	1
Harehills	1
Villa Corchito	1
Bente Jbeil	1
Draperstown	1
Santillán	1
de Alvear	1
Gayre	1
Sipkovica	1
Lisec	1
Luben Al	1
Lantawan	1
Aluche	1
Aerporaque	1
San Matín	1
La Pista	1
Maraboto	1
Narayangaj	1
Villa San	1
Estado de Manipur	1
Imphal	1
Einav	1
Shaavei	1
Tecprol	1
Nuestra Señora de Fátima	1
Pueblo Rico	1
Timbío	1
Perú 2	1
Mesker-Iurt	1
Radusa	1
Picota	1
Burnley	1
Caloto (	1
Kiangsi	1
Jiangsi	1
El Viso	1
El Cotorro	1
Wenceslao Villafañe	1
Recoba	1
Sheeba	1
En el conurbano	1
Pedro Echagüe	1
Bichaur	1
Nuwakot	1
Weston Park	1
Timor Occidental	1
Nuestra Señora de Pilar	1
do Tanque	1
Leaburu	1
Villa Loyola	1
La Plata En La Plata	1
Avezzano	1
Abruzzo	1
Saenz Peña	1
Angouleme	1
Montmorillon	1
Auxerre	1
Fregene	1
Cono	1
Mugron	1
Mahuad	1
Sagrado	1
Chevrón-San Jorge	1
Entre Lomas	1
Planicie Banderita	1
Staglieno	1
Behmai	1
Coveñas	1
Barsi y Liesa	1
Lago Ohrid	1
Capital Federal-	1
La Chimbera	1
Ralih	1
Bitunia	1
Ebal	1
Lejanías	1
Bondar	1
Benjamín Cabral	1
Hendon	1
El Bire	1
Lamitán	1
Lo-ok	1
Hildesheim	1
Deva	1
San Juan y	1
Apache	1
Los Sarmientos	1
Vavuniya	1
Ohrid	1
Kiriat Motzkin	1
Kiryat Motzkin	1
Limestone	1
Rataje	1
Shell	1
Stanlow	1
Kingsbury	1
Foix	1
Bar-Le-Duc	1
Amalfi	1
Nivelles	1
Feluy	1
Tetre	1
de Río	1
Larrázabal	1
Tulkárem	1
La Dulce	1
BOULOGNE	1
LOS	1
Astrakhan	1
Bondlamotu	1
Jangaon	1
Bangú 1	1
Alto Valle de Ibayaí	1
Chinhoyi	1
Psagot	1
Limanche	1
Infanta	1
Beaucaire	1
Gard	1
Marinilla	1
Holthausen-Biene	1
El Bireh	1
Calderón	1
La Barca	1
Barajas-	1
Paza de Mayo	1
Akasaka	1
Cutral- Có	1
Galdakao	1
Helsinborg	1
Ystad	1
Trelleborg	1
Carmensa	1
Casilda-	1
YORK.-	1
Tamoun	1
Arrabeh	1
Lebrija	1
Sumapaz	1
Vero	1
Cantuta	1
Los Estados	1
Sbarro	1
Humauaca	1
Midtown	1
Mailín	1
Camp David	1
Volcán Tocuyo	1
Daghestan	1
Roque Sanz Peña	1
Banaras Chowk	1
Wash-ington	1
Dashat-e-Barchi	1
Sangam	1
Embassy Row	1
Semíramis	1
Zaare	1
Guri Mar	1
Zari	1
Sangcharak	1
Baja Sajonia	1
O´	1
Malir	1
Términi	1
Ciego	1
Qades	1
NuevaYork	1
Gorostegui	1
Glattbrugg	1
Puente Blanco	1
Tiwanaku	1
Pelhu Kulgam	1
Boyana	1
Hairaton	1
Jalalabar	1
Shindand	1
Kkunduz	1
Kuchlako	1
Kost	1
Schwalbach	1
Mezar-e-Sharif	1
Dalbandin	1
Fergana	1
EE	1
Cintegabelle	1
Haute-Garonne	1
Villa Dominico-	1
Racice	1
Kotal	1
Quintino Bocayuva	1
Samarbagh	1
Malakand	1
Chilas	1
Khoja Bohawdin	1
Metzer	1
Belén-Beit	1
Behawalpur	1
Garro	1
Java Central	1
Aq Kupruk	1
Shaked	1
Fortín Olavarría	1
Huarina	1
DERQUI	1
Sánchez de Bustamante	1
Calatayud	1
SanIsidro	1
del Pilar	1
Sierra de los	1
Semangan	1
Jowzjan	1
Torkham	1
Tejedor	1
Colo Colo	1
San Mauricio	1
Rammalah	1
Talokán	1
Vinto	1
La Matanza-	1
Garayalde	1
Coronel Deheza	1
Murature	1
Rizo Patrón	1
Maidan Sharan	1
Jan Younis	1
Arabuat	1
Jan Iunes	1
Kurchaloi	1
Vedeno	1
Shali	1
Birmimgham	1
Deir el-Ballah	1
Sudaniye	1
Nacaome	1
Pul-i-Thakhta	1
Arghasan	1
Bustamante	1
Qalai	1
Plazo de Mayo	1
Pardés Janá	1
Vadi	1
Halitsa	1
Rav Kook	1
Bezarategui	1
Kandajar	1
Preignan	1
Jeruaslén	1
Francés	1
Malvern	1
Great Valley	1
Chester	1
Hoyuelos	1
Wihdat	1
Coninagroy	1
Fiorentina	1
Capilla de Nieve	1
Hanoun	1
En Concordia	1
En Chajarí	1
Pyatigorsk	1
Nevinnomyssk	1
Tiro Suizo	1
Julio A Roca	1
Las Catonas	1
Barrio Guiñazú	1
Del Libertador	1
Ortiz de Campo	1
Lima Oeste	1
Piedra Labrada	1
Tupai Cupanqui	1
Callao 1550	1
Junín 1400	1
Plata-	1
Villa Catela	1
Musimundo	1
Villa Insuperable	1
Corrientes.A	1
Katyushka	1
Sammaka	1
Ruweisat	1
Sangatte	1
Coquelles	1
Laguna Amarilla	1
Hari Marhot	1
Berhongaray	1
Dibel	1
Palermo Nuevo	1
Chimoré	1
Natzeret	1
Portero	1
Pte	1
Glenbryn	1
Estado de Nassarawa	1
Tarento	1
San José de Albán	1
Rafael Núñez	1
Pettoruti	1
Marqués de Sobremonte	1
Barrio Providencia	1
Baliña	1
Iparaguirre	1
Rathcoole	1
Owo	1
Folagbade	1
Los Arenales	1
Ribeirao Corrente	1
Catanduva	1
Muriondo	1
Darham	1
Mato Grosso do	1
SP	1
San martín	1
Berizzo	1
F. Lacroze	1
Pidie	1
Bolivar y Andrade	1
Hazmiyeh	1
Añasco	1
Duhalde	1
Oca y Suárez	1
Castrobarro	1
Villa Industrial	1
Ijeja	1
Puente La noria	1
La Soledad	1
Sagemüller	1
Biafra	1
Haoerth	1
Nueva York/Stoke Mandeville	1
Misión Laishí	1
Sidi Ammar	1
Hamra	1
bocacalle	1
Provincias	1
Pepsi	1
Hebrón-	1
Hertforshire	1
Villafate	1
Mangalsen	1
Sanphebaga	1
Karnei Shomron	1
Acham	1
Friar	1
Mehola	1
Al-Ayatt	1
Rioja y Mitre	1
Bmé Mitre	1
La Gabarra	1
Fómeque	1
Rajkot	1
Miramar-	1
Alto La Sierra	1
Babunagar	1
Barrio Empalme	1
Bet Israel	1
La Cascada	1
Fusagasugá	1
Hadhramaut	1
Naharya	1
Paktya	1
Zipacón	1
Molfino	1
Anglada	1
La Serenísima	1
Zur	1
Altos de	1
Vina	1
Belgrano-	1
Punta del Agua	1
Silat al Zaher	1
Khouza	1
Atsmona	1
Nentaya	1
Natagaima	1
Silvania	1
Natania	1
Llanos Orientales	1
Lynbrook	1
Haluhul	1
Gral Paz	1
Nyabiraba	1
VILLA ARIZA	1
Shuna	1
Ouro Preto	1
Akaba	1
Córrego	1
Cardoso	1
Ateret	1
Mar del Plata San Isidro	1
Risieri	1
Hauts-de-Seine	1
Zoug	1
Hafiz Bachach	1
Huara	1
Mamiña	1
José Ingeniero	1
San Clemente del Tuyú	1
Fatap	1
Kiryat Yovel	1
Torredembarra	1
Baqaa	1
Yandi	1
Delta bonaerense	1
Teaneck	1
Jersey City	1
Chacarita-Boca	1
Belgrano-Newell	1
Lanús-Estudiantes	1
Zarga	1
San Pantaleón	1
Marsella ( Sur	1
Duchere	1
Rhone	1
fueguina	1
Fuente de Oro	1
Alto Río Senguerr	1
capital	1
Picanya	1
Tavernes Blanques	1
Güira	1
Guira de Melena	1
El Pescado	1
Carmona	1
La Yaguara	1
La Concordia	1
Milanello	1
Puerto Libertad	1
Kibbutz Yagur	1
Tulua	1
del Valle	1
BesanÇon	1
Wolfhalden	1
Le Marais	1
Materfer	1
Tatané	1
BERLIN.-	1
Kalquilya	1
Neuquén En Plottier	1
Guarne	1
Rivero	1
Hamas	1
cisjordana	1
Avelín	1
Caminito	1
Ayodhya	1
Rolpa	1
Doti	1
Jerusalén Occidental	1
Rishón Le Tsión	1
Rison Letzin	1
Fortuyn	1
Rishon Litzion	1
Battery Park City	1
Capillo	1
San Manuel	1
Estación López	1
Tedín Uriburu	1
Samba	1
Ramgarh	1
R.S	1
Kaluchak	1
Mariscal Castilla	1
Corrado	1
Kaspijsk	1
países	1
Chachemira	1
El Foyel	1
Calaba Town	1
Suquía	1
Salta Capital	1
Alicia Moreau de Justo	1
Sendagaya	1
Rishón Le Sión	1
Sueba	1
Ilha do Governador	1
Peña y Funes	1
Megido	1
Meggido	1
Koyang	1
Manrique	1
Cajibío	1
Caguán	1
Sokolov	1
Herzilya	1
Kiryat Arba	1
Vigo-	1
Tulumaya	1
Camaná	1
Arrecifes-	1
Vasco	1
asentamiento	1
Barcelona–	1
Huwara	1
Mijas	1
El Ciclón	1
Hospital	1
La Trocha	1
Agrigento	1
Kolda	1
Ziguinchor	1
Casamance	1
cuyanas	1
Leblón	1
Chuy	1
Livramento	1
Juana	1
La Fe	1
West Palm Beach	1
Conde	1
Santos Dumont	1
Larba	1
Carril	1
Lomas de Mariló	1
Quindici	1
Guicán	1
Maluco Beleza	1
Sumatra del Sur	1
Palembang	1
Sarmientos	1
Ranchillos	1
Yamun	1
Mirabelli	1
Olleros 74	1
Qasim Nagar	1
Oca-	1
Briceño	1
Merlo y Belgrano	1
Magdala	1
Mones Cazón	1
Ponta Porá	1
Emanuel	1
Porteneur	1
Davicce	1
Pifo	1
Yabalya	1
Zurita	1
Casavalle	1
Pedro Chutro	1
Tsfat	1
Muree	1
Murree	1
Clemencia	1
Shatói	1
Al Maragha	1
Cubarral	1
Ríonegro	1
Manuel Gonnet	1
El Cartucho	1
Santa Rosa de Lima	1
San Justo-	1
Charcas y Borges	1
Villa Barceló	1
Mejora	1
Duguit	1
Louben e-Sharkiye	1
Río Luján	1
Lomás	1
BenavÍdez	1
Meron	1
Reta	1
Algarrobo	1
Raksamgiri	1
Homero	1
Haruwen	1
Penitentes	1
Vallecitos	1
La Ranita	1
Duadasan Bhala	1
Ganodh	1
Rajouri	1
Bilbao-	1
VILLA	1
Lafferrére	1
Cardeza	1
Estaban	1
Jabiluka	1
Rednag	1
Kupwara	1
Penssylvania	1
Battery	1
Udinese	1
Bhiman	1
Gernica	1
Entre Rios y Pavón	1
Alsina y Moreno	1
Belgrano R	1
Olivos Solá	1
Balestrini	1
Arguello	1
Bouake	1
Khorogo	1
Gretz-Armainvilliers	1
Abuelas	1
Ezequiel Demonty	1
Slawi	1
Rafa	1
Doble Visera	1
Quillota	1
Basurto	1
Tallil	1
Harlan-	1
Figheira	1
ruandesa	1
Srinagar-	1
Satkhira	1
Embú das Artes	1
Abadino	1
Acá	1
Porterville	1
Baixada Fluminense	1
Belford Roxo	1
Bangu I	1
Beira	1
Guilin	1
Cañada Doce	1
Braganza	1
Steyr	1
Prince	1
Qom ( Sur	1
Puente Puyerredón	1
Abadán	1
Fredericksburg	1
Bernardo de	1
Plátanos	1
Bangú 3	1
Gallito	1
Pardes Hana	1
Nakhon Pathom	1
Bogotazo	1
Quezon City	1
Magadán	1
Medeiro	1
Trelew.En	1
Mechongué	1
Villupuram	1
Boggiano	1
Augusta	1
Distrito de Columbia	1
Al Warraq	1
Molise	1
San Giuliano di Puglia	1
Abbruzzo	1
Isernia	1
Bonefro	1
Santa Croce di Magliano	1
San Giugliano di Puglia	1
Umbría	1
El Jadida	1
San Miguel-	1
Violetas	1
Puerto Iguazó	1
Jumla	1
Gorkha	1
Villa Dálmine	1
Villa Los	1
Pont-de-Beauvoisin	1
Isere	1
Cox	1
Villa Argentina	1
Lucanamarca	1
Abu Snena	1
Cupica	1
Jharkhand	1
Nove Mesto	1
Kiryat	1
Raghunath	1
Marsellas	1
Yamu	1
Kadur	1
Sant´Arcangelo	1
Guaraz	1
Midland	1
All	1
Beith Shean	1
Bet Shean	1
Yulabún	1
Compostela	1
Independiente-Boca	1
Sulawesi Sur	1
Ingle	1
Acceso Oeste	1
Río Salado	1
Ambalema	1
Mymenshingly	1
Djoualil	1
Mymenshingh	1
Arese	1
Cassino	1
turinesa	1
Clara Campoamor	1
Courel	1
Zarzal	1
Prados del Este	1
San Martín Quinta	1
Urt	1
La Campiña	1
HORQUETA	1
Duekoue	1
Datu	1
Datu Piang	1
Barroetaveña	1
Breznicki Muhadjiri	1
Sanna	1
Ibb	1
Yataití-Corá	1
Boquerón	1
Tarrytown	1
Quipile	1
Parque Americano	1
Gadish	1
Campo San Juan	1
Bella Vista Oeste	1
Santa Rosa de Río	1
Roissy	1
Cayarani	1
Talar de	1
Panamco	1
Ruca Hueney	1
Meklenburgo-Antepomerania	1
Cañadón Ferrays	1
La Begoña	1
Punta Ballena	1
Estado de Miranda	1
Teresa	1
El Doncello	1
Negros	1
Molucas	1
Netanyá	1
Hisme	1
Nacogdoches	1
Tapuah	1
Querandíes	1
kurdas	1
Dohuk	1
Yanamayo	1
Heathrow	1
arrabales	1
Asia y	1
Nueva Gales	1
Capellán	1
Haedo Sur	1
Joongang	1
Arrayanes	1
ZAMBOANGA	1
Kalawit	1
Zamboanga del Norte	1
Parque La Vega	1
Comprido	1
Sumalao	1
San Antonio de La Paz	1
Lucca	1
Halisa	1
Córboba	1
El Pachón	1
Vitry	1
Pitanga	1
Estado de Pernambuco	1
La Tercera	1
Sargodha	1
Riobanba	1
Kilburn	1
Naseirat	1
Kalak	1
Buenos Aires.	1
Pidras	1
Tacuari	1
Al-Mansour	1
Limpopo	1
Cochinchina	1
Bella Unión	1
Raduaniye	1
East Lansing	1
Shirnak	1
Siirte	1
Biga	1
Kasmhir	1
Iman Anas	1
Um Oasr	1
Fairford	1
Umm Qasr	1
Jormal	1
Rosario -Santa Fe-	1
Muzanna	1
Suq Al Shuyuj	1
An Najaf	1
Olwayia	1
Nayef	1
América Latina	1
Martín Rodríguez y Virgilio	1
Angat	1
Pandi	1
Sanawaj	1
Diwaniyaj	1
Paraguayos	1
Karbalá	1
Hindiya	1
Hella	1
formoseña	1
General Moscón	1
Coto y Güemes	1
Faida	1
Kifri	1
Jaba	1
Alcoy	1
Oteifiya	1
Ali	1
Mosul-	1
Pontevico	1
Cuenca 3405	1
México D.F	1
Oristano	1
Brukman	1
Vilela 1802	1
Ziab	1
Al-Khader	1
Sicilia.-	1
Dakota del Sur	1
Mendelssohn	1
Kursk	1
Acicastello	1
Caltanisetta	1
Latendorf	1
Sinkiang	1
Nadterechni	1
Garnata	1
Siyanco	1
Nadterechny	1
Vila Moura	1
Cizur	1
Madrasa	1
Estado de Acre	1
POMPEYA	1
Annemase	1
Evian-	1
Andoiain	1
Radicondoli	1
Thonex-Ballard	1
Annemasse	1
Staudt	1
Tchomia	1
Kfar Kila	1
Balneario	1
Salt	1
Kloster	1
Znemenskoye	1
Capitán Artigas	1
Argüello Norte	1
Anjar	1
Tolouse	1
Chubut Formosa	1
Beisán	1
Rodríguez Saá	1
Rubén Marín	1
Quaim	1
escocés	1
Samar	1
Oras	1
Hadiza	1
Yabed	1
Uranmarca	1
Capuleto	1
Montesco	1
Vila Belmiro	1
Capitol Heights	1
Vesprini	1
Cair	1
Xiongqiao	1
Borzoy	1
Otisfield	1
Hadiyah	1
Al-Mansur	1
Guayamba	1
Spinboldak	1
Shero	1
Situbondo	1
Leonina	1
Bureida	1
Nebot	1
Colonia Segovia	1
Dac Lac	1
Gia Lai	1
Cristo Rey	1
Farmingville	1
Leioa	1
Diamir	1
Guarda	1
Mea Shearim	1
liberiana	1
Estrada	1
Al Amariya	1
Ascar	1
Caqueza	1
Sao Pedro	1
Sao Jo‹o	1
Bab al Muazam	1
Kiryat Shemona	1
Cataratas	1
Rosh	1
Rosh Haayin	1
Les Sables	1
’ Olonne	1
Rosh Ha´ayin	1
Nadh Ali	1
Yaconis	1
Douclot	1
Candonga	1
Vaquerías	1
Isabel	1
Tuzjulmato	1
Drysdale	1
Tuz Kharmato	1
Santa María del Pi	1
Janyunes	1
Canicoba Corral	1
Estomba	1
Portella	1
Tirol	1
Feldkirch	1
Oahu	1
Eretz	1
Luchou	1
Qadimiya	1
Haiderlabad	1
Cárcano	1
Boniato	1
Rafidíe	1
Highland	1
Camp Sherman	1
Caraibas	1
Tzrifin	1
UCR	1
Kalkiliya	1
Ñuñoay	1
Magas	1
Magdalena Medio	1
Sorata-	1
Al-Sakr	1
Rajuri	1
Paz-	1
Ampliación	1
Fray M. Esquiú	1
Shangai	1
Omasuyos	1
Larecaja	1
Ingavi	1
Waracachi	1
Pelotas	1
Khak-e-Afghan	1
Muthana	1
Qarqush	1
Juanito	1
M´Bopicuá	1
Yolosa	1
Al Haswah	1
San Andresito	1
Ventilla	1
Ybna	1
Oref	1
Hattin	1
Winterhur	1
Umbria	1
Kenko	1
Barrio Parque Barón	1
Villa de Merlo	1
Cota Cota	1
Aranjuez	1
Ichilo	1
Churubamba	1
Iglesias	1
Salinas de Bustos	1
Los Altos de Chiapas	1
Kuala Kuayan	1
Cempaga	1
Parenggean	1
Kasongan	1
Sallent de Gallego	1
La Hormiga	1
Jésica	1
Borneo	1
Madura	1
Jadara	1
Neveh	1
Guática	1
Villa las Rosas	1
Pakhtunistán	1
Buenos Ares	1
Fitalancao	1
Salam	1
Mosconi-Tartagal	1
Heet	1
Fray Justo Santa María de Oro	1
Azzoun	1
Al Jamea	1
Tikrit-	1
Muhaya	1
Muhayia	1
Wadi Laban	1
Bras	1
Hérat	1
Azur	1
Unama	1
Shehr e Nau	1
Konar	1
Vila do Joao	1
Vila Esperanza	1
Pilares	1
Saydiya	1
Chijra	1
El Quetzal	1
Chajul	1
Troitskaya	1
Ciampino	1
bogotano	1
Gagny	1
RMN	1
Przytyk	1
Levent	1
Casa de Salta	1
Sedgefield	1
Jan Bani Saad	1
Baaquuba	1
Yussufiyah	1
Chiriguaná	1
Cali y	1
Baquoba	1
Khan Bani	1
Villa Berna	1
Levant	1
Moscón	1
Tbilsi	1
Neuquén Señor	1
Udhampur	1
Carapita	1
Messaad	1
Xinjian	1
Molineux	1
Lutayfiyah	1
Cördoba	1
Husaybah	1
Neuquén.La	1
Challapata	1
Toniolli	1
Sobral	1
Yabel	1
Inguscezia	1
Sasetru	1
Milpa Alta	1
Gosinci	1
Yesentukí	1
Bidart	1
Husseiniya	1
Aizpurúa	1
Gardez	1
Tulkarm	1
Módena	1
Villa El Salvador	1
Puerto Falcón	1
Adhamiyeh	1
Husseinniyah	1
Shauri	1
Tsunti	1
al-Bayá	1
Faluyá	1
Presidencia Sáenz Peña	1
Tigris	1
Chamartín	1
Bururi	1
el Río	1
Creamfields	1
Schoenbruch	1
Baka Al-Garabíe	1
Baka	1
rusa	1
Ku-Ring-Gai	1
Appin	1
Dubbo	1
Bhakkar	1
Curdistán	1
Kicevo	1
Likovo	1
Lucciana	1
Riazán	1
Barnes	1
Berkshire	1
Jalula	1
Haza	1
Kumanovo	1
Alesovce	1
Sllupcanje	1
Argentores	1
Comodro	1
Chur	1
Faluye	1
Uganda.-	1
Noya	1
En Santa Fe	1
Siancas	1
Itaembé Miní	1
Beit-Aua	1
Puerto Banus	1
Cocodrilo	1
Falabella	1
Karnal	1
Foxboro	1
Pantano do Sul	1
Entre Ríos 272	1
Moscúno	1
Dagestán	1
Peciatniki	1
Moscó	1
PL	1
Argu	1
Puerto Príncipe-	1
Boca-Chacarita	1
Grand Goave	1
Shajaiye	1
VARELA	1
Kavre	1
Al Dafna	1
Plateau Central	1
Puteolana-Foggia	1
C-2	1
Benevento-Messina	1
Al Hilla	1
Camp Charlie	1
Nuoro	1
Amritsar	1
Gajre	1
Ouanaminthe	1
Uanamindhe	1
Savanette	1
Fort-Liberté	1
Barlonyo	1
Lira	1
Saint-Rapha	1
Terre Rouge	1
Colonia La Tordilla	1
Beit Sourik	1
Puerto Paz	1
Puerto de Paz	1
Beit Surik	1
Marela	1
Port-de-Paix	1
Cayes Cayes	1
Cotes-de-Fer	1
Cavallon	1
Maripérez	1
Cap- Ha•tien	1
Vanesa	1
Talpiot	1
Wendisch Evern	1
Mevasseret	1
Croix	1
Carbobo	1
Bhojpur	1
Para	1
La Feliz	1
Defensa-	1
Iturra	1
Sheik Fatihi	1
Queta	1
Levallois	1
Sadop	1
Savoy	1
Lakia	1
Torrontegui	1
Arras	1
Manassas	1
Perejil	1
Roses	1
Lince	1
Pucará	1
Espana	1
Caglavica	1
Velazco	1
Fitz Roy	1
Lipljan	1
Bica	1
Vitine	1
Azamyia	1
Resistencia…	1
Cueto	1
Kong Kong	1
Torrejón	1
Ceibo	1
Al-Hamsa	1
Fall	1
Gap	1
Roma-	1
Cárcel Modelo	1
El Bermejo	1
Porras	1
Gjirokaster	1
Korce	1
Fier	1
Camp Devens	1
omagh	1
Chorsu	1
uzbeca	1
Yalangach	1
Malahma	1
Chinchón	1
Taksin	1
Bujara	1
Saragoza	1
Perusa	1
Zelarrayán y Cuyo	1
Blackwater	1
Naseriya	1
Shula	1
Kazimiah	1
Juan Díaz	1
Juan Díaz de Solís	1
Paya	1
Pucuru	1
Dubat	1
Baladrooz	1
Al Adhamiya	1
Uri	1
Las Grutas	1
Playas Doradas	1
Mahawail	1
Kwazulu-Natal	1
Damonte	1
Baramulla	1
Baster	1
Saudia	1
Al-Murabaa	1
Zubair	1
Lucila	1
Lanús-Racing	1
Jeda	1
Abbott	1
Diwaniyah	1
Naratiwat	1
Mezzeh	1
Al Jaledia	1
Golan	1
Jalidiyah	1
Lodz	1
Carlos Centro	1
Tilali	1
Charrúa 3340	1
Gorizia	1
Caracas.Las	1
Asución	1
Colmegna	1
Scarlatti	1
Colque	1
Avturi	1
Tsentoroi	1
Vimy	1
Maorusi	1
Raúl Castells	1
Kanpur	1
Al Qaem	1
Japu	1
Mdeirej-Hammana	1
Urus Martan	1
Los Polvorinespara	1
Tel Sultan	1
Al-Barazil	1
Tingo María	1
Jammú-Cachemira	1
Lower Munda	1
Apartado	1
Hay al-Silon	1
A La Plata	1
Yussufiyeh	1
Larisa	1
Murillo	1
Summerall	1
Leopoldina	1
Harthiyah	1
Taifo	1
Empedrado	1
Rugari	1
Sea Island	1
Musayab	1
Pahalgam	1
QUEBEC	1
Las Palancas	1
Tepatepec	1
Lisandro Barrau	1
Antwerp	1
Chuch	1
Albufeira	1
As Suvvayrah	1
Yazrib	1
Iskaka	1
As	1
Al Malaz	1
Ahern	1
República Ingush	1
Nazrán	1
Sleptsóvskaya	1
Troiskoi	1
Sleptoskaia	1
Ordzhonikidzovskoi	1
Yandare	1
Callao 214	1
Reconquista 101	1
Capa	1
Baaquba En Baaquba	1
Suárez-Atlanta	1
Shannon	1
Yalalabad	1
Montecorvino	1
Puch	1
Abar	1
Al Iskandariya	1
Azimiyá	1
Varela y Pichincha	1
La Boca-	1
Ilion	1
Cóndor	1
Alto Samaná	1
Tlul al-Baj	1
Estero-	1
Font-du-Lac	1
Beji	1
Caimri	1
28 de	1
Seif Saad	1
Ghisonaccia	1
Talar del Pacheco	1
Rio Iguazú	1
Seidiye	1
Kumbhakonam	1
Adel	1
Bendlerblock	1
Ploetzensee	1
Sánchez Dumont	1
Jubail	1
Shush	1
Niemieyah	1
Shoham	1
Edese	1
Al-Nadja	1
Suwaira	1
Suleia	1
Morata	1
Tajuna	1
Tachkent	1
Fatehjung	1
Attock	1
Pantano Grande	1
Sadeyat	1
Bagdad Yadid	1
Andinápolis	1
Filfil	1
Cátulo	1
San Vicente de la Baequera	1
Jamia	1
Guazú	1
Merced	1
germano	1
Laleli	1
Gatic	1
Maroussi	1
Avelaneda	1
Cuhuao	1
Fateh Jang	1
Atock	1
Fateh	1
Villa Puyrredón	1
Oktiabrski	1
Staropromislovski	1
Gera	1
Amara ( Sur	1
Dortyol	1
Zubizarreta	1
Morondanga	1
al-Askari	1
3078	1
Ázúcar	1
Pán	1
Shar-e Naw	1
Magdebourg	1
Mineralni Vodi	1
Braguny	1
Pajonal	1
porteño.Dos	1
Cañas	1
Iberlucea	1
Jacmel	1
Miragoâne	1
Petit-Goâve	1
San Pertersburgo	1
Zapla	1
Ekaterinburgo	1
San Blas de los Sauces	1
Angel Vicente Peñaloza	1
Ycuá	1
Bucaram	1
Rimini	1
Cosquín Rock	1
Loria	1
Eugenia	1
Cannes	1
Ferrol	1
Fazat Shnetir	1
La Charca	1
Roseti de Munro	1
JOSE	1
SUAREZ	1
Barrio Parque Horizonte	1
Parque Horizonte	1
Al-Yamiyá	1
Colina	1
Universal City	1
Neka	1
Paraná–	1
Zahra	1
Nankín	1
Nawabshah	1
Bani Yunes	1
Muktadiya	1
Aroma	1
Majdal	1
Narvik	1
Bodoe	1
Tel Afar	1
Amancio	1
Zainabia	1
Makri Jhoda	1
Santo Amaro	1
Saadun	1
Wadi Hayar	1
Arbeletche	1
Faizabat	1
Ana	1
Lil	1
Predappio	1
Bel-Air	1
Tempe	1
Lisburn	1
Qaim	1
al-Doura	1
Al Doura	1
Klaipeda	1
Doloresa	1
Las Tejas	1
Khan al-Bagdadi	1
Larrañaga	1
Baghdadi	1
Logroñés	1
Vitacura	1
LA BOCA	1
Braunschweig	1
Emden	1
Salzgitter	1
Aazamiyá	1
Roque Sáenz Peña al 700	1
Jeque Raduán	1
Shkoder	1
Nantes-Auxerre	1
Askari	1
Haqlaniyah	1
Dijalah	1
Mukata	1
campamentos	1
Helden	1
Abu-Deshir	1
Yantai	1
Zayouna	1
San Ignacio–	1
Heb	1
Kadisiya	1
Al-Karrada	1
Jihad	1
Al Qadisiya	1
Arnoun	1
Nova Alegria	1
Ashkalon	1
El Beit	1
Bet Shemesh	1
Duluiya	1
Fonseca	1
Kíev	1
Al Dura	1
Ninive	1
Aaychiye	1
Jalas	1
Genreal Sarmiento	1
Al Mafraq	1
Martínez Susto	1
Milán-	1
Beith	1
bonaeranse	1
Caputo	1
Mamerto Esquiú	1
Colmenar	1
la Barquera	1
Bhopal	1
Vidigal	1
Vila Isabel-	1
Marignane	1
Castilla - La Mancha	1
Camorra	1
Alwihda	1
Al Shifaa	1
Al Islah	1
Villa Punilla	1
Secondigliano	1
Naplusa.Los	1
VIRREY DEL PINO	1
Dolmabahce	1
Geraka	1
Jiddah	1
Jamiaa	1
Tabuk	1
Hail	1
Gani Tal	1
Marez	1
Amrussa	1
Mitiya	1
M	1
ridja	1
Sidi-Ferruch	1
Parque Salman	1
Pantanillo´	1
Ein al-Nus	1
Del Valle Iberlucea	1
Al Churqat	1
Arroyitos	1
Junín de los	1
Luoyangcon	1
Puerto San Salvador	1
Jaritiya	1
Kadesiya	1
Perú.-	1
Jila	1
Itzhar	1
Ick	1
Metropolitano San Martín	1
Neuquén-	1
Cutral.Co	1
Grosseto	1
Varese	1
Alcalá-Meco	1
Al Madaen	1
Cerro Banderas	1
Zaafaraniya	1
Hamdan	1
Alcalá Meco	1
al-Hurriya	1
Parmalat	1
Barrio Alta Córdoba	1
Crapachay	1
Al Churta	1
Al Dur	1
Al Churgat	1
Yadriya	1
Tshikapa	1
Kikwit	1
Valle Medio del	1
Champay	1
Ruzhou	1
Risala	1
Ufa	1
Astracan	1
Krasnojarsk	1
Alajabad	1
Puerca	1
Wai	1
Kumbh Mela	1
Restelli	1
Clemente	1
Cutral Có-Plaza Huincul.Los	1
Albertina	1
Khanagin	1
Lefortova	1
Lagoa do Junco	1
Demia	1
Laurel	1
Permovaskay	1
Kaim	1
Incas	1
Leganes	1
South Yorkshire	1
Mutana	1
Lekeitio	1
Barrcas	1
Córdona	1
Baata	1
Murumba	1
Gisenyi	1
Hariri	1
Yacapaní	1
Paraupebas	1
Koraytem	1
Drago	1
Anapu	1
Dudignac	1
Wiltshire	1
Dorset	1
Mbaracayú	1
Muenden	1
Liepzig	1
Everton	1
LA CAVA	1
Slonim	1
la Capital	1
Al Salhiya	1
Saénz Peña	1
Foz do Iguaçú	1
Villajoyosa	1
Cheblawat	1
Adhamiah	1
Coto-	1
Gold Coast	1
Higuey	1
Gazaliya	1
Al Digheil	1
Brisa Vallejos	1
Jabaniya	1
Tamim	1
Tamini	1
Salihia	1
Azopardo 802	1
Bosnia Herzegovina	1
Entre Ríos.¿De	1
Luis D´Elía	1
jurisdicciones	1
Lirenga	1
Magraq	1
Mayi-Ndombé	1
Uvira-	1
Arroyo y Suipacha	1
Duzce	1
Nuevo Jdeideh	1
Qüeta	1
Trafalgar	1
Rumsfeld	1
Rocori	1
Alta Vista	1
Lakunza	1
Da Costa Fontao	1
Daniel	1
Santa Fe Dureza	1
Kisrguizistán	1
Naryn	1
Domselaar	1
bonaerensede	1
Mobutu	1
Toro	1
Pinnelas Park	1
Binza	1
Docklands	1
Celina	1
Qeimados	1
Queimados	1
Vigario	1
Villa Setúbal	1
Unanué	1
Wadovice	1
Chestokowa	1
Gbadolite	1
Marconi	1
Co	1
Mariano Benítez	1
Manuel Ocampo	1
Blonia	1
Juan Andrés Peña	1
Lote Paulina	1
La Plata Caída	1
Uige	1
Profesor Salvador	1
Carpincho Macho	1
Al-Mahawil	1
Lezo	1
Ponciano	1
Babahoyo	1
Lorca	1
Ternana	1
Terni	1
Banjarmasin	1
Guachavez	1
Madean	1
Dongguan	1
San Salvador de	1
Ashoura	1
al-Taji	1
Cordona	1
Mer	1
Shenyang	1
Avellaneda–	1
Bad	1
Aibling	1
Deerfield	1
Erevan	1
Tsitsernakaberda	1
San José del Guaviare	1
Gandulfo	1
la Vega	1
Chlef	1
Adhamia	1
Saligh	1
Unzué	1
Tarmya	1
Podestá	1
Huriya	1
Oran	1
Talleress	1
Almagro–	1
Fernández Moreno	1
Aacucho	1
Sueira	1
Abu Nauas	1
Concarán	1
Tropea	1
Shlomi	1
Ghazalia	1
Amria	1
Al Adel	1
Jalal	1
Poto-Poto	1
Loubet	1
Barbacoas	1
SantaVictoria Oeste	1
al-Jarijiya	1
País Vasco español	1
Berdara	1
Soraluze	1
Bilbia	1
Soraluce	1
Oruro-Cochabamba	1
Neuquén y	1
Andijan	1
Cuenca del Plata	1
El Batán	1
Tuz Khurmatu	1
Jamilia	1
Aluiya	1
Pochat	1
Poeta	1
La Docta	1
Malowali	1
Bhakar	1
Sulauesi	1
Cutral-Có-Plaza Huincul	1
Madaien	1
Jaar	1
Maysan	1
Touz Kourmatou	1
McVeigh	1
Anlong Veng	1
Villa General Mitre	1
Ashragiyeh	1
Touz Khormatou	1
Cenareso	1
Somer	1
Colonia Montes de Oca	1
Incucai	1
Everglades	1
Celje	1
Ciudad de Caleta Olivia	1
Dabsi	1
Cuartel Villars	1
Villars	1
la Sierra	1
Sinkata	1
Nueve de	1
El Chocón	1
Haqlaniya	1
Sirari	1
Diyara	1
Saklauiya	1
Macchi	1
Puerto Seco	1
Canan	1
Gran Rosario-	1
Chivas	1
Ramón Castillo	1
Kadhimiyah	1
Jdeidé	1
Broumana	1
Yunieh	1
Wata	1
Neshoba	1
Azogues	1
Sant´Anna	1
Banda de Río Salí	1
El Chaco	1
Chula	1
La Nueva	1
Montparnase	1
Blas	1
Kassak	1
Al Qaim	1
Rachidiyah	1
Al Musayib	1
Tulul	1
Grabada	1
Las Chacritas	1
Majachkalá	1
Vedeno ( Este	1
Argun ( Sur	1
Charchino	1
Pakitika	1
Copenague	1
Stirling	1
Al-Mashroh	1
Sterling	1
Putney	1
Blanquiceleste	1
Walid	1
Al Rashid	1
Belvedere	1
Telford	1
Nield	1
La Quiaca-	1
Villa Progreso	1
Tres Cantos	1
Ujtá	1
Naqash	1
Yorkshire	1
Shavei	1
Bunos Aires	1
Leighton	1
St.Andrews	1
Rustamiya	1
Ferrero	1
Juan N. Fernández	1
Duluiyah	1
Duyeil	1
Villa Azalais	1
Nadteretchni	1
Yamún	1
Abu Dchir	1
Shepherds Bush	1
Olivia	1
Ramón Falcon	1
Monot	1
Ashrafiye	1
Máximo Abásolo	1
Shoreditch	1
Sharm El	1
Juan Fernández	1
Les Combes	1
Aosta	1
Mashtal	1
Wervicq-sur	1
Finchley	1
Mukhtar	1
Guildford	1
Einskillen	1
Notting	1
Ladbroke	1
Notting Hill	1
Gonzaga	1
provincias	1
Sheperd´s	1
Al Qibla	1
Al Dour	1
Unión del Norte	1
Ñuñorco	1
Jabal Ataka	1
Castilla La Mancha	1
GLEW	1
Norrmalmstorg	1
Jaguel	1
Pendik	1
Entre Río	1
Río Cuarto-	1
Dakuk	1
Phnom	1
Villa Goldberg	1
Sharm el Sheij	1
Sjeverin	1
Long Island	1
Honolulu	1
HB	1
Churgat	1
Sa-Nur	1
C.órdoba	1
Bangladeshi	1
Khagrachhari	1
100	1
Capital.En	1
Mrkonjic	1
Prijedor	1
Katif	1
Ganim	1
Kadim	1
Sanur	1
Isleta	1
Kabatia	1
Sa	1
Saddam	1
Salahaldin	1
Dour	1
Amityville	1
Sa-nur	1
Bet El	1
Beraja	1
Karachajevo-Cherkesia	1
Mayor	1
Hilario	1
Pozo del Tumé	1
Matto Grosso do Sul	1
Douz	1
Gravataí	1
Caballito.co	1
Soeme	1
Beni Suef	1
Gammalia	1
Mollet del Vallés	1
Aboyne	1
Dumfries	1
Lisnagevlin	1
Kildare	1
Golfo	1
Castel	1
La Rana	1
Yocsina	1
Madina	1
Al-Chola	1
Mahané	1
Silvio	1
Tuz Jormato	1
Fuel	1
Nahrawan	1
Nahraan	1
Potrancas	1
Ripamonte	1
Rosemont	1
Vitebsk	1
Berrocalejo	1
Aragona	1
Barrio Viejo	1
Younieh	1
De Benedetti y Suárez	1
Naltchik	1
Caúcaso	1
Kabardino-Balkariya	1
Kirkurk	1
Aracajú	1
Kfur	1
Tift	1
Colquitt	1
Servini	1
Cazucá	1
Raiet	1
Mar de	1
Donetz	1
Encuentro Amplio	1
Córdoba Neuquén	1
En La Plata	1
Jaliss	1
Elí	1
Al-Bu Faraj	1
Penal	1
al-Dujail	1
Kaiserslautern	1
Muzafarabad	1
Schiphol	1
Joaquín V.	1
Sevran	1
Tremblay-en-France	1
Neuilly-sur-Marne	1
Musaieb	1
Ile de France	1
Nowgam	1
Semdinli	1
Kfar Houna	1
Okhla	1
Diali	1
Amal	1
Safwa	1
Najda	1
Dor	1
Boipeba	1
Juzestán	1
Gazaliyah	1
Thalia	1
Corach	1
Lata	1
Evreux	1
Sète	1
Hay	1
Dali	1
Amurrio	1
Barquera	1
Antiguo	1
Durañona	1
Sint Niklaas	1
Amtrak	1
Bassens	1
Yebel Amán	1
Yebel Amman	1
Tallusa	1
Boukrine	1
Janta	1
Estrellita	1
Antony	1
Lancashire	1
Bouches-du-Rhone	1
Borgoña	1
Bocas del Ródano	1
Essone	1
Sidapan	1
Dos Palmas	1
Clichy-sous-bois	1
Houdaier	1
pueblada	1
Alsacia-Lorena	1
Capilla del	1
Bet Sajur	1
Najlín	1
Pusan	1
Chatelineau	1
Boussu	1
Urbano	1
Carranza 2330	1
Romans-sur-Isere	1
Puerto España	1
Caleta Córdova	1
vivero	1
Wasiriya	1
Janaqin	1
BARILOCHE	1
Sidi Moussa	1
Kerrach	1
Dauda	1
Kolea	1
Ksar El-Bujari	1
Hayut	1
Ketchaua	1
Basualdo	1
Maalba	1
Frais Vallon	1
Torres del Sol	1
La Pequeña	1
Guaporé	1
Penha Circular	1
Irajá	1
Rebu	1
Jagua	1
Ibirico	1
Todos los Santos	1
Puerto Colón	1
Halberstadt	1
Briesen	1
Jhalakathi	1
Parayas-Santander	1
Dongzhou	1
Hernando Siles	1
Plock	1
An	1
General Rodíguez	1
Johannesburgo-	1
Acharafie	1
Achrafie	1
Peron.Allí	1
Capital Apoyo	1
Taza Jurmato	1
Tritón	1
Juitepec	1
Adhaim	1
Acatlán	1
Puebla-	1
Netaji	1
Picchu	1
Bahruz	1
Karadah	1
Rasafa	1
Oso Blanco	1
San Andrés Larráinzar	1
Schlusselburg	1
Playa Rica	1
Ferris	1
Soconcho	1
Palmapampa	1
Apurímac-Ene	1
Ghajar	1
Muqdadiya	1
Fermanagh	1
Regaia	1
Beni Sliman	1
Bugara	1
Hadjut	1
Rottemberg	1
Beni Slimane	1
El Melocotón	1
Bajo Yapeyú	1
Sidi Merzug	1
Ski	1
Segundo	1
Melaha	1
Chrea	1
Alto de Bodega	1
Bataween	1
Guelb El-Kebir	1
Inayat Killi	1
Damadola	1
El Volcán	1
Sidi el Kebir	1
Saidan Banda	1
Ibrahimzai	1
Paloquemao	1
Cartucho	1
Raat	1
Koluel Kaike	1
RICA	1
Bilbabo	1
Safaga	1
Piteaa	1
Asharafieh	1
Belair	1
De Vicenti	1
Martín de los Andes	1
Acasusso	1
Sind	1
Utar Pradesh	1
Alto Pacae	1
Bab Sharqi	1
Kadimiyah	1
Kazimiyah	1
Huallaga	1
Latifiyah	1
Qabaisy	1
Al Madain	1
Al Mafrag	1
Al-Yadida	1
Tranahué	1
Jardim Olinda	1
Saudade	1
Santa Isabel do Ivai	1
Etxebarri	1
Garopaba	1
Buzareah	1
Hydebarad	1
Zaafariniya	1
Jarf	1
Mungia	1
Darbhaguda	1
Wenseslao Villafañe	1
Abu Chir	1
Abu Dishir	1
Askariya	1
Bentos	1
Maimana	1
Maymana	1
Gros-morne	1
Santa Cruz–	1
Saladín	1
Al Turaz	1
Zafraniya	1
Perú 130	1
Varanasi	1
Manguinhos	1
Parque Alegría	1
Waziristán Norte	1
Equs	1
Epulafquen	1
Kamaliya	1
Miní	1
Costa Caribe	1
Comillas	1
Illapel	1
Sayago	1
Cabildo 1370	1
Tapia de Cruz	1
Sao Cristovao	1
Villa Rivera Indarte	1
gualeguaychuenses	1
Sena-Saint-Denis	1
Cisjordania.–	1
Roanne	1
Ciudad Condal	1
Río Uruguay	1
Jamisacuyos	1
Jundiai	1
Ulis	1
Athis-Mons	1
Pulmoddai	1
Azcoitía	1
poniente	1
Invalides	1
Aten	1
Ribai	1
Bougtob	1
Lille-	1
Centro Avellaneda	1
Puerto Santander	1
Garopaba-	1
Mans	1
Kedumin	1
Tebesa	1
Setif	1
Vittorio	1
Sebastián	1
Venceremos	1
Boulogne-sur-mer	1
Yariguarenda	1
Guelma	1
Saliquelló	1
Salguero y Gelly	1
Bayern Múnich	1
Nogar	1
Shaibah	1
Cherburgo	1
Pompei	1
Slavutich	1
Sanak	1
Berañain	1
Mesa Rica	1
Los Tilos	1
Gerala	1
Prodi	1
Helguera	1
Little Argentina	1
Vélez-Boca	1
Aguas de los Andes	1
Spegazzini	1
Jurf al-Sajar	1
Ghazaliyá	1
Homestead	1
Gaueleguaychú	1
Corinthians	1
Leningrado	1
Corumbá	1
El-Hamza	1
Mascara	1
Aouf Hamlet	1
Chalon-sur-Saone	1
Tazmunt	1
Cuadro	1
Mañazco	1
Zufriategui	1
Andahuayalas	1
Avaré	1
Avare	1
Tolosa-	1
Ingouchia	1
Lázaro	1
Sao José de Rio Preto	1
Itapecerica da Serra	1
Araquara	1
Viena-	1
San José de Rio Preto	1
Mosa Qala	1
Baaqouba	1
Villa Tranquila	1
Ayabaca	1
Oruzgán	1
Tirin Kot	1
Caballlito	1
Locumba	1
Chuala	1
al Madaen	1
al-Baiyaa	1
Weggis	1
Peña y Agüero	1
Husiniya	1
Al Husseiniya	1
Dawra	1
Bagad	1
ElCairo	1
Ishaqui	1
Hapshetsut	1
Valle de las Reinas	1
Tapa	1
Buhrutz	1
Hawijah	1
Komsomolskoye	1
Ued Zitun	1
Chevaley	1
Germán Burgos	1
Beit Lahía	1
Lacaze	1
Alam	1
Moreno 1729	1
El Chota	1
Baraladruz	1
Mostar	1
Murindó	1
Beit Lif	1
Shwaka	1
Hibhib	1
diagonales	1
Saaba al-Bour	1
Itirapina	1
Tarin Kot	1
Zharie	1
Las Américas	1
Zhilanghwi	1
Rosarito	1
Jarnabat	1
Merseyside	1
Hampstead	1
Belén las Playas	1
Cuidadela	1
Talbiyah	1
Esteban Bonorino 1800	1
Barrio Fonavi	1
Anhangabau	1
Teotihuacan	1
Atatra	1
Cabo Occidental	1
Port Arthur	1
Budionovsk	1
Ekajevo	1
Borivali	1
Jogeshwari	1
Bandra	1
Matunga	1
POK	1
Gandhinagar	1
Colastiné Sur	1
Guanajato	1
Tlaxcala	1
Urdininea	1
Paisandú	1
Al-Jihad	1
Jitim	1
Migdal	1
Evron	1
Abu Snan	1
Praia Grande	1
Carsfe	1
Pangandaran	1
Deba	1
Uzal	1
Choueifat	1
Bosnjacka Mahala	1
Tuz Kurmatu	1
Vidal	1
Kolkata	1
Baalbeck	1
el Colón	1
Irkoutsk	1
Furat	1
Sukarrieta	1
Garmsir	1
Krian	1
Yamila	1
Chaco y Formosa	1
Shangyou	1
marras	1
Markaba	1
Líbano.–	1
Yarún	1
General Dorrego	1
Llao Llao	1
Vuriloche	1
Gipúzcoa	1
Bint Jubayl	1
Maroun al-Ras	1
Taybeh	1
Arasat	1
Qarrade	1
Chorjah	1
Suera	1
Waset	1
VillaAlbertina	1
Mesopotamia	1
Nuestra Señora de Luján	1
Cruz de Piedra	1
kibutz	1
Kfar Guiladi	1
Juan de Acre	1
Maalot	1
Honin	1
Caviahue	1
Masisi	1
Ghaziye	1
Chorja	1
Mauá	1
Miguelópolis	1
Hortolandia	1
Barrio Rivadavia	1
Bolívar 1.	1
Chiyah	1
Valle de Bekaa	1
la Sota	1
Saint Germain	1
Zafaraniyah	1
Sanaye	1
Mullaitivu	1
Ya´Qubi	1
Shygal	1
Zabol	1
Rajmin	1
Taibe	1
BARRIO	1
Minetto	1
Al Fadel	1
Al Suleij	1
Al Waziriya	1
Ban Al Moazam	1
Barrio El Peligro	1
Valle de Traslasierra	1
Cura Brochero	1
Stavanger	1
Lagomaggiore	1
Al-Jalis	1
Cullar Vega	1
Fitz	1
Qadisiye	1
Qadisye	1
Al Zuhur	1
Dammarir-les-Lys	1
Siene-et-Marne	1
Panjawayi	1
San José de Pocitos	1
Ponta	1
Taiyran	1
Qahtan	1
Aguachica	1
Santuario	1
Cundimarca	1
Fluminense	1
Malnatti	1
Pintana	1
Ezbekie	1
Zahira	1
Zayyunah	1
Corsa	1
Al-Hurriyah	1
Marktl	1
Bayonne	1
Bani Saad	1
Altötting	1
Maisonave	1
Castelgandolfo	1
Qaom	1
Ghom	1
Lecce	1
Seyusinan	1
Udhaym	1
Al Huriya	1
AUSA	1
Tegueste	1
Garachico	1
Foetra	1
Kamphaengphet	1
Chenalho	1
Arritxu	1
Oiartzun	1
Puli	1
Berruaghia	1
Tamezguida	1
Camp Sara	1
Hableh	1
Singar	1
Delta de Tigre	1
Stord	1
Sidi Bel Abbes	1
Laghouat	1
Makilala	1
de Guerrero	1
urbe	1
Martorell	1
Al Chabiya	1
Tayarán	1
balinés	1
Tropezón	1
GŸemes	1
Abassan	1
Kona	1
Sauira	1
Al-Sadr	1
Malaga	1
Sur El Ghozlan	1
Beni Yeddu	1
Solano Oeste	1
Vauvert	1
Nimes	1
Chin Tabaraden	1
Sidi Hamed	1
Haouche Sahraoui	1
José Marmol	1
Punggyeri	1
Villa Podestá	1
Villa Zabaleta	1
Blanc Mesnil	1
Daychopan	1
Tarin Kowt	1
Montelíbano	1
Chapere	1
Acara	1
Villa Páez	1
Al Yusefiya	1
Thuwaitha	1
Palm	1
Shuhada	1
Rocío	1
North West Frontier	1
Adamiyah	1
MAR	1
Givat	1
PLATA.-Tras	1
Al-Qadissya	1
Osorio	1
Dunmurry	1
Maghera	1
Yahaveré	1
Neguev	1
Huimanguillo	1
Moscul	1
Ollachea	1
Huallanca	1
Carcañá	1
En Neuquén	1
Nuevo Mexico	1
Capital.La	1
Savile	1
Yatay	1
Caglayan	1
Nuestra Señora del Rosario	1
Llodio	1
al-Sadriya	1
Presidente Epitacio	1
Campezo	1
Pringles 50	1
Pichi Picún Leufú	1
desalojo	1
Costas	1
San José del Talar	1
Jan Junis	1
Rannelagh	1
Kamaliyah	1
Al Jadida	1
Lo Hermida	1
Limón	1
Rusafa	1
Al Sinik	1
Paradas	1
Marchena	1
arroyo Verde	1
Chiquitanía	1
Oruru	1
Kaa El-Djebel	1
Coronel Zelaya	1
SAN ISIDRO	1
Belgrano Chico	1
Puño	1
Boynton Beach	1
Al-Jadida	1
Al Tulabiya	1
Abule Egba	1
Dujail—	1
Warri	1
Jesse	1
Dinsoor	1
Bab al-Sharji	1
Menores de Lomas de Zamora	1
Gerez	1
Ingeniero Allan	1
Harriya	1
Harriyah	1
Chiang Mai	1
Campinho	1
Santa Tereza	1
Caxias	1
São João de Merití	1
Doñana	1
Atxondo	1
Palate	1
Treveris	1
Lyon-	1
Hamamatsu	1
Nuestra Señora del Socorro	1
Apanteos	1
GESELL	1
Malibu	1
Hayow	1
Kudha-	1
Cebú	1
Mar de las Pampas	1
Necochea LA PLATA.-	1
Solari	1
Sukhumi	1
Tuiti	1
Awja	1
San Francisco del Monte de Oro	1
El Barrial	1
Incirlik	1
Lukavica	1
Bestoso y	1
Jales	1
Tresibonda	1
de las Pampas	1
Batroun	1
Zokat	1
Talat	1
Beyaa	1
Al Ghazel	1
Iskanderiya	1
Guba	1
O Brien	1
De la Quintana	1
Jelazun	1
Dur	1
Khaneqin	1
Khadimiyah	1
Bab al Charki	1
Bal al Muddam	1
Khales	1
Amana	1
Cidade Alta	1
Barbante	1
Villa General Roca	1
Tripura	1
Asam	1
Coimbatore	1
MELCHOR	1
Aziziyah	1
Hirschfeld	1
Islas del Ibicuy	1
Dawr	1
Etcheverri	1
Sampdoria	1
Bab al Sharqi	1
Sidi-Belabes	1
Hamdallaye	1
Guido y Paz	1
Ein Alaq	1
Si-Mustafá	1
Souk el-Had	1
Draa Ben Jedda	1
Bordj Menaiel	1
Boumerdés	1
Tizi-Uzú	1
Derghana	1
Reghaia	1
Buchaui	1
Si Mustafá	1
Ain Alaq	1
Megrelia	1
Iturria	1
Frejuli	1
Zahedán	1
Covimet	1
Sistán-Baluchistán	1
Sidi-Yilali	1
Zaafaraniyá	1
Douiyá	1
Gujarawala	1
Birjadem	1
Alsunga	1
Agua Prieta	1
Moira	1
Kasbah	1
Baiyaa	1
pampeano	1
Venadillo	1
De Juana	1
Nova Iguacu	1
Gdor	1
pampeanas	1
Musa Qala	1
Saidiya	1
Goiânia	1
Yijachkari	1
Urumié	1
Mustansiriya	1
Villa Francia	1
Luis Beder	1
Arroyo Tegua	1
Cárcova	1
filipina	1
Kamyshevatskaya	1
Gaur	1
Democrática	1
Nizhny Novgorod	1
Laje	1
al-Wahda	1
Etampes	1
Estación del Norte	1
Santiago Centro	1
Urdaniz	1
Ríos Cuarto	1
El-Shaab	1
Remolinos	1
Téllez	1
Almada	1
DOMINICO	1
Ríos Negro	1
del Fuego	1
Centenario-Cinco Saltos	1
Al Fadhel	1
Bardiani	1
Bab Ezzouar	1
Coquimbito	1
Lower	1
RIOJA.-	1
Dakha	1
Saavedra-	1
Tugenyev	1
El Pasillo	1
Caraparí	1
Campo Pajoso	1
Eufrasio Alvarez	1
O Connor	1
Sadriyah	1
Risafi	1
El Billar	1
Riva dei Tessali	1
Pervomaiskoye	1
Maitama	1
Tal Uskuf	1
Ruby	1
Apalaches	1
San Eliseo	1
Nea Erithrea	1
Pangrati	1
Lan	1
Johvi	1
Charssada	1
Bisordi	1
Conchilla	1
Ketchaoua	1
Manisa	1
Canakkale	1
Clichy	1
Albu-Thiyab	1
Villa Urquiza-	1
Landázuri	1
Avicar	1
Parque Field	1
Orsk	1
Arizpe	1
Rimal	1
Tiero	1
Marena	1
Dune	1
Verdún	1
Guangxi	1
Constutitución	1
Ulus	1
Mandali	1
Aley	1
Athgaon	1
Rondópolis	1
Yenin	1
CARACAS.-	1
Almagro-Ferro	1
Rajastan	1
Patoli	1
Hortiguera	1
Ingeniero Machwitz	1
El Campito	1
Pelotillehue	1
Fort Dix	1
Harguindeguy	1
Penonomé	1
Coclé	1
Chililabonbe	1
Rostock-Lichterhagen	1
Cartón	1
Villa Libertad	1
Mansouri	1
Bagnères	1
Bigorre	1
Qurna	1
El Retiro	1
Toribio	1
Barranquitas	1
Delavan	1
Echazú	1
Al-Askari	1
Rauche	1
Bernal Unido	1
Morón En Morón	1
Cachillacu	1
Kiryat Shmona	1
Daly City	1
Paraopebas	1
Guipúzcoa.-	1
Sulaiman Pek	1
Suleiman	1
Barmal	1
Aguy Poty	1
Kapi´i Poty	1
Khiyam	1
Juanchaco	1
Cabak	1
Grand Burg	1
Morro do Dendê	1
Paracuellos	1
Punak	1
Grota	1
Curupaití	1
Chorroarín	1
Piccadilly	1
Vista Hermosa	1
Riddrie	1
Villa Huracán	1
Volta	1
Potrero San Antonio	1
Ahmud Mares	1
Tribunanales	1
Emerli	1
San José del Palmar	1
Capital Cifras	1
Zargosh	1
Al-Kut	1
Chichen Itzá	1
Mirapampa	1
Pernanbuco	1
Bajur	1
Elampatti-Regadgatta	1
Raipur	1
Huanta	1
Nahr al-Bared	1
tamaulipeca	1
Quiapo	1
Waziristan Norte	1
Hub	1
Rincón de la Victoria	1
Duwailiya	1
Paderno Dugnano	1
Parque del Este	1
Jalgaon	1
Collblanc	1
Patagonia-	1
Gràcia	1
Horta-Guinardó	1
Puglia	1
Ghadeer	1
Clevelandia	1
Lannemezan	1
Cabra Corral	1
Salta y Brasil	1
CLIBA	1
Robben	1
Casa Verde	1
Carrascosa	1
Machado y Cañada de Gómez	1
Stormont	1
Dosali	1
Bárbara	1
Madhubani	1
Pujol	1
Quinchos	1
LAS	1
Gowland	1
Quiché	1
Al Jalisiya	1
Bandosh	1
Espejo 47	1
Neosho	1
Novgorod	1
Al-Jazeera	1
Al-jazeera	1
Haras	1
Ballymena	1
Caá Porá	1
Lomada	1
Purwokerto	1
Sunampe	1
Santa Rosa del Palmar	1
Penna	1
Currulao	1
Parauapebas	1
Kothi	1
Fonsagrada	1
Malegaon	1
Musa Kala	1
Khoqyani	1
Andar	1
Qara Bagh	1
Panjwayi	1
Ponferrada	1
Ninth	1
Obeid	1
Barrio Las Palmas	1
Río Grande Do Sul	1
Salento	1
Quindío	1
Soisy-sous-Montmorency	1
Colonia Escalante	1
Villa Parque	1
Coblenza	1
Alekowzi	1
Lakhadaria	1
Abrucessi	1
Antonello	1
Rijeka	1
Belagoa	1
Duranto	1
La Cisterna	1
La Estrella	1
Los Abedules	1
La Caballeriza	1
Bab Al Muazam	1
Horch Tabet	1
Medford	1
Sin al-Fil	1
Cosquín-	1
Gregores	1
Fuenmayor	1
Botataung	1
Taunggok	1
Labutta	1
Sittwe	1
Chimen Aike	1
Beaver	1
Mata Grande	1
Guastavino	1
Saint Dizier	1
Crandon	1
Beriain	1
Santa María de las Conchas	1
Lizarza	1
Diyarbakis	1
Camp Victory	1
La Encarnación	1
Shejaeya	1
Wanni	1
Bagnasco	1
Kornstadt	1
Yuksekova	1
Putian	1
Xiuyu	1
Figueres	1
Trivandrum	1
Douai	1
Maipú 88	1
Adevifra	1
Shah	1
Kowt	1
Sinya	1
Irrawaddy	1
Togliatti	1
Lomas de Zamora-	1
Sankt-Poelten	1
Village Recoleta	1
Cambrai	1
Moreno y Chivilcoy	1
Pacará	1
Tuulusa	1
Santa Cruz de Campezo	1
Arezzo	1
Lombardía	1
Gualeuaychú	1
Cannas	1
Viru	1
Balduina	1
Emiratos	1
Gueleguaychú	1
San Diego County	1
Aleara	1
Quintino	1
Dera Ghazi	1
Adefa	1
SANTIAGO DEL	1
ESTERO	1
Ermont-Eaubonne	1
Garges-lès-Gonesse	1
Goussainville	1
Cergy-Pontoise	1
Pokhran	1
Trisakti	1
PALOMAR	1
Bajo Belgrano	1
Haut Mauco	1
Las Landas	1
Rukingiri	1
Chehel Soton	1
San José dos Campos	1
ribera	1
Garbellano	1
Dayuma	1
Arvada	1
Verónica	1
Classon	1
Boyolali	1
Karanganyar	1
Sukohardjo	1
Ben Aknun	1
Cómbita	1
Corte	1
La Calabria	1
Trisatki	1
Sestao	1
Lekeito	1
Arrasate Mondragón	1
Zárate Garbellano	1
Azhero-Sudzhensk	1
CIUDAD	1
de Oca	1
Gasset	1
Aftab Khan	1
Sherpao	1
Huachipa	1
Calang	1
Alger	1
Guayadamerín	1
Sutecba	1
Edinboro	1
Port Harcourt	1
Tierras Altas	1
Oroco	1
Sprinfield	1
Lone Oak	1
Ryan	1
Danville	1
Oakwood	1
Tierno	1
Madaba	1
Qabatiya	1
La Barra-	1
Clichy-Sous-Bois	1
Yabaliya	1
Balah	1
San Patricio del Chañar	1
Arbol Solo	1
do Iguazú	1
Medjugorje	1
Nakuru	1
Limuru	1
Kariobangi	1
Hazmiyah	1
San José de Metán	1
Trans Mara	1
ESTEBAN	1
Fuencarral	1
Virrey Vértiz	1
Kisii	1
Al-Ghazl	1
Buttala	1
Punta Umbría	1
Rostaq	1
Chah Ab	1
Linyi	1
Trudering	1
Ludwishafe	1
Newfoundland	1
Los Tábanos	1
Aidak	1
Namdaemun	1
Jerez	1
Kafar Soussa	1
Tary Dibba	1
Mariano Comas	1
Lácar	1
pinamarense	1
Bujanovac	1
Medvedeva	1
Alegría del Pino	1
Ramos-Horta	1
Jarinje	1
Banja	1
Provenza	1
Pato	1
Agua Santa	1
Teteye	1
Mekele	1
Molo	1
Jabaliyah	1
Pie de Palo	1
Darra Adam Khel	1
IPV	1
Cementista	1
Tanndu Masti	1
Arrasate	1
Alpujarra	1
Westerville	1
Jesús Maria	1
Bankor	1
Drepung	1
Gande	1
Dharmsala	1
tibetana	1
Altos Hornos Zapla	1
Sangchu	1
Florián	1
Piedritras	1
Haidian	1
Villa Wanda	1
Bernardo Larroudé	1
La Pampa-	1
La Puerta	1
Huanguelen	1
Villa Merceces	1
Guardia del Monte	1
Mocoretá.Los	1
Cruce Alcorta	1
Garrico	1
Villa Florida	1
Haramat	1
de Mayo	1
Hera	1
Arroyo del Sauce	1
Arroyo el Sauce	1
Garze	1
Sicuani	1
Juárez Celman	1
Bafra	1
Samsun	1
Bowen	1
Jokhang	1
Santiago de Estero	1
Pilcomayo	1
Camberra	1
Dharmshala	1
Ramoche	1

Total	81143
filtered total
